"state","county","cousubfp","placefp","zcta5","metdiv10","sduni","cntysc","placesc","stab","cntyname","cousubnm","placenm","mdivname10","zipname","uschlnm10","pop10","afact"
"State code","County code","County subdivision code","Place code","ZIP census tabulation area","metdiv10","Unified school district (2010)","cntysc","placesc","State abbreviation","County name","County subdivision name","Place name","2010 Metro div name","ZCTA name","Unified school district name 2010","Total population (2010)","placesc to state allocation factor"
"02","02013","01598","01090","99553","99999","00007","2500-9999","1000-2499","AK","Aleutians East Borough AK","Aleutians East census subarea","Akutan city, AK","99999","Akutan, AK","Aleutians East Borough School District",1027,1 
"02","02013","01598","16530","99571","99999","00007","2500-9999","Less than 200","AK","Aleutians East Borough AK","Aleutians East census subarea","Cold Bay city, AK","99999","Cold Bay, AK","Aleutians East Borough School District",108,1 
"02","02013","01598","24660","99583","99999","00007","2500-9999","Less than 200","AK","Aleutians East Borough AK","Aleutians East census subarea","False Pass city, AK","99999","False Pass, AK","Aleutians East Borough School District",35,1 
"02","02013","01598","39410","99612","99999","00007","2500-9999","200-999","AK","Aleutians East Borough AK","Aleutians East census subarea","King Cove city, AK","99999","King Cove, AK","Aleutians East Borough School District",938,1 
"02","02013","01598","52940","99571","99999","00007","2500-9999","Less than 200","AK","Aleutians East Borough AK","Aleutians East census subarea","Nelson Lagoon CDP, AK","99999","Cold Bay, AK","Aleutians East Borough School District",52,1 
"02","02013","01598","67020","99661","99999","00007","2500-9999","200-999","AK","Aleutians East Borough AK","Aleutians East census subarea","Sand Point city, AK","99999","Sand Point, AK","Aleutians East Borough School District",976,1 
"02","02013","01598","99999","99661","99999","00007","2500-9999","Not in a place","AK","Aleutians East Borough AK","Aleutians East census subarea"," ","99999","Sand Point, AK","Aleutians East Borough School District",2,1 
"02","02013","01598","99999","99999","99999","00007","2500-9999","Not in a place","AK","Aleutians East Borough AK","Aleutians East census subarea"," ","99999","99999","Aleutians East Borough School District",3,1 
"02","02016","01615","00065","99546","99999","00010","2500-9999","200-999","AK","Aleutians West Census Area AK","Aleutians West census subarea","Adak city, AK","99999","Adak, AK","Aleutian Region School District",326,1 
"02","02016","01615","04210","99547","99999","00010","2500-9999","Less than 200","AK","Aleutians West Census Area AK","Aleutians West census subarea","Atka city, AK","99999","Atka, AK","Aleutian Region School District",61,1 
"02","02016","01615","04670","99999","99999","00010","2500-9999","Less than 200","AK","Aleutians West Census Area AK","Aleutians West census subarea","Attu Station CDP, AK","99999","99999","Aleutian Region School District",21,1 
"02","02016","01615","54260","99638","99999","00010","2500-9999","Less than 200","AK","Aleutians West Census Area AK","Aleutians West census subarea","Nikolski CDP, AK","99999","Nikolski, AK","Aleutian Region School District",18,1 
"02","02016","01615","65800","99591","99999","00670","2500-9999","Less than 200","AK","Aleutians West Census Area AK","Aleutians West census subarea","St. George city, AK","99999","St. George, AK","Pribilof School District",102,1 
"02","02016","01615","66470","99660","99999","00670","2500-9999","200-999","AK","Aleutians West Census Area AK","Aleutians West census subarea","St. Paul city, AK","99999","St. Paul, AK","Pribilof School District",479,1 
"02","02016","01615","80770","99685","99999","00720","2500-9999","2500-9999","AK","Aleutians West Census Area AK","Aleutians West census subarea","Unalaska city, AK","99999","Unalaska, AK","Unalaska City School District",4224,1 
"02","02016","01615","80770","99692","99999","00720","2500-9999","2500-9999","AK","Aleutians West Census Area AK","Aleutians West census subarea","Unalaska city, AK","99999","Unalaska, AK","Unalaska City School District",152,1 
"02","02016","01615","99999","99999","99999","00010","2500-9999","Not in a place","AK","Aleutians West Census Area AK","Aleutians West census subarea"," ","99999","99999","Aleutian Region School District",178,1 
"02","02020","03050","03000","99501","99999","00180","250,000-999,999","250,000-999,999","AK","Anchorage Borough AK","Anchorage census subarea","Anchorage municipality, AK","99999","Anchorage, AK","Anchorage School District",17603,1 
"02","02020","03050","03000","99502","99999","00180","250,000-999,999","250,000-999,999","AK","Anchorage Borough AK","Anchorage census subarea","Anchorage municipality, AK","99999","Anchorage, AK","Anchorage School District",24168,1 
"02","02020","03050","03000","99503","99999","00180","250,000-999,999","250,000-999,999","AK","Anchorage Borough AK","Anchorage census subarea","Anchorage municipality, AK","99999","Anchorage, AK","Anchorage School District",14553,1 
"02","02020","03050","03000","99504","99999","00180","250,000-999,999","250,000-999,999","AK","Anchorage Borough AK","Anchorage census subarea","Anchorage municipality, AK","99999","Anchorage, AK","Anchorage School District",40914,1 
"02","02020","03050","03000","99505","99999","00180","250,000-999,999","250,000-999,999","AK","Anchorage Borough AK","Anchorage census subarea","Anchorage municipality, AK","99999","Anchorage, AK","Anchorage School District",6174,1 
"02","02020","03050","03000","99506","99999","00180","250,000-999,999","250,000-999,999","AK","Anchorage Borough AK","Anchorage census subarea","Anchorage municipality, AK","99999","Anchorage, AK","Anchorage School District",7749,1 
"02","02020","03050","03000","99507","99999","00180","250,000-999,999","250,000-999,999","AK","Anchorage Borough AK","Anchorage census subarea","Anchorage municipality, AK","99999","Anchorage, AK","Anchorage School District",37850,1 
"02","02020","03050","03000","99508","99999","00180","250,000-999,999","250,000-999,999","AK","Anchorage Borough AK","Anchorage census subarea","Anchorage municipality, AK","99999","Anchorage, AK","Anchorage School District",35857,1 
"02","02020","03050","03000","99515","99999","00180","250,000-999,999","250,000-999,999","AK","Anchorage Borough AK","Anchorage census subarea","Anchorage municipality, AK","99999","Anchorage, AK","Anchorage School District",22441,1 
"02","02020","03050","03000","99516","99999","00180","250,000-999,999","250,000-999,999","AK","Anchorage Borough AK","Anchorage census subarea","Anchorage municipality, AK","99999","Anchorage, AK","Anchorage School District",20095,1 
"02","02020","03050","03000","99517","99999","00180","250,000-999,999","250,000-999,999","AK","Anchorage Borough AK","Anchorage census subarea","Anchorage municipality, AK","99999","Anchorage, AK","Anchorage School District",16645,1 
"02","02020","03050","03000","99518","99999","00180","250,000-999,999","250,000-999,999","AK","Anchorage Borough AK","Anchorage census subarea","Anchorage municipality, AK","99999","Anchorage, AK","Anchorage School District",10225,1 
"02","02020","03050","03000","99540","99999","00180","250,000-999,999","250,000-999,999","AK","Anchorage Borough AK","Anchorage census subarea","Anchorage municipality, AK","99999","Anchorage, AK","Anchorage School District",320,1 
"02","02020","03050","03000","99567","99999","00180","250,000-999,999","250,000-999,999","AK","Anchorage Borough AK","Anchorage census subarea","Anchorage municipality, AK","99999","Anchorage, AK","Anchorage School District",9211,1 
"02","02020","03050","03000","99577","99999","00180","250,000-999,999","250,000-999,999","AK","Anchorage Borough AK","Anchorage census subarea","Anchorage municipality, AK","99999","Anchorage, AK","Anchorage School District",25771,1 
"02","02020","03050","03000","99587","99999","00180","250,000-999,999","250,000-999,999","AK","Anchorage Borough AK","Anchorage census subarea","Anchorage municipality, AK","99999","Anchorage, AK","Anchorage School District",2250,1 
"02","02050","03580","03550","99557","99999","00760","10,000-24,999","200-999","AK","Bethel Census Area AK","Aniak census subarea","Aniak city, AK","99999","Aniak, AK","Kuspuk School District",501,1 
"02","02050","03580","14330","99557","99999","00760","10,000-24,999","Less than 200","AK","Bethel Census Area AK","Aniak census subarea","Chuathbaluk city, AK","99999","Aniak, AK","Kuspuk School District",118,1 
"02","02050","03580","17850","99575","99999","00760","10,000-24,999","Less than 200","AK","Bethel Census Area AK","Aniak census subarea","Crooked Creek CDP, AK","99999","Crooked Creek, AK","Kuspuk School District",105,1 
"02","02050","03580","44030","99557","99999","00520","10,000-24,999","Less than 200","AK","Bethel Census Area AK","Aniak census subarea","Lime Village CDP, AK","99999","Aniak, AK","Iditarod Area School District",29,1 
"02","02050","03580","45460","99626","99999","00760","10,000-24,999","200-999","AK","Bethel Census Area AK","Aniak census subarea","Lower Kalskag city, AK","99999","Lower Kalskag, AK","Kuspuk School District",282,1 
"02","02050","03580","64930","99656","99999","00760","10,000-24,999","Less than 200","AK","Bethel Census Area AK","Aniak census subarea","Red Devil CDP, AK","99999","Red Devil, AK","Kuspuk School District",23,1 
"02","02050","03580","71090","99668","99999","00760","10,000-24,999","Less than 200","AK","Bethel Census Area AK","Aniak census subarea","Sleetmute CDP, AK","99999","Sleetmute, AK","Kuspuk School District",86,1 
"02","02050","03580","73400","99557","99999","00760","10,000-24,999","Less than 200","AK","Bethel Census Area AK","Aniak census subarea","Stony River CDP, AK","99999","Aniak, AK","Kuspuk School District",54,1 
"02","02050","03580","81320","99607","99999","00760","10,000-24,999","200-999","AK","Bethel Census Area AK","Aniak census subarea","Upper Kalskag city, AK","99999","Upper Kalskag, AK","Kuspuk School District",210,1 
"02","02050","03580","99999","99503","99999","00760","10,000-24,999","Not in a place","AK","Bethel Census Area AK","Aniak census subarea"," ","99999","Anchorage, AK","Kuspuk School District",10,1 
"02","02050","03580","99999","99557","99999","00520","10,000-24,999","Not in a place","AK","Bethel Census Area AK","Aniak census subarea"," ","99999","Aniak, AK","Iditarod Area School District",15,1 
"02","02050","03580","99999","99557","99999","00760","10,000-24,999","Not in a place","AK","Bethel Census Area AK","Aniak census subarea"," ","99999","Aniak, AK","Kuspuk School District",9,1 
"02","02050","03580","99999","99607","99999","00760","10,000-24,999","Not in a place","AK","Bethel Census Area AK","Aniak census subarea"," ","99999","Upper Kalskag, AK","Kuspuk School District",6,1 
"02","02050","03580","99999","99656","99999","00760","10,000-24,999","Not in a place","AK","Bethel Census Area AK","Aniak census subarea"," ","99999","Red Devil, AK","Kuspuk School District",2,1 
"02","02050","45510","00760","99551","99999","00004","10,000-24,999","200-999","AK","Bethel Census Area AK","Lower Kuskokwim census subarea","Akiachak CDP, AK","99999","Akiachak, AK","Yupiit School District",627,1 
"02","02050","45510","00870","99552","99999","00004","10,000-24,999","200-999","AK","Bethel Census Area AK","Lower Kuskokwim census subarea","Akiak city, AK","99999","Akiak, AK","Yupiit School District",346,1 
"02","02050","45510","04430","99559","99999","00001","10,000-24,999","200-999","AK","Bethel Census Area AK","Lower Kuskokwim census subarea","Atmautluak CDP, AK","99999","Bethel, AK","Lower Kuskokwim School District",277,1 
"02","02050","45510","06520","99559","99999","00001","10,000-24,999","2500-9999","AK","Bethel Census Area AK","Lower Kuskokwim census subarea","Bethel city, AK","99999","Bethel, AK","Lower Kuskokwim School District",6080,1 
"02","02050","45510","12680","99561","99999","00001","10,000-24,999","200-999","AK","Bethel Census Area AK","Lower Kuskokwim census subarea","Chefornak city, AK","99999","Chefornak, AK","Lower Kuskokwim School District",418,1 
"02","02050","45510","21040","99578","99999","00001","10,000-24,999","200-999","AK","Bethel Census Area AK","Lower Kuskokwim census subarea","Eek city, AK","99999","Eek, AK","Lower Kuskokwim School District",296,1 
"02","02050","45510","29290","99589","99999","00001","10,000-24,999","200-999","AK","Bethel Census Area AK","Lower Kuskokwim census subarea","Goodnews Bay city, AK","99999","Goodnews Bay, AK","Lower Kuskokwim School District",243,1 
"02","02050","45510","37975","99609","99999","00001","10,000-24,999","200-999","AK","Bethel Census Area AK","Lower Kuskokwim census subarea","Kasigluk CDP, AK","99999","Kasigluk, AK","Lower Kuskokwim School District",569,1 
"02","02050","45510","39740","99614","99999","00001","10,000-24,999","200-999","AK","Bethel Census Area AK","Lower Kuskokwim census subarea","Kipnuk CDP, AK","99999","Kipnuk, AK","Lower Kuskokwim School District",639,1 
"02","02050","45510","41610","99559","99999","00001","10,000-24,999","200-999","AK","Bethel Census Area AK","Lower Kuskokwim census subarea","Kongiganak CDP, AK","99999","Bethel, AK","Lower Kuskokwim School District",439,1 
"02","02050","45510","42380","99621","99999","00001","10,000-24,999","200-999","AK","Bethel Census Area AK","Lower Kuskokwim census subarea","Kwethluk city, AK","99999","Kwethluk, AK","Lower Kuskokwim School District",721,1 
"02","02050","45510","42490","99622","99999","00001","10,000-24,999","200-999","AK","Bethel Census Area AK","Lower Kuskokwim census subarea","Kwigillingok CDP, AK","99999","Kwigillingok, AK","Lower Kuskokwim School District",321,1 
"02","02050","45510","47990","99630","99999","00001","10,000-24,999","Less than 200","AK","Bethel Census Area AK","Lower Kuskokwim census subarea","Mekoryuk city, AK","99999","Mekoryuk, AK","Lower Kuskokwim School District",191,1 
"02","02050","45510","52390","99634","99999","00001","10,000-24,999","200-999","AK","Bethel Census Area AK","Lower Kuskokwim census subarea","Napakiak city, AK","99999","Napakiak, AK","Lower Kuskokwim School District",354,1 
"02","02050","45510","52720","99559","99999","00001","10,000-24,999","200-999","AK","Bethel Census Area AK","Lower Kuskokwim census subarea","Napaskiak city, AK","99999","Bethel, AK","Lower Kuskokwim School District",405,1 
"02","02050","45510","53820","99559","99999","00001","10,000-24,999","200-999","AK","Bethel Census Area AK","Lower Kuskokwim census subarea","Newtok CDP, AK","99999","Bethel, AK","Lower Kuskokwim School District",354,1 
"02","02050","45510","53930","99690","99999","00001","10,000-24,999","200-999","AK","Bethel Census Area AK","Lower Kuskokwim census subarea","Nightmute city, AK","99999","Nightmute, AK","Lower Kuskokwim School District",280,1 
"02","02050","45510","56680","99641","99999","00001","10,000-24,999","200-999","AK","Bethel Census Area AK","Lower Kuskokwim census subarea","Nunapitchuk city, AK","99999","Nunapitchuk, AK","Lower Kuskokwim School District",496,1 
"02","02050","45510","58330","99559","99999","00001","10,000-24,999","Less than 200","AK","Bethel Census Area AK","Lower Kuskokwim census subarea","Oscarville CDP, AK","99999","Bethel, AK","Lower Kuskokwim School District",70,1 
"02","02050","45510","61080","99651","99999","00001","10,000-24,999","Less than 200","AK","Bethel Census Area AK","Lower Kuskokwim census subarea","Platinum city, AK","99999","Platinum, AK","Lower Kuskokwim School District",61,1 
"02","02050","45510","64600","99655","99999","00001","10,000-24,999","200-999","AK","Bethel Census Area AK","Lower Kuskokwim census subarea","Quinhagak city, AK","99999","Quinhagak, AK","Lower Kuskokwim School District",669,1 
"02","02050","45510","78240","99637","99999","00001","10,000-24,999","200-999","AK","Bethel Census Area AK","Lower Kuskokwim census subarea","Toksook Bay city, AK","99999","Toksook Bay, AK","Lower Kuskokwim School District",590,1 
"02","02050","45510","78790","99679","99999","00004","10,000-24,999","200-999","AK","Bethel Census Area AK","Lower Kuskokwim census subarea","Tuluksak CDP, AK","99999","Tuluksak, AK","Yupiit School District",373,1 
"02","02050","45510","79120","99680","99999","00001","10,000-24,999","200-999","AK","Bethel Census Area AK","Lower Kuskokwim census subarea","Tuntutuliak CDP, AK","99999","Tuntutuliak, AK","Lower Kuskokwim School District",408,1 
"02","02050","45510","79230","99681","99999","00001","10,000-24,999","200-999","AK","Bethel Census Area AK","Lower Kuskokwim census subarea","Tununak CDP, AK","99999","Tununak, AK","Lower Kuskokwim School District",325,1 
"02","02050","45510","79230","99999","99999","00001","10,000-24,999","200-999","AK","Bethel Census Area AK","Lower Kuskokwim census subarea","Tununak CDP, AK","99999","99999","Lower Kuskokwim School District",2,1 
"02","02050","45510","99999","99559","99999","00001","10,000-24,999","Not in a place","AK","Bethel Census Area AK","Lower Kuskokwim census subarea"," ","99999","Bethel, AK","Lower Kuskokwim School District",7,1 
"02","02050","45510","99999","99621","99999","00001","10,000-24,999","Not in a place","AK","Bethel Census Area AK","Lower Kuskokwim census subarea"," ","99999","Kwethluk, AK","Lower Kuskokwim School District",2,1 
"02","02060","09050","39630","99613","99999","00030","200-999","200-999","AK","Bristol Bay Borough AK","Bristol Bay census subarea","King Salmon CDP, AK","99999","King Salmon, AK","Bristol Bay Borough School District",374,1 
"02","02060","09050","52060","99633","99999","00030","200-999","200-999","AK","Bristol Bay Borough AK","Bristol Bay census subarea","Naknek CDP, AK","99999","Naknek, AK","Bristol Bay Borough School District",544,1 
"02","02060","09050","72190","99670","99999","00030","200-999","Less than 200","AK","Bristol Bay Borough AK","Bristol Bay census subarea","South Naknek CDP, AK","99999","South Naknek, AK","Bristol Bay Borough School District",79,1 
"02","02068","18765","03220","99704","99999","00770","1000-2499","200-999","AK","Denali Borough AK","Denali census subarea","Anderson city, AK","99999","Anderson, AK","Denali Borough School District",24,1 
"02","02068","18765","03220","99744","99999","00770","1000-2499","200-999","AK","Denali Borough AK","Denali census subarea","Anderson city, AK","99999","Anderson, AK","Denali Borough School District",222,1 
"02","02068","18765","10150","99729","99999","00770","1000-2499","200-999","AK","Denali Borough AK","Denali census subarea","Cantwell CDP, AK","99999","Cantwell, AK","Denali Borough School District",219,1 
"02","02068","18765","25220","99743","99999","00770","1000-2499","Less than 200","AK","Denali Borough AK","Denali census subarea","Ferry CDP, AK","99999","Healy, AK","Denali Borough School District",32,1 
"02","02068","18765","25220","99760","99999","00770","1000-2499","Less than 200","AK","Denali Borough AK","Denali census subarea","Ferry CDP, AK","99999","Nenana, AK","Denali Borough School District",1,1 
"02","02068","18765","32150","99743","99999","00770","1000-2499","1000-2499","AK","Denali Borough AK","Denali census subarea","Healy CDP, AK","99999","Healy, AK","Denali Borough School District",1007,1 
"02","02068","18765","32150","99755","99999","00770","1000-2499","1000-2499","AK","Denali Borough AK","Denali census subarea","Healy CDP, AK","99999","McKinley Park, AK","Denali Borough School District",1,1 
"02","02068","18765","32150","99760","99999","00770","1000-2499","1000-2499","AK","Denali Borough AK","Denali census subarea","Healy CDP, AK","99999","Nenana, AK","Denali Borough School District",13,1 
"02","02068","18765","46560","99755","99999","00770","1000-2499","Less than 200","AK","Denali Borough AK","Denali census subarea","McKinley Park CDP, AK","99999","McKinley Park, AK","Denali Borough School District",185,1 
"02","02068","18765","99999","99743","99999","00770","1000-2499","Not in a place","AK","Denali Borough AK","Denali census subarea"," ","99999","Healy, AK","Denali Borough School District",30,1 
"02","02068","18765","99999","99744","99999","00770","1000-2499","Not in a place","AK","Denali Borough AK","Denali census subarea"," ","99999","Anderson, AK","Denali Borough School District",4,1 
"02","02068","18765","99999","99755","99999","00770","1000-2499","Not in a place","AK","Denali Borough AK","Denali census subarea"," ","99999","McKinley Park, AK","Denali Borough School District",31,1 
"02","02068","18765","99999","99760","99999","00770","1000-2499","Not in a place","AK","Denali Borough AK","Denali census subarea"," ","99999","Nenana, AK","Denali Borough School District",57,1 
"02","02070","19000","01420","99555","99999","00710","2500-9999","200-999","AK","Dillingham Census Area AK","Dillingham census subarea","Aleknagik city, AK","99999","Aleknagik, AK","Southwest Region School District",219,1 
"02","02070","19000","15430","99569","99999","00710","2500-9999","Less than 200","AK","Dillingham Census Area AK","Dillingham census subarea","Clarks Point city, AK","99999","Clarks Point, AK","Southwest Region School District",62,1 
"02","02070","19000","18950","99576","99999","00120","2500-9999","1000-2499","AK","Dillingham Census Area AK","Dillingham census subarea","Dillingham city, AK","99999","Dillingham, AK","Dillingham City School District",2329,1 
"02","02070","19000","21810","99580","99999","00710","2500-9999","Less than 200","AK","Dillingham Census Area AK","Dillingham census subarea","Ekwok city, AK","99999","Ekwok, AK","Southwest Region School District",115,1 
"02","02070","19000","41500","99576","99999","00710","2500-9999","200-999","AK","Dillingham Census Area AK","Dillingham census subarea","Koliganek CDP, AK","99999","Dillingham, AK","Southwest Region School District",209,1 
"02","02070","19000","46890","99628","99999","00710","2500-9999","200-999","AK","Dillingham Census Area AK","Dillingham census subarea","Manokotak city, AK","99999","Manokotak, AK","Southwest Region School District",442,1 
"02","02070","19000","53710","99636","99999","00710","2500-9999","200-999","AK","Dillingham Census Area AK","Dillingham census subarea","New Stuyahok city, AK","99999","New Stuyahok, AK","Southwest Region School District",510,1 
"02","02070","19000","62285","99576","99999","00710","2500-9999","Less than 200","AK","Dillingham Census Area AK","Dillingham census subarea","Portage Creek CDP, AK","99999","Dillingham, AK","Southwest Region School District",2,1 
"02","02070","19000","77690","99678","99999","00710","2500-9999","200-999","AK","Dillingham Census Area AK","Dillingham census subarea","Togiak city, AK","99999","Togiak, AK","Southwest Region School District",817,1 
"02","02070","19000","79780","99678","99999","00710","2500-9999","Less than 200","AK","Dillingham Census Area AK","Dillingham census subarea","Twin Hills CDP, AK","99999","Togiak, AK","Southwest Region School District",74,1 
"02","02070","19000","99999","99555","99999","00710","2500-9999","Not in a place","AK","Dillingham Census Area AK","Dillingham census subarea"," ","99999","Aleknagik, AK","Southwest Region School District",2,1 
"02","02070","19000","99999","99569","99999","00710","2500-9999","Not in a place","AK","Dillingham Census Area AK","Dillingham census subarea"," ","99999","Clarks Point, AK","Southwest Region School District",2,1 
"02","02070","19000","99999","99576","99999","00710","2500-9999","Not in a place","AK","Dillingham Census Area AK","Dillingham census subarea"," ","99999","Dillingham, AK","Southwest Region School District",63,1 
"02","02070","19000","99999","99628","99999","00710","2500-9999","Not in a place","AK","Dillingham Census Area AK","Dillingham census subarea"," ","99999","Manokotak, AK","Southwest Region School District",1,1 
"02","02090","24450","05000","99705","99999","00600","25,000-99,999","10,000-24,999","AK","Fairbanks North Star Borough AK","Fairbanks North Star census subarea","Badger CDP, AK","99999","Badger, AK","Fairbanks North Star Borough School District",19458,1 
"02","02090","24450","05000","99712","99999","00600","25,000-99,999","10,000-24,999","AK","Fairbanks North Star Borough AK","Fairbanks North Star census subarea","Badger CDP, AK","99999","Steele Creek, AK","Fairbanks North Star Borough School District",24,1 
"02","02090","24450","12920","99709","99999","00600","25,000-99,999","2500-9999","AK","Fairbanks North Star Borough AK","Fairbanks North Star census subarea","Chena Ridge CDP, AK","99999","College, AK","Fairbanks North Star Borough School District",5791,1 
"02","02090","24450","16750","99709","99999","00600","25,000-99,999","10,000-24,999","AK","Fairbanks North Star Borough AK","Fairbanks North Star census subarea","College CDP, AK","99999","College, AK","Fairbanks North Star Borough School District",11713,1 
"02","02090","24450","16750","99775","99999","00600","25,000-99,999","10,000-24,999","AK","Fairbanks North Star Borough AK","Fairbanks North Star census subarea","College CDP, AK","99999","College, AK","Fairbanks North Star Borough School District",1251,1 
"02","02090","24450","21370","99702","99999","00600","25,000-99,999","2500-9999","AK","Fairbanks North Star Borough AK","Fairbanks North Star census subarea","Eielson AFB CDP, AK","99999","Eielson AFB, AK","Fairbanks North Star Borough School District",2647,1 
"02","02090","24450","23460","99709","99999","00600","25,000-99,999","1000-2499","AK","Fairbanks North Star Borough AK","Fairbanks North Star census subarea","Ester CDP, AK","99999","College, AK","Fairbanks North Star Borough School District",2422,1 
"02","02090","24450","24230","99701","99999","00600","25,000-99,999","25,000-99,999","AK","Fairbanks North Star Borough AK","Fairbanks North Star census subarea","Fairbanks city, AK","99999","Fairbanks, AK","Fairbanks North Star Borough School District",18514,1 
"02","02090","24450","24230","99703","99999","00600","25,000-99,999","25,000-99,999","AK","Fairbanks North Star Borough AK","Fairbanks North Star census subarea","Fairbanks city, AK","99999","Fairbanks, AK","Fairbanks North Star Borough School District",7065,1 
"02","02090","24450","24230","99709","99999","00600","25,000-99,999","25,000-99,999","AK","Fairbanks North Star Borough AK","Fairbanks North Star census subarea","Fairbanks city, AK","99999","College, AK","Fairbanks North Star Borough School District",5947,1 
"02","02090","24450","24230","99712","99999","00600","25,000-99,999","25,000-99,999","AK","Fairbanks North Star Borough AK","Fairbanks North Star census subarea","Fairbanks city, AK","99999","Steele Creek, AK","Fairbanks North Star Borough School District",9,1 
"02","02090","24450","24980","99709","99999","00600","25,000-99,999","2500-9999","AK","Fairbanks North Star Borough AK","Fairbanks North Star census subarea","Farmers Loop CDP, AK","99999","College, AK","Fairbanks North Star Borough School District",262,1 
"02","02090","24450","24980","99712","99999","00600","25,000-99,999","2500-9999","AK","Fairbanks North Star Borough AK","Fairbanks North Star census subarea","Farmers Loop CDP, AK","99999","Steele Creek, AK","Fairbanks North Star Borough School District",4591,1 
"02","02090","24450","26870","99709","99999","00600","25,000-99,999","200-999","AK","Fairbanks North Star Borough AK","Fairbanks North Star census subarea","Fox CDP, AK","99999","College, AK","Fairbanks North Star Borough School District",4,1 
"02","02090","24450","26870","99712","99999","00600","25,000-99,999","200-999","AK","Fairbanks North Star Borough AK","Fairbanks North Star census subarea","Fox CDP, AK","99999","Steele Creek, AK","Fairbanks North Star Borough School District",413,1 
"02","02090","24450","29130","99709","99999","00600","25,000-99,999","2500-9999","AK","Fairbanks North Star Borough AK","Fairbanks North Star census subarea","Goldstream CDP, AK","99999","College, AK","Fairbanks North Star Borough School District",3533,1 
"02","02090","24450","29130","99712","99999","00600","25,000-99,999","2500-9999","AK","Fairbanks North Star Borough AK","Fairbanks North Star census subarea","Goldstream CDP, AK","99999","Steele Creek, AK","Fairbanks North Star Borough School District",24,1 
"02","02090","24450","31765","99714","99999","00600","25,000-99,999","200-999","AK","Fairbanks North Star Borough AK","Fairbanks North Star census subarea","Harding-Birch Lakes CDP, AK","99999","Salcha, AK","Fairbanks North Star Borough School District",299,1 
"02","02090","24450","50080","99705","99999","00600","25,000-99,999","200-999","AK","Fairbanks North Star Borough AK","Fairbanks North Star census subarea","Moose Creek CDP, AK","99999","Badger, AK","Fairbanks North Star Borough School District",747,1 
"02","02090","24450","55910","99705","99999","00600","25,000-99,999","1000-2499","AK","Fairbanks North Star Borough AK","Fairbanks North Star census subarea","North Pole city, AK","99999","Badger, AK","Fairbanks North Star Borough School District",2117,1 
"02","02090","24450","61120","99712","99999","00600","25,000-99,999","200-999","AK","Fairbanks North Star Borough AK","Fairbanks North Star census subarea","Pleasant Valley CDP, AK","99999","Steele Creek, AK","Fairbanks North Star Borough School District",725,1 
"02","02090","24450","66550","99705","99999","00600","25,000-99,999","1000-2499","AK","Fairbanks North Star Borough AK","Fairbanks North Star census subarea","Salcha CDP, AK","99999","Badger, AK","Fairbanks North Star Borough School District",11,1 
"02","02090","24450","66550","99714","99999","00600","25,000-99,999","1000-2499","AK","Fairbanks North Star Borough AK","Fairbanks North Star census subarea","Salcha CDP, AK","99999","Salcha, AK","Fairbanks North Star Borough School District",1084,1 
"02","02090","24450","72230","99701","99999","00600","25,000-99,999","200-999","AK","Fairbanks North Star Borough AK","Fairbanks North Star census subarea","South Van Horn CDP, AK","99999","Fairbanks, AK","Fairbanks North Star Borough School District",451,1 
"02","02090","24450","72230","99709","99999","00600","25,000-99,999","200-999","AK","Fairbanks North Star Borough AK","Fairbanks North Star census subarea","South Van Horn CDP, AK","99999","College, AK","Fairbanks North Star Borough School District",107,1 
"02","02090","24450","72985","99712","99999","00600","25,000-99,999","2500-9999","AK","Fairbanks North Star Borough AK","Fairbanks North Star census subarea","Steele Creek CDP, AK","99999","Steele Creek, AK","Fairbanks North Star Borough School District",6662,1 
"02","02090","24450","79830","99712","99999","00600","25,000-99,999","200-999","AK","Fairbanks North Star Borough AK","Fairbanks North Star census subarea","Two Rivers CDP, AK","99999","Steele Creek, AK","Fairbanks North Star Borough School District",719,1 
"02","02090","24450","99999","99705","99999","00600","25,000-99,999","Not in a place","AK","Fairbanks North Star Borough AK","Fairbanks North Star census subarea"," ","99999","Badger, AK","Fairbanks North Star Borough School District",211,1 
"02","02090","24450","99999","99709","99999","00600","25,000-99,999","Not in a place","AK","Fairbanks North Star Borough AK","Fairbanks North Star census subarea"," ","99999","College, AK","Fairbanks North Star Borough School District",51,1 
"02","02090","24450","99999","99712","99999","00600","25,000-99,999","Not in a place","AK","Fairbanks North Star Borough AK","Fairbanks North Star census subarea"," ","99999","Steele Creek, AK","Fairbanks North Star Borough School District",699,1 
"02","02090","24450","99999","99714","99999","00600","25,000-99,999","Not in a place","AK","Fairbanks North Star Borough AK","Fairbanks North Star census subarea"," ","99999","Salcha, AK","Fairbanks North Star Borough School District",2,1 
"02","02090","24450","99999","99760","99999","00600","25,000-99,999","Not in a place","AK","Fairbanks North Star Borough AK","Fairbanks North Star census subarea"," ","99999","Nenana, AK","Fairbanks North Star Borough School District",28,1 
"02","02100","31160","17670","99827","99999","00270","2500-9999","Less than 200","AK","Haines Borough AK","Haines census subarea","Covenant Life CDP, AK","99999","Haines, AK","Haines Borough School District",86,1 
"02","02100","31160","23900","99827","99999","00270","2500-9999","Less than 200","AK","Haines Borough AK","Haines census subarea","Excursion Inlet CDP, AK","99999","Haines, AK","Haines Borough School District",12,1 
"02","02100","31160","31050","99827","99999","00270","2500-9999","1000-2499","AK","Haines Borough AK","Haines census subarea","Haines CDP, AK","99999","Haines, AK","Haines Borough School District",1713,1 
"02","02100","31160","45700","99827","99999","00270","2500-9999","Less than 200","AK","Haines Borough AK","Haines census subarea","Lutak CDP, AK","99999","Haines, AK","Haines Borough School District",49,1 
"02","02100","31160","50800","99827","99999","00270","2500-9999","200-999","AK","Haines Borough AK","Haines census subarea","Mosquito Lake CDP, AK","99999","Haines, AK","Haines Borough School District",309,1 
"02","02100","31160","51455","99827","99999","00270","2500-9999","200-999","AK","Haines Borough AK","Haines census subarea","Mud Bay CDP, AK","99999","Haines, AK","Haines Borough School District",212,1 
"02","02100","31160","99999","99827","99999","00270","2500-9999","Not in a place","AK","Haines Borough AK","Haines census subarea"," ","99999","Haines, AK","Haines Borough School District",126,1 
"02","02100","31160","99999","99999","99999","00270","2500-9999","Not in a place","AK","Haines Borough AK","Haines census subarea"," ","99999","99999","Haines Borough School District",1,1 
"02","02105","33390","03440","99820","99999","00730","1000-2499","200-999","AK","Hoonah-Angoon Census Area","Hoonah-Angoon census subarea","Angoon city, AK","99999","Angoon, AK","Chatham School District",459,1 
"02","02105","33390","22140","99825","99999","00730","1000-2499","Less than 200","AK","Hoonah-Angoon Census Area","Hoonah-Angoon census subarea","Elfin Cove CDP, AK","99999","Elfin Cove, AK (PO Boxes)","Chatham School District",20,1 
"02","02105","33390","27700","99825","99999","00730","1000-2499","Less than 200","AK","Hoonah-Angoon Census Area","Hoonah-Angoon census subarea","Game Creek CDP, AK","99999","Elfin Cove, AK (PO Boxes)","Chatham School District",18,1 
"02","02105","33390","30940","99826","99999","00730","1000-2499","200-999","AK","Hoonah-Angoon Census Area","Hoonah-Angoon census subarea","Gustavus city, AK","99999","Gustavus, AK","Chatham School District",442,1 
"02","02105","33390","32550","99820","99999","00730","1000-2499","Less than 200","AK","Hoonah-Angoon Census Area","Hoonah-Angoon census subarea","Hobart Bay CDP, AK","99999","Angoon, AK","Chatham School District",1,1 
"02","02105","33390","33360","99829","99999","00300","1000-2499","200-999","AK","Hoonah-Angoon Census Area","Hoonah-Angoon census subarea","Hoonah city, AK","99999","Hoonah, AK","Hoonah City School District",760,1 
"02","02105","33390","59650","99832","99999","00630","1000-2499","Less than 200","AK","Hoonah-Angoon Census Area","Hoonah-Angoon census subarea","Pelican city, AK","99999","Pelican, AK","Pelican City School District",88,1 
"02","02105","33390","76260","99841","99999","00730","1000-2499","Less than 200","AK","Hoonah-Angoon Census Area","Hoonah-Angoon census subarea","Tenakee Springs city, AK","99999","Tenakee Springs, AK","Chatham School District",131,1 
"02","02105","33390","84200","99829","99999","00730","1000-2499","Less than 200","AK","Hoonah-Angoon Census Area","Hoonah-Angoon census subarea","Whitestone Logging Camp CDP, AK","99999","Hoonah, AK","Chatham School District",17,1 
"02","02105","33390","99999","99820","99999","00730","1000-2499","Not in a place","AK","Hoonah-Angoon Census Area","Hoonah-Angoon census subarea"," ","99999","Angoon, AK","Chatham School District",19,1 
"02","02105","33390","99999","99825","99999","00730","1000-2499","Not in a place","AK","Hoonah-Angoon Census Area","Hoonah-Angoon census subarea"," ","99999","Elfin Cove, AK (PO Boxes)","Chatham School District",82,1 
"02","02105","33390","99999","99832","99999","00730","1000-2499","Not in a place","AK","Hoonah-Angoon Census Area","Hoonah-Angoon census subarea"," ","99999","Pelican, AK","Chatham School District",16,1 
"02","02105","33390","99999","99841","99999","00730","1000-2499","Not in a place","AK","Hoonah-Angoon Census Area","Hoonah-Angoon census subarea"," ","99999","Tenakee Springs, AK","Chatham School District",2,1 
"02","02105","40560","40510","99827","99999","00730","1000-2499","Less than 200","AK","Hoonah-Angoon Census Area","Klukwan census subarea","Klukwan CDP, AK","99999","Haines, AK","Chatham School District",95,1 
"02","02110","36450","36400","99801","99999","00210","25,000-99,999","25,000-99,999","AK","Juneau Borough AK","Juneau census subarea","Juneau city and borough, AK","99999","Juneau city and, AK","Juneau Borough School District",29164,1 
"02","02110","36450","36400","99824","99999","00210","25,000-99,999","25,000-99,999","AK","Juneau Borough AK","Juneau census subarea","Juneau city and borough, AK","99999","Juneau city and, AK","Juneau Borough School District",2111,1 
"02","02122","38460","03110","99556","99999","00390","25,000-99,999","1000-2499","AK","Kenai Peninsula Borough AK","Kenai-Cook Inlet census subarea","Anchor Point CDP, AK","99999","Anchor Point, AK","Kenai Peninsula Borough School District",1888,1 
"02","02122","38460","03110","99603","99999","00390","25,000-99,999","1000-2499","AK","Kenai Peninsula Borough AK","Kenai-Cook Inlet census subarea","Anchor Point CDP, AK","99999","Homer, AK","Kenai Peninsula Borough School District",42,1 
"02","02122","38460","06245","99682","99999","00390","25,000-99,999","Less than 200","AK","Kenai Peninsula Borough AK","Kenai-Cook Inlet census subarea","Beluga CDP, AK","99999","Tyonek, AK (PO Boxes)","Kenai Peninsula Borough School District",20,1 
"02","02122","38460","15320","99568","99999","00390","25,000-99,999","Less than 200","AK","Kenai Peninsula Borough AK","Kenai-Cook Inlet census subarea","Clam Gulch CDP, AK","99999","Clam Gulch, AK","Kenai Peninsula Borough School District",176,1 
"02","02122","38460","16420","99568","99999","00390","25,000-99,999","1000-2499","AK","Kenai Peninsula Borough AK","Kenai-Cook Inlet census subarea","Cohoe CDP, AK","99999","Clam Gulch, AK","Kenai Peninsula Borough School District",60,1 
"02","02122","38460","16420","99610","99999","00390","25,000-99,999","1000-2499","AK","Kenai Peninsula Borough AK","Kenai-Cook Inlet census subarea","Cohoe CDP, AK","99999","Cohoe, AK","Kenai Peninsula Borough School District",1304,1 
"02","02122","38460","18925","99556","99999","00390","25,000-99,999","1000-2499","AK","Kenai Peninsula Borough AK","Kenai-Cook Inlet census subarea","Diamond Ridge CDP, AK","99999","Anchor Point, AK","Kenai Peninsula Borough School District",2,1 
"02","02122","38460","18925","99603","99999","00390","25,000-99,999","1000-2499","AK","Kenai Peninsula Borough AK","Kenai-Cook Inlet census subarea","Diamond Ridge CDP, AK","99999","Homer, AK","Kenai Peninsula Borough School District",1154,1 
"02","02122","38460","26910","99603","99999","00390","25,000-99,999","200-999","AK","Kenai Peninsula Borough AK","Kenai-Cook Inlet census subarea","Fox River CDP, AK","99999","Homer, AK","Kenai Peninsula Borough School District",685,1 
"02","02122","38460","27090","99603","99999","00390","25,000-99,999","1000-2499","AK","Kenai Peninsula Borough AK","Kenai-Cook Inlet census subarea","Fritz Creek CDP, AK","99999","Homer, AK","Kenai Peninsula Borough School District",1932,1 
"02","02122","38460","27145","99669","99999","00390","25,000-99,999","200-999","AK","Kenai Peninsula Borough AK","Kenai-Cook Inlet census subarea","Funny River CDP, AK","99999","Kalifornsky, AK","Kenai Peninsula Borough School District",877,1 
"02","02122","38460","31270","99603","99999","00390","25,000-99,999","Less than 200","AK","Kenai Peninsula Borough AK","Kenai-Cook Inlet census subarea","Halibut Cove CDP, AK","99999","Homer, AK","Kenai Peninsula Borough School District",76,1 
"02","02122","38460","31710","99556","99999","00390","25,000-99,999","200-999","AK","Kenai Peninsula Borough AK","Kenai-Cook Inlet census subarea","Happy Valley CDP, AK","99999","Anchor Point, AK","Kenai Peninsula Borough School District",302,1 
"02","02122","38460","31710","99639","99999","00390","25,000-99,999","200-999","AK","Kenai Peninsula Borough AK","Kenai-Cook Inlet census subarea","Happy Valley CDP, AK","99999","Ninilchik, AK","Kenai Peninsula Borough School District",291,1 
"02","02122","38460","33140","99603","99999","00390","25,000-99,999","2500-9999","AK","Kenai Peninsula Borough AK","Kenai-Cook Inlet census subarea","Homer city, AK","99999","Homer, AK","Kenai Peninsula Borough School District",5003,1 
"02","02122","38460","36550","99603","99999","00390","25,000-99,999","200-999","AK","Kenai Peninsula Borough AK","Kenai-Cook Inlet census subarea","Kachemak city, AK","99999","Homer, AK","Kenai Peninsula Borough School District",472,1 
"02","02122","38460","37250","99610","99999","00390","25,000-99,999","2500-9999","AK","Kenai Peninsula Borough AK","Kenai-Cook Inlet census subarea","Kalifornsky CDP, AK","99999","Cohoe, AK","Kenai Peninsula Borough School District",326,1 
"02","02122","38460","37250","99611","99999","00390","25,000-99,999","2500-9999","AK","Kenai Peninsula Borough AK","Kenai-Cook Inlet census subarea","Kalifornsky CDP, AK","99999","Kenai, AK","Kenai Peninsula Borough School District",2208,1 
"02","02122","38460","37250","99669","99999","00390","25,000-99,999","2500-9999","AK","Kenai Peninsula Borough AK","Kenai-Cook Inlet census subarea","Kalifornsky CDP, AK","99999","Kalifornsky, AK","Kenai Peninsula Borough School District",5316,1 
"02","02122","38460","38090","99610","99999","00390","25,000-99,999","200-999","AK","Kenai Peninsula Borough AK","Kenai-Cook Inlet census subarea","Kasilof CDP, AK","99999","Cohoe, AK","Kenai Peninsula Borough School District",537,1 
"02","02122","38460","38090","99669","99999","00390","25,000-99,999","200-999","AK","Kenai Peninsula Borough AK","Kenai-Cook Inlet census subarea","Kasilof CDP, AK","99999","Kalifornsky, AK","Kenai Peninsula Borough School District",12,1 
"02","02122","38460","38420","99611","99999","00390","25,000-99,999","2500-9999","AK","Kenai Peninsula Borough AK","Kenai-Cook Inlet census subarea","Kenai city, AK","99999","Kenai, AK","Kenai Peninsula Borough School District",7100,1 
"02","02122","38460","52210","99603","99999","00390","25,000-99,999","200-999","AK","Kenai Peninsula Borough AK","Kenai-Cook Inlet census subarea","Nanwalek CDP, AK","99999","Homer, AK","Kenai Peninsula Borough School District",254,1 
"02","02122","38460","54050","99611","99999","00390","25,000-99,999","2500-9999","AK","Kenai Peninsula Borough AK","Kenai-Cook Inlet census subarea","Nikiski CDP, AK","99999","Kenai, AK","Kenai Peninsula Borough School District",4493,1 
"02","02122","38460","54085","99556","99999","00390","25,000-99,999","200-999","AK","Kenai Peninsula Borough AK","Kenai-Cook Inlet census subarea","Nikolaevsk CDP, AK","99999","Anchor Point, AK","Kenai Peninsula Borough School District",318,1 
"02","02122","38460","54480","99568","99999","00390","25,000-99,999","200-999","AK","Kenai Peninsula Borough AK","Kenai-Cook Inlet census subarea","Ninilchik CDP, AK","99999","Clam Gulch, AK","Kenai Peninsula Borough School District",43,1 
"02","02122","38460","54480","99639","99999","00390","25,000-99,999","200-999","AK","Kenai Peninsula Borough AK","Kenai-Cook Inlet census subarea","Ninilchik CDP, AK","99999","Ninilchik, AK","Kenai Peninsula Borough School District",840,1 
"02","02122","38460","61825","99611","99999","00390","25,000-99,999","Less than 200","AK","Kenai Peninsula Borough AK","Kenai-Cook Inlet census subarea","Point Possession CDP, AK","99999","Kenai, AK","Kenai Peninsula Borough School District",3,1 
"02","02122","38460","63280","99603","99999","00390","25,000-99,999","Less than 200","AK","Kenai Peninsula Borough AK","Kenai-Cook Inlet census subarea","Port Graham CDP, AK","99999","Homer, AK","Kenai Peninsula Borough School District",177,1 
"02","02122","38460","65345","99611","99999","00390","25,000-99,999","1000-2499","AK","Kenai Peninsula Borough AK","Kenai-Cook Inlet census subarea","Ridgeway CDP, AK","99999","Kenai, AK","Kenai Peninsula Borough School District",194,1 
"02","02122","38460","65345","99669","99999","00390","25,000-99,999","1000-2499","AK","Kenai Peninsula Borough AK","Kenai-Cook Inlet census subarea","Ridgeway CDP, AK","99999","Kalifornsky, AK","Kenai Peninsula Borough School District",1828,1 
"02","02122","38460","66510","99611","99999","00390","25,000-99,999","200-999","AK","Kenai Peninsula Borough AK","Kenai-Cook Inlet census subarea","Salamatof CDP, AK","99999","Kenai, AK","Kenai Peninsula Borough School District",980,1 
"02","02122","38460","68340","99663","99999","00390","25,000-99,999","200-999","AK","Kenai Peninsula Borough AK","Kenai-Cook Inlet census subarea","Seldovia city, AK","99999","Seldovia, AK","Kenai Peninsula Borough School District",255,1 
"02","02122","38460","68370","99603","99999","00390","25,000-99,999","Less than 200","AK","Kenai Peninsula Borough AK","Kenai-Cook Inlet census subarea","Seldovia Village CDP, AK","99999","Homer, AK","Kenai Peninsula Borough School District",22,1 
"02","02122","38460","68370","99663","99999","00390","25,000-99,999","Less than 200","AK","Kenai Peninsula Borough AK","Kenai-Cook Inlet census subarea","Seldovia Village CDP, AK","99999","Seldovia, AK","Kenai Peninsula Borough School District",143,1 
"02","02122","38460","71640","99669","99999","00390","25,000-99,999","2500-9999","AK","Kenai Peninsula Borough AK","Kenai-Cook Inlet census subarea","Soldotna city, AK","99999","Kalifornsky, AK","Kenai Peninsula Borough School District",4163,1 
"02","02122","38460","73070","99669","99999","00390","25,000-99,999","2500-9999","AK","Kenai Peninsula Borough AK","Kenai-Cook Inlet census subarea","Sterling CDP, AK","99999","Kalifornsky, AK","Kenai Peninsula Borough School District",1916,1 
"02","02122","38460","73070","99672","99999","00390","25,000-99,999","2500-9999","AK","Kenai Peninsula Borough AK","Kenai-Cook Inlet census subarea","Sterling CDP, AK","99999","Sterling, AK","Kenai Peninsula Borough School District",3701,1 
"02","02122","38460","79890","99682","99999","00390","25,000-99,999","Less than 200","AK","Kenai Peninsula Borough AK","Kenai-Cook Inlet census subarea","Tyonek CDP, AK","99999","Tyonek, AK (PO Boxes)","Kenai Peninsula Borough School District",171,1 
"02","02122","38460","99999","99603","99999","00390","25,000-99,999","Not in a place","AK","Kenai Peninsula Borough AK","Kenai-Cook Inlet census subarea"," ","99999","Homer, AK","Kenai Peninsula Borough School District",23,1 
"02","02122","38460","99999","99611","99999","00390","25,000-99,999","Not in a place","AK","Kenai Peninsula Borough AK","Kenai-Cook Inlet census subarea"," ","99999","Kenai, AK","Kenai Peninsula Borough School District",144,1 
"02","02122","38460","99999","99663","99999","00390","25,000-99,999","Not in a place","AK","Kenai Peninsula Borough AK","Kenai-Cook Inlet census subarea"," ","99999","Seldovia, AK","Kenai Peninsula Borough School District",16,1 
"02","02122","38460","99999","99669","99999","00390","25,000-99,999","Not in a place","AK","Kenai Peninsula Borough AK","Kenai-Cook Inlet census subarea"," ","99999","Kalifornsky, AK","Kenai Peninsula Borough School District",79,1 
"02","02122","38460","99999","99672","99999","00390","25,000-99,999","Not in a place","AK","Kenai Peninsula Borough AK","Kenai-Cook Inlet census subarea"," ","99999","Sterling, AK","Kenai Peninsula Borough School District",3,1 
"02","02122","38460","99999","99682","99999","00390","25,000-99,999","Not in a place","AK","Kenai Peninsula Borough AK","Kenai-Cook Inlet census subarea"," ","99999","Tyonek, AK (PO Boxes)","Kenai Peninsula Borough School District",182,1 
"02","02122","38460","99999","99999","99999","00390","25,000-99,999","Not in a place","AK","Kenai Peninsula Borough AK","Kenai-Cook Inlet census subarea"," ","99999","99999","Kenai Peninsula Borough School District",2,1 
"02","02122","68610","05585","99664","99999","00390","25,000-99,999","1000-2499","AK","Kenai Peninsula Borough AK","Seward-Hope census subarea","Bear Creek CDP, AK","99999","Seward, AK","Kenai Peninsula Borough School District",1956,1 
"02","02122","68610","17190","99572","99999","00390","25,000-99,999","200-999","AK","Kenai Peninsula Borough AK","Seward-Hope census subarea","Cooper Landing CDP, AK","99999","Cooper Landing, AK","Kenai Peninsula Borough School District",289,1 
"02","02122","68610","17960","99664","99999","00390","25,000-99,999","Less than 200","AK","Kenai Peninsula Borough AK","Seward-Hope census subarea","Crown Point CDP, AK","99999","Seward, AK","Kenai Peninsula Borough School District",74,1 
"02","02122","68610","33580","99605","99999","00390","25,000-99,999","Less than 200","AK","Kenai Peninsula Borough AK","Seward-Hope census subarea","Hope CDP, AK","99999","Hope, AK","Kenai Peninsula Borough School District",192,1 
"02","02122","68610","45295","99664","99999","00390","25,000-99,999","Less than 200","AK","Kenai Peninsula Borough AK","Seward-Hope census subarea","Lowell Point CDP, AK","99999","Seward, AK","Kenai Peninsula Borough School District",80,1 
"02","02122","68610","50190","99631","99999","00390","25,000-99,999","200-999","AK","Kenai Peninsula Borough AK","Seward-Hope census subarea","Moose Pass CDP, AK","99999","Moose Pass, AK","Kenai Peninsula Borough School District",219,1 
"02","02122","68610","64240","99664","99999","00390","25,000-99,999","Less than 200","AK","Kenai Peninsula Borough AK","Seward-Hope census subarea","Primrose CDP, AK","99999","Seward, AK","Kenai Peninsula Borough School District",78,1 
"02","02122","68610","68560","99664","99999","00390","25,000-99,999","2500-9999","AK","Kenai Peninsula Borough AK","Seward-Hope census subarea","Seward city, AK","99999","Seward, AK","Kenai Peninsula Borough School District",2693,1 
"02","02122","68610","73950","99605","99999","00390","25,000-99,999","Less than 200","AK","Kenai Peninsula Borough AK","Seward-Hope census subarea","Sunrise CDP, AK","99999","Hope, AK","Kenai Peninsula Borough School District",18,1 
"02","02122","68610","99999","99572","99999","00390","25,000-99,999","Not in a place","AK","Kenai Peninsula Borough AK","Seward-Hope census subarea"," ","99999","Cooper Landing, AK","Kenai Peninsula Borough School District",7,1 
"02","02122","68610","99999","99605","99999","00390","25,000-99,999","Not in a place","AK","Kenai Peninsula Borough AK","Seward-Hope census subarea"," ","99999","Hope, AK","Kenai Peninsula Borough School District",1,1 
"02","02122","68610","99999","99631","99999","00390","25,000-99,999","Not in a place","AK","Kenai Peninsula Borough AK","Seward-Hope census subarea"," ","99999","Moose Pass, AK","Kenai Peninsula Borough School District",9,1 
"02","02122","68610","99999","99664","99999","00390","25,000-99,999","Not in a place","AK","Kenai Peninsula Borough AK","Seward-Hope census subarea"," ","99999","Seward, AK","Kenai Peninsula Borough School District",51,1 
"02","02130","39010","38970","99901","99999","00150","10,000-24,999","2500-9999","AK","Ketchikan Gateway Borough AK","Ketchikan census subarea","Ketchikan city, AK","99999","Ketchikan, AK","Ketchikan Gateway Borough School District",8050,1 
"02","02130","39010","45020","99901","99999","00150","10,000-24,999","Less than 200","AK","Ketchikan Gateway Borough AK","Ketchikan census subarea","Loring CDP, AK","99999","Ketchikan, AK","Ketchikan Gateway Borough School District",4,1 
"02","02130","39010","67570","99901","99999","00150","10,000-24,999","200-999","AK","Ketchikan Gateway Borough AK","Ketchikan census subarea","Saxman city, AK","99999","Ketchikan, AK","Ketchikan Gateway Borough School District",411,1 
"02","02130","39010","99999","99901","99999","00150","10,000-24,999","Not in a place","AK","Ketchikan Gateway Borough AK","Ketchikan census subarea"," ","99999","Ketchikan, AK","Ketchikan Gateway Borough School District",5010,1 
"02","02130","39010","99999","99999","99999","00150","10,000-24,999","Not in a place","AK","Ketchikan Gateway Borough AK","Ketchikan census subarea"," ","99999","99999","Ketchikan Gateway Borough School District",2,1 
"02","02150","41200","00650","99615","99999","00480","10,000-24,999","Less than 200","AK","Kodiak Island Borough AK","Kodiak Island census subarea","Akhiok city, AK","99999","Kodiak, AK","Kodiak Island Borough School District",71,1 
"02","02150","41200","01560","99615","99999","00480","10,000-24,999","Less than 200","AK","Kodiak Island Borough AK","Kodiak Island census subarea","Aleneva CDP, AK","99999","Kodiak, AK","Kodiak Island Borough School District",37,1 
"02","02150","41200","13860","99615","99999","00480","10,000-24,999","Less than 200","AK","Kodiak Island Borough AK","Kodiak Island census subarea","Chiniak CDP, AK","99999","Kodiak, AK","Kodiak Island Borough School District",47,1 
"02","02150","41200","37540","99615","99999","00480","10,000-24,999","Less than 200","AK","Kodiak Island Borough AK","Kodiak Island census subarea","Karluk CDP, AK","99999","Kodiak, AK","Kodiak Island Borough School District",37,1 
"02","02150","41200","40950","99615","99999","00480","10,000-24,999","2500-9999","AK","Kodiak Island Borough AK","Kodiak Island census subarea","Kodiak city, AK","99999","Kodiak, AK","Kodiak Island Borough School District",6130,1 
"02","02150","41200","41210","99615","99999","00480","10,000-24,999","1000-2499","AK","Kodiak Island Borough AK","Kodiak Island census subarea","Kodiak Station CDP, AK","99999","Kodiak, AK","Kodiak Island Borough School District",1301,1 
"02","02150","41200","43040","99624","99999","00480","10,000-24,999","Less than 200","AK","Kodiak Island Borough AK","Kodiak Island census subarea","Larsen Bay city, AK","99999","Larsen Bay, AK","Kodiak Island Borough School District",87,1 
"02","02150","41200","57340","99643","99999","00480","10,000-24,999","200-999","AK","Kodiak Island Borough AK","Kodiak Island census subarea","Old Harbor city, AK","99999","Old Harbor, AK","Kodiak Island Borough School District",218,1 
"02","02150","41200","58550","99644","99999","00480","10,000-24,999","Less than 200","AK","Kodiak Island Borough AK","Kodiak Island census subarea","Ouzinkie city, AK","99999","Ouzinkie, AK","Kodiak Island Borough School District",161,1 
"02","02150","41200","63610","99550","99999","00480","10,000-24,999","Less than 200","AK","Kodiak Island Borough AK","Kodiak Island census subarea","Port Lions city, AK","99999","Port Lions, AK","Kodiak Island Borough School District",194,1 
"02","02150","41200","85680","99615","99999","00480","10,000-24,999","200-999","AK","Kodiak Island Borough AK","Kodiak Island census subarea","Womens Bay CDP, AK","99999","Kodiak, AK","Kodiak Island Borough School District",719,1 
"02","02150","41200","99999","99550","99999","00480","10,000-24,999","Not in a place","AK","Kodiak Island Borough AK","Kodiak Island census subarea"," ","99999","Port Lions, AK","Kodiak Island Borough School District",3,1 
"02","02150","41200","99999","99615","99999","00480","10,000-24,999","Not in a place","AK","Kodiak Island Borough AK","Kodiak Island census subarea"," ","99999","Kodiak, AK","Kodiak Island Borough School District",4557,1 
"02","02150","41200","99999","99624","99999","00480","10,000-24,999","Not in a place","AK","Kodiak Island Borough AK","Kodiak Island census subarea"," ","99999","Larsen Bay, AK","Kodiak Island Borough School District",3,1 
"02","02150","41200","99999","99644","99999","00480","10,000-24,999","Not in a place","AK","Kodiak Island Borough AK","Kodiak Island census subarea"," ","99999","Ouzinkie, AK","Kodiak Island Borough School District",14,1 
"02","02150","41200","99999","99999","99999","00480","10,000-24,999","Not in a place","AK","Kodiak Island Borough AK","Kodiak Island census subarea"," ","99999","99999","Kodiak Island Borough School District",13,1 
"02","02164","42780","13550","99564","99999","00485","1000-2499","Less than 200","AK","Lake and Peninsula Borough AK","Lake and Peninsula census subarea","Chignik city, AK","99999","Chignik, AK","Lake And Peninsula School District",91,1 
"02","02164","42780","13670","99565","99999","00485","1000-2499","Less than 200","AK","Lake and Peninsula Borough AK","Lake and Peninsula census subarea","Chignik Lagoon CDP, AK","99999","Chignik Lagoon, AK","Lake And Peninsula School District",78,1 
"02","02164","42780","13780","99548","99999","00485","1000-2499","Less than 200","AK","Lake and Peninsula Borough AK","Lake and Peninsula census subarea","Chignik Lake CDP, AK","99999","Chignik Lake, AK","Lake And Peninsula School District",73,1 
"02","02164","42780","21150","99579","99999","00485","1000-2499","Less than 200","AK","Lake and Peninsula Borough AK","Lake and Peninsula census subarea","Egegik city, AK","99999","Egegik, AK","Lake And Peninsula School District",109,1 
"02","02164","42780","34790","99613","99999","00485","1000-2499","Less than 200","AK","Lake and Peninsula Borough AK","Lake and Peninsula census subarea","Igiugig CDP, AK","99999","King Salmon, AK","Lake And Peninsula School District",50,1 
"02","02164","42780","35120","99606","99999","00485","1000-2499","Less than 200","AK","Lake and Peninsula Borough AK","Lake and Peninsula census subarea","Iliamna CDP, AK","99999","Newhalen, AK","Lake And Peninsula School District",109,1 
"02","02164","42780","35890","99695","99999","00485","1000-2499","Less than 200","AK","Lake and Peninsula Borough AK","Lake and Peninsula census subarea","Ivanof Bay CDP, AK","99999","Anchorage, AK","Lake And Peninsula School District",7,1 
"02","02164","42780","41280","99606","99999","00485","1000-2499","Less than 200","AK","Lake and Peninsula Borough AK","Lake and Peninsula census subarea","Kokhanok CDP, AK","99999","Newhalen, AK","Lake And Peninsula School District",170,1 
"02","02164","42780","43810","99625","99999","00485","1000-2499","Less than 200","AK","Lake and Peninsula Borough AK","Lake and Peninsula census subarea","Levelock CDP, AK","99999","Levelock, AK","Lake And Peninsula School District",69,1 
"02","02164","42780","53270","99606","99999","00485","1000-2499","Less than 200","AK","Lake and Peninsula Borough AK","Lake and Peninsula census subarea","Newhalen city, AK","99999","Newhalen, AK","Lake And Peninsula School District",190,1 
"02","02164","42780","55030","99640","99999","00485","1000-2499","Less than 200","AK","Lake and Peninsula Borough AK","Lake and Peninsula census subarea","Nondalton city, AK","99999","Nondalton, AK","Lake And Peninsula School District",164,1 
"02","02164","42780","59540","99647","99999","00485","1000-2499","Less than 200","AK","Lake and Peninsula Borough AK","Lake and Peninsula census subarea","Pedro Bay CDP, AK","99999","Pedro Bay, AK","Lake And Peninsula School District",42,1 
"02","02164","42780","60200","99648","99999","00485","1000-2499","Less than 200","AK","Lake and Peninsula Borough AK","Lake and Peninsula census subarea","Perryville CDP, AK","99999","Perryville, AK","Lake And Peninsula School District",113,1 
"02","02164","42780","60640","99649","99999","00485","1000-2499","Less than 200","AK","Lake and Peninsula Borough AK","Lake and Peninsula census subarea","Pilot Point city, AK","99999","Pilot Point, AK","Lake And Peninsula School District",68,1 
"02","02164","42780","62125","99613","99999","00485","1000-2499","Less than 200","AK","Lake and Peninsula Borough AK","Lake and Peninsula census subarea","Pope-Vannoy Landing CDP, AK","99999","King Salmon, AK","Lake And Peninsula School District",6,1 
"02","02164","42780","62620","99653","99999","00485","1000-2499","Less than 200","AK","Lake and Peninsula Borough AK","Lake and Peninsula census subarea","Port Alsworth CDP, AK","99999","Port Alsworth, AK","Lake And Peninsula School District",159,1 
"02","02164","42780","63390","99549","99999","00485","1000-2499","Less than 200","AK","Lake and Peninsula Borough AK","Lake and Peninsula census subarea","Port Heiden city, AK","99999","Port Heiden, AK","Lake And Peninsula School District",102,1 
"02","02164","42780","80100","99649","99999","00485","1000-2499","Less than 200","AK","Lake and Peninsula Borough AK","Lake and Peninsula census subarea","Ugashik CDP, AK","99999","Pilot Point, AK","Lake And Peninsula School District",12,1 
"02","02164","42780","99999","99613","99999","00485","1000-2499","Not in a place","AK","Lake and Peninsula Borough AK","Lake and Peninsula census subarea"," ","99999","King Salmon, AK","Lake And Peninsula School District",4,1 
"02","02164","42780","99999","99625","99999","00485","1000-2499","Not in a place","AK","Lake and Peninsula Borough AK","Lake and Peninsula census subarea"," ","99999","Levelock, AK","Lake And Peninsula School District",3,1 
"02","02164","42780","99999","99640","99999","00485","1000-2499","Not in a place","AK","Lake and Peninsula Borough AK","Lake and Peninsula census subarea"," ","99999","Nondalton, AK","Lake And Peninsula School District",10,1 
"02","02164","42780","99999","99647","99999","00485","1000-2499","Not in a place","AK","Lake and Peninsula Borough AK","Lake and Peninsula census subarea"," ","99999","Pedro Bay, AK","Lake And Peninsula School District",2,1 
"02","02170","47440","07070","99652","99999","00510","25,000-99,999","2500-9999","AK","Matanuska-Susitna Borough AK","Matanuska-Susitna census subarea","Big Lake CDP, AK","99999","Big Lake, AK","Matanuska-Susitna Borough School District",3329,1 
"02","02170","47440","07070","99654","99999","00510","25,000-99,999","2500-9999","AK","Matanuska-Susitna Borough AK","Matanuska-Susitna census subarea","Big Lake CDP, AK","99999","Knik-Fairview, AK","Matanuska-Susitna Borough School District",21,1 
"02","02170","47440","09657","99645","99999","00510","25,000-99,999","200-999","AK","Matanuska-Susitna Borough AK","Matanuska-Susitna census subarea","Buffalo Soapstone CDP, AK","99999","Palmer, AK","Matanuska-Susitna Borough School District",855,1 
"02","02170","47440","09710","99645","99999","00510","25,000-99,999","2500-9999","AK","Matanuska-Susitna Borough AK","Matanuska-Susitna census subarea","Butte CDP, AK","99999","Palmer, AK","Matanuska-Susitna Borough School District",3246,1 
"02","02170","47440","12350","99676","99999","00510","25,000-99,999","Less than 200","AK","Matanuska-Susitna Borough AK","Matanuska-Susitna census subarea","Chase CDP, AK","99999","Talkeetna, AK","Matanuska-Susitna Borough School District",34,1 
"02","02170","47440","13340","99674","99999","00510","25,000-99,999","200-999","AK","Matanuska-Susitna Borough AK","Matanuska-Susitna census subarea","Chickaloon CDP, AK","99999","Sutton-Alpine, AK","Matanuska-Susitna Borough School District",272,1 
"02","02170","47440","23720","99588","99999","00510","25,000-99,999","Less than 200","AK","Matanuska-Susitna Borough AK","Matanuska-Susitna census subarea","Eureka Roadhouse CDP, AK","99999","Glennallen, AK","Matanuska-Susitna Borough School District",29,1 
"02","02170","47440","25000","99645","99999","00510","25,000-99,999","1000-2499","AK","Matanuska-Susitna Borough AK","Matanuska-Susitna census subarea","Farm Loop CDP, AK","99999","Palmer, AK","Matanuska-Susitna Borough School District",1028,1 
"02","02170","47440","25550","99645","99999","00510","25,000-99,999","2500-9999","AK","Matanuska-Susitna Borough AK","Matanuska-Susitna census subarea","Fishhook CDP, AK","99999","Palmer, AK","Matanuska-Susitna Borough School District",1688,1 
"02","02170","47440","25550","99654","99999","00510","25,000-99,999","2500-9999","AK","Matanuska-Susitna Borough AK","Matanuska-Susitna census subarea","Fishhook CDP, AK","99999","Knik-Fairview, AK","Matanuska-Susitna Borough School District",2991,1 
"02","02170","47440","28200","99645","99999","00510","25,000-99,999","2500-9999","AK","Matanuska-Susitna Borough AK","Matanuska-Susitna census subarea","Gateway CDP, AK","99999","Palmer, AK","Matanuska-Susitna Borough School District",4012,1 
"02","02170","47440","28200","99654","99999","00510","25,000-99,999","2500-9999","AK","Matanuska-Susitna Borough AK","Matanuska-Susitna census subarea","Gateway CDP, AK","99999","Knik-Fairview, AK","Matanuska-Susitna Borough School District",1540,1 
"02","02170","47440","28590","99674","99999","00510","25,000-99,999","200-999","AK","Matanuska-Susitna Borough AK","Matanuska-Susitna census subarea","Glacier View CDP, AK","99999","Sutton-Alpine, AK","Matanuska-Susitna Borough School District",234,1 
"02","02170","47440","33800","99652","99999","00510","25,000-99,999","1000-2499","AK","Matanuska-Susitna Borough AK","Matanuska-Susitna census subarea","Houston city, AK","99999","Big Lake, AK","Matanuska-Susitna Borough School District",361,1 
"02","02170","47440","33800","99654","99999","00510","25,000-99,999","1000-2499","AK","Matanuska-Susitna Borough AK","Matanuska-Susitna census subarea","Houston city, AK","99999","Knik-Fairview, AK","Matanuska-Susitna Borough School District",45,1 
"02","02170","47440","33800","99694","99999","00510","25,000-99,999","1000-2499","AK","Matanuska-Susitna Borough AK","Matanuska-Susitna census subarea","Houston city, AK","99999","Houston, AK","Matanuska-Susitna Borough School District",1506,1 
"02","02170","47440","40645","99654","99999","00510","25,000-99,999","10,000-24,999","AK","Matanuska-Susitna Borough AK","Matanuska-Susitna census subarea","Knik-Fairview CDP, AK","99999","Knik-Fairview, AK","Matanuska-Susitna Borough School District",14923,1 
"02","02170","47440","40670","99645","99999","00510","25,000-99,999","200-999","AK","Matanuska-Susitna Borough AK","Matanuska-Susitna census subarea","Knik River CDP, AK","99999","Palmer, AK","Matanuska-Susitna Borough School District",744,1 
"02","02170","47440","42805","99588","99999","00510","25,000-99,999","Less than 200","AK","Matanuska-Susitna Borough AK","Matanuska-Susitna census subarea","Lake Louise CDP, AK","99999","Glennallen, AK","Matanuska-Susitna Borough School District",46,1 
"02","02170","47440","42832","99645","99999","00510","25,000-99,999","2500-9999","AK","Matanuska-Susitna Borough AK","Matanuska-Susitna census subarea","Lakes CDP, AK","99999","Palmer, AK","Matanuska-Susitna Borough School District",1860,1 
"02","02170","47440","42832","99654","99999","00510","25,000-99,999","2500-9999","AK","Matanuska-Susitna Borough AK","Matanuska-Susitna census subarea","Lakes CDP, AK","99999","Knik-Fairview, AK","Matanuska-Susitna Borough School District",6504,1 
"02","02170","47440","43260","99645","99999","00510","25,000-99,999","1000-2499","AK","Matanuska-Susitna Borough AK","Matanuska-Susitna census subarea","Lazy Mountain CDP, AK","99999","Palmer, AK","Matanuska-Susitna Borough School District",1479,1 
"02","02170","47440","47735","99654","99999","00510","25,000-99,999","2500-9999","AK","Matanuska-Susitna Borough AK","Matanuska-Susitna census subarea","Meadow Lakes CDP, AK","99999","Knik-Fairview, AK","Matanuska-Susitna Borough School District",7570,1 
"02","02170","47440","58660","99645","99999","00510","25,000-99,999","2500-9999","AK","Matanuska-Susitna Borough AK","Matanuska-Susitna census subarea","Palmer city, AK","99999","Palmer, AK","Matanuska-Susitna Borough School District",5937,1 
"02","02170","47440","60460","99683","99999","00510","25,000-99,999","Less than 200","AK","Matanuska-Susitna Borough AK","Matanuska-Susitna census subarea","Petersville CDP, AK","99999","Trapper Creek, AK","Matanuska-Susitna Borough School District",4,1 
"02","02170","47440","61788","99654","99999","00510","25,000-99,999","200-999","AK","Matanuska-Susitna Borough AK","Matanuska-Susitna census subarea","Point MacKenzie CDP, AK","99999","Knik-Fairview, AK","Matanuska-Susitna Borough School District",529,1 
"02","02170","47440","70870","99667","99999","00510","25,000-99,999","Less than 200","AK","Matanuska-Susitna Borough AK","Matanuska-Susitna census subarea","Skwentna CDP, AK","99999","Skwentna, AK","Matanuska-Susitna Borough School District",37,1 
"02","02170","47440","74340","99667","99999","00510","25,000-99,999","Less than 200","AK","Matanuska-Susitna Borough AK","Matanuska-Susitna census subarea","Susitna CDP, AK","99999","Skwentna, AK","Matanuska-Susitna Borough School District",18,1 
"02","02170","47440","74350","99676","99999","00510","25,000-99,999","1000-2499","AK","Matanuska-Susitna Borough AK","Matanuska-Susitna census subarea","Susitna North CDP, AK","99999","Talkeetna, AK","Matanuska-Susitna Borough School District",600,1 
"02","02170","47440","74350","99688","99999","00510","25,000-99,999","1000-2499","AK","Matanuska-Susitna Borough AK","Matanuska-Susitna census subarea","Susitna North CDP, AK","99999","Willow, AK","Matanuska-Susitna Borough School District",660,1 
"02","02170","47440","74525","99645","99999","00510","25,000-99,999","1000-2499","AK","Matanuska-Susitna Borough AK","Matanuska-Susitna census subarea","Sutton-Alpine CDP, AK","99999","Palmer, AK","Matanuska-Susitna Borough School District",511,1 
"02","02170","47440","74525","99674","99999","00510","25,000-99,999","1000-2499","AK","Matanuska-Susitna Borough AK","Matanuska-Susitna census subarea","Sutton-Alpine CDP, AK","99999","Sutton-Alpine, AK","Matanuska-Susitna Borough School District",936,1 
"02","02170","47440","74830","99676","99999","00510","25,000-99,999","200-999","AK","Matanuska-Susitna Borough AK","Matanuska-Susitna census subarea","Talkeetna CDP, AK","99999","Talkeetna, AK","Matanuska-Susitna Borough School District",876,1 
"02","02170","47440","75077","99654","99999","00510","25,000-99,999","2500-9999","AK","Matanuska-Susitna Borough AK","Matanuska-Susitna census subarea","Tanaina CDP, AK","99999","Knik-Fairview, AK","Matanuska-Susitna Borough School District",8197,1 
"02","02170","47440","78680","99683","99999","00510","25,000-99,999","200-999","AK","Matanuska-Susitna Borough AK","Matanuska-Susitna census subarea","Trapper Creek CDP, AK","99999","Trapper Creek, AK","Matanuska-Susitna Borough School District",481,1 
"02","02170","47440","83080","99654","99999","00510","25,000-99,999","2500-9999","AK","Matanuska-Susitna Borough AK","Matanuska-Susitna census subarea","Wasilla city, AK","99999","Knik-Fairview, AK","Matanuska-Susitna Borough School District",7831,1 
"02","02170","47440","85280","99652","99999","00510","25,000-99,999","1000-2499","AK","Matanuska-Susitna Borough AK","Matanuska-Susitna census subarea","Willow CDP, AK","99999","Big Lake, AK","Matanuska-Susitna Borough School District",13,1 
"02","02170","47440","85280","99688","99999","00510","25,000-99,999","1000-2499","AK","Matanuska-Susitna Borough AK","Matanuska-Susitna census subarea","Willow CDP, AK","99999","Willow, AK","Matanuska-Susitna Borough School District",2083,1 
"02","02170","47440","85280","99694","99999","00510","25,000-99,999","1000-2499","AK","Matanuska-Susitna Borough AK","Matanuska-Susitna census subarea","Willow CDP, AK","99999","Houston, AK","Matanuska-Susitna Borough School District",6,1 
"02","02170","47440","99999","99588","99999","00510","25,000-99,999","Not in a place","AK","Matanuska-Susitna Borough AK","Matanuska-Susitna census subarea"," ","99999","Glennallen, AK","Matanuska-Susitna Borough School District",11,1 
"02","02170","47440","99999","99645","99999","00510","25,000-99,999","Not in a place","AK","Matanuska-Susitna Borough AK","Matanuska-Susitna census subarea"," ","99999","Palmer, AK","Matanuska-Susitna Borough School District",3816,1 
"02","02170","47440","99999","99654","99999","00510","25,000-99,999","Not in a place","AK","Matanuska-Susitna Borough AK","Matanuska-Susitna census subarea"," ","99999","Knik-Fairview, AK","Matanuska-Susitna Borough School District",2017,1 
"02","02170","47440","99999","99667","99999","00510","25,000-99,999","Not in a place","AK","Matanuska-Susitna Borough AK","Matanuska-Susitna census subarea"," ","99999","Skwentna, AK","Matanuska-Susitna Borough School District",10,1 
"02","02170","47440","99999","99674","99999","00510","25,000-99,999","Not in a place","AK","Matanuska-Susitna Borough AK","Matanuska-Susitna census subarea"," ","99999","Sutton-Alpine, AK","Matanuska-Susitna Borough School District",2,1 
"02","02170","47440","99999","99676","99999","00510","25,000-99,999","Not in a place","AK","Matanuska-Susitna Borough AK","Matanuska-Susitna census subarea"," ","99999","Talkeetna, AK","Matanuska-Susitna Borough School District",36,1 
"02","02170","47440","99999","99683","99999","00510","25,000-99,999","Not in a place","AK","Matanuska-Susitna Borough AK","Matanuska-Susitna census subarea"," ","99999","Trapper Creek, AK","Matanuska-Susitna Borough School District",39,1 
"02","02170","47440","99999","99688","99999","00510","25,000-99,999","Not in a place","AK","Matanuska-Susitna Borough AK","Matanuska-Susitna census subarea"," ","99999","Willow, AK","Matanuska-Susitna Borough School District",16,1 
"02","02170","47440","99999","99729","99999","00510","25,000-99,999","Not in a place","AK","Matanuska-Susitna Borough AK","Matanuska-Susitna census subarea"," ","99999","Cantwell, AK","Matanuska-Susitna Borough School District",12,1 
"02","02180","54970","08740","99785","99999","00020","2500-9999","200-999","AK","Nome Census Area AK","Nome census subarea","Brevig Mission city, AK","99999","Brevig Mission, AK","Bering Strait School District",388,1 
"02","02180","54970","19060","99762","99999","00020","2500-9999","Less than 200","AK","Nome Census Area AK","Nome census subarea","Diomede city, AK","99999","Nome, AK","Bering Strait School District",115,1 
"02","02180","54970","22250","99739","99999","00020","2500-9999","200-999","AK","Nome Census Area AK","Nome census subarea","Elim city, AK","99999","Elim, AK","Bering Strait School District",330,1 
"02","02180","54970","27640","99742","99999","00020","2500-9999","200-999","AK","Nome Census Area AK","Nome census subarea","Gambell city, AK","99999","Gambell, AK","Bering Strait School District",681,1 
"02","02180","54970","29180","99762","99999","00020","2500-9999","Less than 200","AK","Nome Census Area AK","Nome census subarea","Golovin city, AK","99999","Nome, AK","Bering Strait School District",156,1 
"02","02180","54970","41940","99753","99999","00020","2500-9999","200-999","AK","Nome Census Area AK","Nome census subarea","Koyuk city, AK","99999","Koyuk, AK","Bering Strait School District",332,1 
"02","02180","54970","54920","99762","99999","00570","2500-9999","2500-9999","AK","Nome Census Area AK","Nome census subarea","Nome city, AK","99999","Nome, AK","Nome School District",3598,1 
"02","02180","54970","63170","99778","99999","00020","2500-9999","Less than 200","AK","Nome Census Area AK","Nome census subarea","Port Clarence CDP, AK","99999","Teller, AK","Bering Strait School District",24,1 
"02","02180","54970","66360","99659","99999","00020","2500-9999","200-999","AK","Nome Census Area AK","Nome census subarea","St. Michael city, AK","99999","St. Michael, AK","Bering Strait School District",401,1 
"02","02180","54970","67460","99769","99999","00020","2500-9999","200-999","AK","Nome Census Area AK","Nome census subarea","Savoonga city, AK","99999","Savoonga, AK","Bering Strait School District",671,1 
"02","02180","54970","68890","99771","99999","00020","2500-9999","200-999","AK","Nome Census Area AK","Nome census subarea","Shaktoolik city, AK","99999","Shaktoolik, AK","Bering Strait School District",251,1 
"02","02180","54970","69770","99772","99999","00020","2500-9999","200-999","AK","Nome Census Area AK","Nome census subarea","Shishmaref city, AK","99999","Shishmaref, AK","Bering Strait School District",563,1 
"02","02180","54970","72960","99671","99999","00020","2500-9999","200-999","AK","Nome Census Area AK","Nome census subarea","Stebbins city, AK","99999","Stebbins, AK","Bering Strait School District",556,1 
"02","02180","54970","75930","99778","99999","00020","2500-9999","200-999","AK","Nome Census Area AK","Nome census subarea","Teller city, AK","99999","Teller, AK","Bering Strait School District",229,1 
"02","02180","54970","80660","99684","99999","00020","2500-9999","200-999","AK","Nome Census Area AK","Nome census subarea","Unalakleet city, AK","99999","Unalakleet, AK","Bering Strait School District",688,1 
"02","02180","54970","82860","99783","99999","00020","2500-9999","Less than 200","AK","Nome Census Area AK","Nome census subarea","Wales city, AK","99999","Wales, AK","Bering Strait School District",145,1 
"02","02180","54970","84070","99784","99999","00020","2500-9999","Less than 200","AK","Nome Census Area AK","Nome census subarea","White Mountain city, AK","99999","White Mountain, AK","Bering Strait School District",190,1 
"02","02180","54970","99999","99762","99999","00020","2500-9999","Not in a place","AK","Nome Census Area AK","Nome census subarea"," ","99999","Nome, AK","Bering Strait School District",169,1 
"02","02180","54970","99999","99772","99999","00020","2500-9999","Not in a place","AK","Nome Census Area AK","Nome census subarea"," ","99999","Shishmaref, AK","Bering Strait School District",4,1 
"02","02180","54970","99999","99778","99999","00020","2500-9999","Not in a place","AK","Nome Census Area AK","Nome census subarea"," ","99999","Teller, AK","Bering Strait School District",1,1 
"02","02185","55970","02080","99721","99999","00610","2500-9999","200-999","AK","North Slope Borough AK","North Slope census subarea","Anaktuvuk Pass city, AK","99999","Anaktuvuk Pass, AK","North Slope Borough School District",324,1 
"02","02185","55970","04500","99791","99999","00610","2500-9999","200-999","AK","North Slope Borough AK","North Slope census subarea","Atqasuk city, AK","99999","Atqasuk, AK","North Slope Borough School District",233,1 
"02","02185","55970","05200","99723","99999","00610","2500-9999","2500-9999","AK","North Slope Borough AK","North Slope census subarea","Barrow city, AK","99999","Barrow, AK","North Slope Borough School District",4212,1 
"02","02185","55970","36990","99747","99999","00610","2500-9999","200-999","AK","North Slope Borough AK","North Slope census subarea","Kaktovik city, AK","99999","Kaktovik, AK","North Slope Borough School District",239,1 
"02","02185","55970","56320","99789","99999","00610","2500-9999","200-999","AK","North Slope Borough AK","North Slope census subarea","Nuiqsut city, AK","99999","Nuiqsut, AK","North Slope Borough School District",402,1 
"02","02185","55970","61630","99766","99999","00610","2500-9999","200-999","AK","North Slope Borough AK","North Slope census subarea","Point Hope city, AK","99999","Point Hope, AK","North Slope Borough School District",674,1 
"02","02185","55970","61700","99759","99999","00610","2500-9999","Less than 200","AK","North Slope Borough AK","North Slope census subarea","Point Lay CDP, AK","99999","Point Lay, AK","North Slope Borough School District",189,1 
"02","02185","55970","64380","99519","99999","00610","2500-9999","1000-2499","AK","North Slope Borough AK","North Slope census subarea","Prudhoe Bay CDP, AK","99999","Prudhoe Bay, AK","North Slope Borough School District",1251,1 
"02","02185","55970","64380","99734","99999","00610","2500-9999","1000-2499","AK","North Slope Borough AK","North Slope census subarea","Prudhoe Bay CDP, AK","99999","Prudhoe Bay, AK","North Slope Borough School District",845,1 
"02","02185","55970","64380","99999","99999","00610","2500-9999","1000-2499","AK","North Slope Borough AK","North Slope census subarea","Prudhoe Bay CDP, AK","99999","99999","North Slope Borough School District",78,1 
"02","02185","55970","82750","99782","99999","00610","2500-9999","200-999","AK","North Slope Borough AK","North Slope census subarea","Wainwright city, AK","99999","Wainwright, AK","North Slope Borough School District",556,1 
"02","02185","55970","99999","99510","99999","00610","2500-9999","Not in a place","AK","North Slope Borough AK","North Slope census subarea"," ","99999","Anchorage, AK","North Slope Borough School District",353,1 
"02","02185","55970","99999","99519","99999","00610","2500-9999","Not in a place","AK","North Slope Borough AK","North Slope census subarea"," ","99999","Prudhoe Bay, AK","North Slope Borough School District",65,1 
"02","02185","55970","99999","99723","99999","00610","2500-9999","Not in a place","AK","North Slope Borough AK","North Slope census subarea"," ","99999","Barrow, AK","North Slope Borough School District",1,1 
"02","02185","55970","99999","99766","99999","00610","2500-9999","Not in a place","AK","North Slope Borough AK","North Slope census subarea"," ","99999","Point Hope, AK","North Slope Borough School District",4,1 
"02","02185","55970","99999","99791","99999","00610","2500-9999","Not in a place","AK","North Slope Borough AK","North Slope census subarea"," ","99999","Atqasuk, AK","North Slope Borough School District",4,1 
"02","02188","56270","01970","99786","99999","00625","2500-9999","200-999","AK","Northwest Arctic Borough AK","Northwest Arctic census subarea","Ambler city, AK","99999","Ambler, AK","Northwest Arctic Borough School District",258,1 
"02","02188","56270","09600","99727","99999","00625","2500-9999","200-999","AK","Northwest Arctic Borough AK","Northwest Arctic census subarea","Buckland city, AK","99999","Buckland, AK","Northwest Arctic Borough School District",416,1 
"02","02188","56270","18510","99736","99999","00625","2500-9999","Less than 200","AK","Northwest Arctic Borough AK","Northwest Arctic census subarea","Deering city, AK","99999","Deering, AK","Northwest Arctic Borough School District",122,1 
"02","02188","56270","39300","99749","99999","00625","2500-9999","200-999","AK","Northwest Arctic Borough AK","Northwest Arctic census subarea","Kiana city, AK","99999","Kiana, AK","Northwest Arctic Borough School District",361,1 
"02","02188","56270","39960","99750","99999","00625","2500-9999","200-999","AK","Northwest Arctic Borough AK","Northwest Arctic census subarea","Kivalina city, AK","99999","Kivalina, AK","Northwest Arctic Borough School District",374,1 
"02","02188","56270","40840","99751","99999","00625","2500-9999","Less than 200","AK","Northwest Arctic Borough AK","Northwest Arctic census subarea","Kobuk city, AK","99999","Kobuk, AK","Northwest Arctic Borough School District",151,1 
"02","02188","56270","41830","99752","99999","00625","2500-9999","2500-9999","AK","Northwest Arctic Borough AK","Northwest Arctic census subarea","Kotzebue city, AK","99999","Kotzebue, AK","Northwest Arctic Borough School District",3201,1 
"02","02188","56270","54700","99761","99999","00625","2500-9999","200-999","AK","Northwest Arctic Borough AK","Northwest Arctic census subarea","Noatak CDP, AK","99999","Noatak, AK","Northwest Arctic Borough School District",514,1 
"02","02188","56270","55140","99763","99999","00625","2500-9999","200-999","AK","Northwest Arctic Borough AK","Northwest Arctic census subarea","Noorvik city, AK","99999","Noorvik, AK","Northwest Arctic Borough School District",668,1 
"02","02188","56270","64980","99752","99999","00625","2500-9999","200-999","AK","Northwest Arctic Borough AK","Northwest Arctic census subarea","Red Dog Mine CDP, AK","99999","Kotzebue, AK","Northwest Arctic Borough School District",309,1 
"02","02188","56270","68230","99770","99999","00625","2500-9999","200-999","AK","Northwest Arctic Borough AK","Northwest Arctic census subarea","Selawik city, AK","99999","Selawik, AK","Northwest Arctic Borough School District",829,1 
"02","02188","56270","70100","99773","99999","00625","2500-9999","200-999","AK","Northwest Arctic Borough AK","Northwest Arctic census subarea","Shungnak city, AK","99999","Shungnak, AK","Northwest Arctic Borough School District",262,1 
"02","02188","56270","99999","99749","99999","00625","2500-9999","Not in a place","AK","Northwest Arctic Borough AK","Northwest Arctic census subarea"," ","99999","Kiana, AK","Northwest Arctic Borough School District",2,1 
"02","02188","56270","99999","99752","99999","00625","2500-9999","Not in a place","AK","Northwest Arctic Borough AK","Northwest Arctic census subarea"," ","99999","Kotzebue, AK","Northwest Arctic Borough School District",43,1 
"02","02188","56270","99999","99770","99999","00625","2500-9999","Not in a place","AK","Northwest Arctic Borough AK","Northwest Arctic census subarea"," ","99999","Selawik, AK","Northwest Arctic Borough School District",12,1 
"02","02188","56270","99999","99786","99999","00625","2500-9999","Not in a place","AK","Northwest Arctic Borough AK","Northwest Arctic census subarea"," ","99999","Ambler, AK","Northwest Arctic Borough School District",1,1 
"02","02195","60360","36770","99830","99999","00360","2500-9999","200-999","AK","Petersburg Census Area","Petersburg census subarea","Kake city, AK","99999","Kake, AK","Kake City School District",557,1 
"02","02195","60360","42160","99833","99999","00700","2500-9999","Less than 200","AK","Petersburg Census Area","Petersburg census subarea","Kupreanof city, AK","99999","Petersburg, AK","Southeast Island School District",27,1 
"02","02195","60360","60310","99833","99999","00660","2500-9999","2500-9999","AK","Petersburg Census Area","Petersburg census subarea","Petersburg city, AK","99999","Petersburg, AK","Petersburg City School District",2948,1 
"02","02195","60360","62510","99836","99999","00700","2500-9999","Less than 200","AK","Petersburg Census Area","Petersburg census subarea","Port Alexander city, AK","99999","Port Alexander, AK","Southeast Island School District",52,1 
"02","02195","60360","99999","99830","99999","00700","2500-9999","Not in a place","AK","Petersburg Census Area","Petersburg census subarea"," ","99999","Kake, AK","Southeast Island School District",4,1 
"02","02195","60360","99999","99833","99999","00700","2500-9999","Not in a place","AK","Petersburg Census Area","Petersburg census subarea"," ","99999","Petersburg, AK","Southeast Island School District",225,1 
"02","02195","60360","99999","99833","99999","00730","2500-9999","Not in a place","AK","Petersburg Census Area","Petersburg census subarea"," ","99999","Petersburg, AK","Chatham School District",2,1 
"02","02198","34575","34570","99923","99999","00700","2500-9999","Less than 200","AK","Prince of Wales-Hyder Census Area","Hyder census subarea","Hyder CDP, AK","99999","Hyder, AK","Southeast Island School District",87,1 
"02","02198","48873","48870","99926","99999","00525","2500-9999","1000-2499","AK","Prince of Wales-Hyder Census Area","Metlakatla Indian Community census subarea","Metlakatla CDP, AK","99999","Metlakatla, AK","Annette Island School District",1405,1 
"02","02198","48873","99999","99926","99999","00525","2500-9999","Not in a place","AK","Prince of Wales-Hyder Census Area","Metlakatla Indian Community census subarea"," ","99999","Metlakatla, AK","Annette Island School District",55,1 
"02","02198","64310","16360","99918","99999","00700","2500-9999","Less than 200","AK","Prince of Wales-Hyder Census Area","Prince of Wales census subarea","Coffman Cove city, AK","99999","Coffman Cove, AK","Southeast Island School District",176,1 
"02","02198","64310","17740","99921","99999","00090","2500-9999","1000-2499","AK","Prince of Wales-Hyder Census Area","Prince of Wales census subarea","Craig city, AK","99999","Craig, AK","Craig City School District",1201,1 
"02","02198","64310","20970","99921","99999","00700","2500-9999","Less than 200","AK","Prince of Wales-Hyder Census Area","Prince of Wales census subarea","Edna Bay CDP, AK","99999","Craig, AK","Southeast Island School District",42,1 
"02","02198","64310","32810","99921","99999","00700","2500-9999","Less than 200","AK","Prince of Wales-Hyder Census Area","Prince of Wales census subarea","Hollis CDP, AK","99999","Craig, AK","Southeast Island School District",112,1 
"02","02198","64310","34460","99922","99999","00330","2500-9999","200-999","AK","Prince of Wales-Hyder Census Area","Prince of Wales census subarea","Hydaburg city, AK","99999","Hydaburg, AK","Hydaburg City School District",376,1 
"02","02198","64310","37650","99919","99999","00700","2500-9999","Less than 200","AK","Prince of Wales-Hyder Census Area","Prince of Wales census subarea","Kasaan city, AK","99999","Thorne Bay, AK","Southeast Island School District",49,1 
"02","02198","64310","40400","99925","99999","00450","2500-9999","200-999","AK","Prince of Wales-Hyder Census Area","Prince of Wales census subarea","Klawock city, AK","99999","Klawock, AK","Klawock City School District",755,1 
"02","02198","64310","52845","99921","99999","00700","2500-9999","Less than 200","AK","Prince of Wales-Hyder Census Area","Prince of Wales census subarea","Naukati Bay CDP, AK","99999","Craig, AK","Southeast Island School District",113,1 
"02","02198","64310","61190","99927","99999","00700","2500-9999","Less than 200","AK","Prince of Wales-Hyder Census Area","Prince of Wales census subarea","Point Baker CDP, AK","99999","Port Protection, AK","Southeast Island School District",15,1 
"02","02198","64310","63870","99927","99999","00700","2500-9999","Less than 200","AK","Prince of Wales-Hyder Census Area","Prince of Wales census subarea","Port Protection CDP, AK","99999","Port Protection, AK","Southeast Island School District",48,1 
"02","02198","64310","77140","99919","99999","00700","2500-9999","200-999","AK","Prince of Wales-Hyder Census Area","Prince of Wales census subarea","Thorne Bay city, AK","99999","Thorne Bay, AK","Southeast Island School District",471,1 
"02","02198","64310","84000","99921","99999","00700","2500-9999","Less than 200","AK","Prince of Wales-Hyder Census Area","Prince of Wales census subarea","Whale Pass CDP, AK","99999","Craig, AK","Southeast Island School District",31,1 
"02","02198","64310","99999","99901","99999","00700","2500-9999","Not in a place","AK","Prince of Wales-Hyder Census Area","Prince of Wales census subarea"," ","99999","Ketchikan, AK","Southeast Island School District",33,1 
"02","02198","64310","99999","99918","99999","00700","2500-9999","Not in a place","AK","Prince of Wales-Hyder Census Area","Prince of Wales census subarea"," ","99999","Coffman Cove, AK","Southeast Island School District",55,1 
"02","02198","64310","99999","99919","99999","00700","2500-9999","Not in a place","AK","Prince of Wales-Hyder Census Area","Prince of Wales census subarea"," ","99999","Thorne Bay, AK","Southeast Island School District",11,1 
"02","02198","64310","99999","99921","99999","00700","2500-9999","Not in a place","AK","Prince of Wales-Hyder Census Area","Prince of Wales census subarea"," ","99999","Craig, AK","Southeast Island School District",421,1 
"02","02198","64310","99999","99922","99999","00700","2500-9999","Not in a place","AK","Prince of Wales-Hyder Census Area","Prince of Wales census subarea"," ","99999","Hydaburg, AK","Southeast Island School District",8,1 
"02","02198","64310","99999","99925","99999","00700","2500-9999","Not in a place","AK","Prince of Wales-Hyder Census Area","Prince of Wales census subarea"," ","99999","Klawock, AK","Southeast Island School District",64,1 
"02","02198","64310","99999","99927","99999","00700","2500-9999","Not in a place","AK","Prince of Wales-Hyder Census Area","Prince of Wales census subarea"," ","99999","Port Protection, AK","Southeast Island School District",31,1 
"02","02220","70590","70540","99835","99999","00240","2500-9999","2500-9999","AK","Sitka Borough AK","Sitka census subarea","Sitka city and borough, AK","99999","Sitka city and, AK","Sitka Borough School District",8880,1 
"02","02220","70590","70540","99999","99999","00240","2500-9999","2500-9999","AK","Sitka Borough AK","Sitka census subarea","Sitka city and borough, AK","99999","99999","Sitka Borough School District",1,1 
"02","02230","70810","70760","99840","99999","00690","200-999","200-999","AK","Skagway Municipality","Skagway census subarea","Skagway CDP, AK","99999","Skagway, AK","Skagway School District",920,1 
"02","02230","70810","99999","99840","99999","00690","200-999","Not in a place","AK","Skagway Municipality","Skagway census subarea"," ","99999","Skagway, AK","Skagway School District",48,1 
"02","02240","72030","01390","99764","99999","00050","2500-9999","Less than 200","AK","Southeast Fairbanks Census Area AK","Southeast Fairbanks census subarea","Alcan Border CDP, AK","99999","Northway Village, AK","Alaska Gateway School District",33,1 
"02","02240","72030","06850","99737","99999","00100","2500-9999","200-999","AK","Southeast Fairbanks Census Area AK","Southeast Fairbanks census subarea","Big Delta CDP, AK","99999","Deltana, AK","Delta/Greely School District",591,1 
"02","02240","72030","13450","99732","99999","00050","2500-9999","Less than 200","AK","Southeast Fairbanks Census Area AK","Southeast Fairbanks census subarea","Chicken CDP, AK","99999","Chicken, AK (PO Boxes)","Alaska Gateway School District",7,1 
"02","02240","72030","18620","99737","99999","00100","2500-9999","200-999","AK","Southeast Fairbanks Census Area AK","Southeast Fairbanks census subarea","Delta Junction city, AK","99999","Deltana, AK","Delta/Greely School District",958,1 
"02","02240","72030","18675","99737","99999","00100","2500-9999","1000-2499","AK","Southeast Fairbanks Census Area AK","Southeast Fairbanks census subarea","Deltana CDP, AK","99999","Deltana, AK","Delta/Greely School District",2251,1 
"02","02240","72030","19720","99737","99999","00050","2500-9999","Less than 200","AK","Southeast Fairbanks Census Area AK","Southeast Fairbanks census subarea","Dot Lake CDP, AK","99999","Deltana, AK","Alaska Gateway School District",13,1 
"02","02240","72030","19750","99737","99999","00050","2500-9999","Less than 200","AK","Southeast Fairbanks Census Area AK","Southeast Fairbanks census subarea","Dot Lake Village CDP, AK","99999","Deltana, AK","Alaska Gateway School District",62,1 
"02","02240","72030","20020","99737","99999","00050","2500-9999","Less than 200","AK","Southeast Fairbanks Census Area AK","Southeast Fairbanks census subarea","Dry Creek CDP, AK","99999","Deltana, AK","Alaska Gateway School District",94,1 
"02","02240","72030","20380","99738","99999","00050","2500-9999","Less than 200","AK","Southeast Fairbanks Census Area AK","Southeast Fairbanks census subarea","Eagle city, AK","99999","Eagle, AK","Alaska Gateway School District",86,1 
"02","02240","72030","20600","99738","99999","00050","2500-9999","Less than 200","AK","Southeast Fairbanks Census Area AK","Southeast Fairbanks census subarea","Eagle Village CDP, AK","99999","Eagle, AK","Alaska Gateway School District",67,1 
"02","02240","72030","26100","99737","99999","00100","2500-9999","200-999","AK","Southeast Fairbanks Census Area AK","Southeast Fairbanks census subarea","Fort Greely CDP, AK","99999","Deltana, AK","Delta/Greely School District",539,1 
"02","02240","72030","32310","99706","99999","00100","2500-9999","Less than 200","AK","Southeast Fairbanks Census Area AK","Southeast Fairbanks census subarea","Healy Lake CDP, AK","99999","Fairbanks, AK","Delta/Greely School District",13,1 
"02","02240","72030","56220","99764","99999","00050","2500-9999","Less than 200","AK","Southeast Fairbanks Census Area AK","Southeast Fairbanks census subarea","Northway CDP, AK","99999","Northway Village, AK","Alaska Gateway School District",71,1 
"02","02240","72030","56250","99764","99999","00050","2500-9999","Less than 200","AK","Southeast Fairbanks Census Area AK","Southeast Fairbanks census subarea","Northway Junction CDP, AK","99999","Northway Village, AK","Alaska Gateway School District",54,1 
"02","02240","72030","56260","99764","99999","00050","2500-9999","Less than 200","AK","Southeast Fairbanks Census Area AK","Southeast Fairbanks census subarea","Northway Village CDP, AK","99999","Northway Village, AK","Alaska Gateway School District",98,1 
"02","02240","72030","75050","99776","99999","00050","2500-9999","Less than 200","AK","Southeast Fairbanks Census Area AK","Southeast Fairbanks census subarea","Tanacross CDP, AK","99999","Tanacross, AK","Alaska Gateway School District",124,1 
"02","02240","72030","75050","99780","99999","00050","2500-9999","Less than 200","AK","Southeast Fairbanks Census Area AK","Southeast Fairbanks census subarea","Tanacross CDP, AK","99999","Tok, AK","Alaska Gateway School District",12,1 
"02","02240","72030","76590","99780","99999","00050","2500-9999","Less than 200","AK","Southeast Fairbanks Census Area AK","Southeast Fairbanks census subarea","Tetlin CDP, AK","99999","Tok, AK","Alaska Gateway School District",127,1 
"02","02240","72030","77800","99780","99999","00050","2500-9999","1000-2499","AK","Southeast Fairbanks Census Area AK","Southeast Fairbanks census subarea","Tok CDP, AK","99999","Tok, AK","Alaska Gateway School District",1258,1 
"02","02240","72030","84120","99737","99999","00100","2500-9999","Less than 200","AK","Southeast Fairbanks Census Area AK","Southeast Fairbanks census subarea","Whitestone CDP, AK","99999","Deltana, AK","Delta/Greely School District",97,1 
"02","02240","72030","99999","99732","99999","00050","2500-9999","Not in a place","AK","Southeast Fairbanks Census Area AK","Southeast Fairbanks census subarea"," ","99999","Chicken, AK (PO Boxes)","Alaska Gateway School District",3,1 
"02","02240","72030","99999","99737","99999","00050","2500-9999","Not in a place","AK","Southeast Fairbanks Census Area AK","Southeast Fairbanks census subarea"," ","99999","Deltana, AK","Alaska Gateway School District",2,1 
"02","02240","72030","99999","99737","99999","00100","2500-9999","Not in a place","AK","Southeast Fairbanks Census Area AK","Southeast Fairbanks census subarea"," ","99999","Deltana, AK","Delta/Greely School District",361,1 
"02","02240","72030","99999","99738","99999","00050","2500-9999","Not in a place","AK","Southeast Fairbanks Census Area AK","Southeast Fairbanks census subarea"," ","99999","Eagle, AK","Alaska Gateway School District",33,1 
"02","02240","72030","99999","99738","99999","00775","2500-9999","Not in a place","AK","Southeast Fairbanks Census Area AK","Southeast Fairbanks census subarea"," ","99999","Eagle, AK","Yukon Flats School District",1,1 
"02","02240","72030","99999","99764","99999","00050","2500-9999","Not in a place","AK","Southeast Fairbanks Census Area AK","Southeast Fairbanks census subarea"," ","99999","Northway Village, AK","Alaska Gateway School District",34,1 
"02","02240","72030","99999","99780","99999","00050","2500-9999","Not in a place","AK","Southeast Fairbanks Census Area AK","Southeast Fairbanks census subarea"," ","99999","Tok, AK","Alaska Gateway School District",40,1 
"02","02261","14420","12970","99574","99999","00800","2500-9999","Less than 200","AK","Valdez-Cordova Census Area AK","Chugach census subarea","Chenega CDP, AK","99999","Cordova, AK","Chugach School District",76,1 
"02","02261","14420","17410","99574","99999","00060","2500-9999","1000-2499","AK","Valdez-Cordova Census Area AK","Chugach census subarea","Cordova city, AK","99999","Cordova, AK","Cordova City School District",2239,1 
"02","02261","14420","75380","99677","99999","00800","2500-9999","Less than 200","AK","Valdez-Cordova Census Area AK","Chugach census subarea","Tatitlek CDP, AK","99999","Tatitlek, AK","Chugach School District",88,1 
"02","02261","14420","82200","99686","99999","00780","2500-9999","2500-9999","AK","Valdez-Cordova Census Area AK","Chugach census subarea","Valdez city, AK","99999","Valdez, AK","Valdez City School District",3976,1 
"02","02261","14420","84510","99693","99999","00800","2500-9999","200-999","AK","Valdez-Cordova Census Area AK","Chugach census subarea","Whittier city, AK","99999","Whittier, AK","Chugach School District",220,1 
"02","02261","14420","99999","99574","99999","00800","2500-9999","Not in a place","AK","Valdez-Cordova Census Area AK","Chugach census subarea"," ","99999","Cordova, AK","Chugach School District",33,1 
"02","02261","14420","99999","99686","99999","00800","2500-9999","Not in a place","AK","Valdez-Cordova Census Area AK","Chugach census subarea"," ","99999","Valdez, AK","Chugach School District",24,1 
"02","02261","14420","99999","99693","99999","00800","2500-9999","Not in a place","AK","Valdez-Cordova Census Area AK","Chugach census subarea"," ","99999","Whittier, AK","Chugach School District",28,1 
"02","02261","17350","14000","99586","99999","00070","2500-9999","Less than 200","AK","Valdez-Cordova Census Area AK","Copper River census subarea","Chistochina CDP, AK","99999","Gakona, AK","Copper River School District",93,1 
"02","02261","17350","14110","99566","99999","00070","2500-9999","Less than 200","AK","Valdez-Cordova Census Area AK","Copper River census subarea","Chitina CDP, AK","99999","Chitina, AK","Copper River School District",126,1 
"02","02261","17350","17300","99573","99999","00070","2500-9999","200-999","AK","Valdez-Cordova Census Area AK","Copper River census subarea","Copper Center CDP, AK","99999","Kenny Lake, AK","Copper River School District",328,1 
"02","02261","17350","27420","99586","99999","00070","2500-9999","200-999","AK","Valdez-Cordova Census Area AK","Copper River census subarea","Gakona CDP, AK","99999","Gakona, AK","Copper River School District",218,1 
"02","02261","17350","28740","99588","99999","00070","2500-9999","200-999","AK","Valdez-Cordova Census Area AK","Copper River census subarea","Glennallen CDP, AK","99999","Glennallen, AK","Copper River School District",483,1 
"02","02261","17350","30500","99586","99999","00070","2500-9999","Less than 200","AK","Valdez-Cordova Census Area AK","Copper River census subarea","Gulkana CDP, AK","99999","Gakona, AK","Copper River School District",102,1 
"02","02261","17350","30500","99588","99999","00070","2500-9999","Less than 200","AK","Valdez-Cordova Census Area AK","Copper River census subarea","Gulkana CDP, AK","99999","Glennallen, AK","Copper River School District",17,1 
"02","02261","17350","38910","99573","99999","00070","2500-9999","200-999","AK","Valdez-Cordova Census Area AK","Copper River census subarea","Kenny Lake CDP, AK","99999","Kenny Lake, AK","Copper River School District",355,1 
"02","02261","17350","45790","99566","99999","00070","2500-9999","Less than 200","AK","Valdez-Cordova Census Area AK","Copper River census subarea","McCarthy CDP, AK","99999","Chitina, AK","Copper River School District",28,1 
"02","02261","17350","48200","99588","99999","00070","2500-9999","Less than 200","AK","Valdez-Cordova Census Area AK","Copper River census subarea","Mendeltna CDP, AK","99999","Glennallen, AK","Copper River School District",39,1 
"02","02261","17350","48540","99586","99999","00050","2500-9999","Less than 200","AK","Valdez-Cordova Census Area AK","Copper River census subarea","Mentasta Lake CDP, AK","99999","Gakona, AK","Alaska Gateway School District",14,1 
"02","02261","17350","48540","99780","99999","00050","2500-9999","Less than 200","AK","Valdez-Cordova Census Area AK","Copper River census subarea","Mentasta Lake CDP, AK","99999","Tok, AK","Alaska Gateway School District",98,1 
"02","02261","17350","51960","99586","99999","00070","2500-9999","Less than 200","AK","Valdez-Cordova Census Area AK","Copper River census subarea","Nabesna CDP, AK","99999","Gakona, AK","Copper River School District",5,1 
"02","02261","17350","52915","99588","99999","00070","2500-9999","Less than 200","AK","Valdez-Cordova Census Area AK","Copper River census subarea","Nelchina CDP, AK","99999","Glennallen, AK","Copper River School District",59,1 
"02","02261","17350","59320","99737","99999","00070","2500-9999","Less than 200","AK","Valdez-Cordova Census Area AK","Copper River census subarea","Paxson CDP, AK","99999","Deltana, AK","Copper River School District",40,1 
"02","02261","17350","70320","99573","99999","00070","2500-9999","Less than 200","AK","Valdez-Cordova Census Area AK","Copper River census subarea","Silver Springs CDP, AK","99999","Kenny Lake, AK","Copper River School District",114,1 
"02","02261","17350","70930","99586","99999","00070","2500-9999","Less than 200","AK","Valdez-Cordova Census Area AK","Copper River census subarea","Slana CDP, AK","99999","Gakona, AK","Copper River School District",147,1 
"02","02261","17350","75480","99573","99999","00070","2500-9999","200-999","AK","Valdez-Cordova Census Area AK","Copper River census subarea","Tazlina CDP, AK","99999","Kenny Lake, AK","Copper River School District",31,1 
"02","02261","17350","75480","99588","99999","00070","2500-9999","200-999","AK","Valdez-Cordova Census Area AK","Copper River census subarea","Tazlina CDP, AK","99999","Glennallen, AK","Copper River School District",266,1 
"02","02261","17350","78297","99588","99999","00070","2500-9999","Less than 200","AK","Valdez-Cordova Census Area AK","Copper River census subarea","Tolsona CDP, AK","99999","Glennallen, AK","Copper River School District",30,1 
"02","02261","17350","78350","99573","99999","00070","2500-9999","Less than 200","AK","Valdez-Cordova Census Area AK","Copper River census subarea","Tonsina CDP, AK","99999","Kenny Lake, AK","Copper River School District",78,1 
"02","02261","17350","85290","99573","99999","00070","2500-9999","Less than 200","AK","Valdez-Cordova Census Area AK","Copper River census subarea","Willow Creek CDP, AK","99999","Kenny Lake, AK","Copper River School District",191,1 
"02","02261","17350","99999","99566","99999","00070","2500-9999","Not in a place","AK","Valdez-Cordova Census Area AK","Copper River census subarea"," ","99999","Chitina, AK","Copper River School District",38,1 
"02","02261","17350","99999","99573","99999","00070","2500-9999","Not in a place","AK","Valdez-Cordova Census Area AK","Copper River census subarea"," ","99999","Kenny Lake, AK","Copper River School District",18,1 
"02","02261","17350","99999","99586","99999","00050","2500-9999","Not in a place","AK","Valdez-Cordova Census Area AK","Copper River census subarea"," ","99999","Gakona, AK","Alaska Gateway School District",14,1 
"02","02261","17350","99999","99586","99999","00070","2500-9999","Not in a place","AK","Valdez-Cordova Census Area AK","Copper River census subarea"," ","99999","Gakona, AK","Copper River School District",12,1 
"02","02261","17350","99999","99686","99999","00070","2500-9999","Not in a place","AK","Valdez-Cordova Census Area AK","Copper River census subarea"," ","99999","Valdez, AK","Copper River School District",5,1 
"02","02261","17350","99999","99737","99999","00070","2500-9999","Not in a place","AK","Valdez-Cordova Census Area AK","Copper River census subarea"," ","99999","Deltana, AK","Copper River School District",3,1 
"02","02270","82700","01200","99554","99999","00003","2500-9999","200-999","AK","Wade Hampton Census Area AK (D)","Wade Hampton census subarea","Alakanuk city, AK","99999","Alakanuk, AK","Lower Yukon School District",677,1 
"02","02270","82700","13230","99563","99999","00005","2500-9999","200-999","AK","Wade Hampton Census Area AK (D)","Wade Hampton census subarea","Chevak city, AK","99999","Chevak, AK","Kashunamiut School District",938,1 
"02","02270","82700","22910","99581","99999","00003","2500-9999","200-999","AK","Wade Hampton Census Area AK (D)","Wade Hampton census subarea","Emmonak city, AK","99999","Emmonak, AK","Lower Yukon School District",762,1 
"02","02270","82700","33470","99604","99999","00003","2500-9999","1000-2499","AK","Wade Hampton Census Area AK (D)","Wade Hampton census subarea","Hooper Bay city, AK","99999","Hooper Bay, AK","Lower Yukon School District",1093,1 
"02","02270","82700","41720","99620","99999","00003","2500-9999","200-999","AK","Wade Hampton Census Area AK (D)","Wade Hampton census subarea","Kotlik city, AK","99999","Kotlik, AK","Lower Yukon School District",577,1 
"02","02270","82700","47000","99585","99999","00003","2500-9999","200-999","AK","Wade Hampton Census Area AK (D)","Wade Hampton census subarea","Marshall city, AK","99999","Marshall, AK","Lower Yukon School District",414,1 
"02","02270","82700","51180","99632","99999","00003","2500-9999","200-999","AK","Wade Hampton Census Area AK (D)","Wade Hampton census subarea","Mountain Village city, AK","99999","Mountain Village, AK","Lower Yukon School District",813,1 
"02","02270","82700","56600","99666","99999","00003","2500-9999","Less than 200","AK","Wade Hampton Census Area AK (D)","Wade Hampton census subarea","Nunam Iqua city, AK","99999","Nunam Iqua, AK","Lower Yukon School District",187,1 
"02","02270","82700","60750","99650","99999","00003","2500-9999","200-999","AK","Wade Hampton Census Area AK (D)","Wade Hampton census subarea","Pilot Station city, AK","99999","Pilot Station, AK","Lower Yukon School District",568,1 
"02","02270","82700","60860","99658","99999","00003","2500-9999","Less than 200","AK","Wade Hampton Census Area AK (D)","Wade Hampton census subarea","Pitkas Point CDP, AK","99999","St. Marys, AK","Lower Yukon School District",109,1 
"02","02270","82700","65700","99657","99999","00003","2500-9999","200-999","AK","Wade Hampton Census Area AK (D)","Wade Hampton census subarea","Russian Mission city, AK","99999","Russian Mission, AK","Lower Yukon School District",312,1 
"02","02270","82700","66140","99658","99999","00680","2500-9999","200-999","AK","Wade Hampton Census Area AK (D)","Wade Hampton census subarea","St. Marys city, AK","99999","St. Marys, AK","St. Marys City School District",507,1 
"02","02270","82700","67680","99662","99999","00003","2500-9999","200-999","AK","Wade Hampton Census Area AK (D)","Wade Hampton census subarea","Scammon Bay city, AK","99999","Scammon Bay, AK","Lower Yukon School District",474,1 
"02","02270","82700","99999","99585","99999","00003","2500-9999","Not in a place","AK","Wade Hampton Census Area AK (D)","Wade Hampton census subarea"," ","99999","Marshall, AK","Lower Yukon School District",3,1 
"02","02270","82700","99999","99657","99999","00003","2500-9999","Not in a place","AK","Wade Hampton Census Area AK (D)","Wade Hampton census subarea"," ","99999","Russian Mission, AK","Lower Yukon School District",17,1 
"02","02270","82700","99999","99662","99999","00003","2500-9999","Not in a place","AK","Wade Hampton Census Area AK (D)","Wade Hampton census subarea"," ","99999","Scammon Bay, AK","Lower Yukon School District",6,1 
"02","02270","82700","99999","99666","99999","00003","2500-9999","Not in a place","AK","Wade Hampton Census Area AK (D)","Wade Hampton census subarea"," ","99999","Nunam Iqua, AK","Lower Yukon School District",2,1 
"02","02275","86420","86380","99903","99999","00810","1000-2499","1000-2499","AK","Wrangell City and Borough","Wrangell census subarea","Wrangell city and borough, AK","99999","Wrangell city and, AK","Wrangell City School District",31,1 
"02","02275","86420","86380","99929","99999","00810","1000-2499","1000-2499","AK","Wrangell City and Borough","Wrangell census subarea","Wrangell city and borough, AK","99999","Wrangell city and, AK","Wrangell City School District",2338,1 
"02","02282","86498","86490","99689","99999","00840","200-999","200-999","AK","Yakutat Borough","Yakutat census subarea","Yakutat CDP, AK","99999","Yakutat, AK","Yakutat City School District",662,1 
"02","02290","42080","01305","99720","99999","00862","2500-9999","Less than 200","AK","Yukon-Koyukuk Census Area AK","Koyukuk-Middle Yukon census subarea","Alatna CDP, AK","99999","Allakaket, AK","Yukon-Koyukuk School District",37,1 
"02","02290","42080","01860","99720","99999","00862","2500-9999","Less than 200","AK","Yukon-Koyukuk Census Area AK","Koyukuk-Middle Yukon census subarea","Allakaket city, AK","99999","Allakaket, AK","Yukon-Koyukuk School District",105,1 
"02","02290","42080","06630","99726","99999","00862","2500-9999","Less than 200","AK","Yukon-Koyukuk Census Area AK","Koyukuk-Middle Yukon census subarea","Bettles city, AK","99999","Evansville, AK","Yukon-Koyukuk School District",12,1 
"02","02290","42080","16630","99701","99999","00862","2500-9999","Less than 200","AK","Yukon-Koyukuk Census Area AK","Koyukuk-Middle Yukon census subarea","Coldfoot CDP, AK","99999","Fairbanks, AK","Yukon-Koyukuk School District",10,1 
"02","02290","42080","23790","99726","99999","00862","2500-9999","Less than 200","AK","Yukon-Koyukuk Census Area AK","Koyukuk-Middle Yukon census subarea","Evansville CDP, AK","99999","Evansville, AK","Yukon-Koyukuk School District",15,1 
"02","02290","42080","26835","99760","99999","00862","2500-9999","Less than 200","AK","Yukon-Koyukuk Census Area AK","Koyukuk-Middle Yukon census subarea","Four Mile Road CDP, AK","99999","Nenana, AK","Yukon-Koyukuk School District",43,1 
"02","02290","42080","27530","99741","99999","00130","2500-9999","200-999","AK","Yukon-Koyukuk Census Area AK","Koyukuk-Middle Yukon census subarea","Galena city, AK","99999","Galena, AK","Galena City School District",470,1 
"02","02290","42080","33910","99745","99999","00862","2500-9999","Less than 200","AK","Yukon-Koyukuk Census Area AK","Koyukuk-Middle Yukon census subarea","Hughes city, AK","99999","Hughes, AK","Yukon-Koyukuk School District",77,1 
"02","02290","42080","34350","99746","99999","00862","2500-9999","200-999","AK","Yukon-Koyukuk Census Area AK","Koyukuk-Middle Yukon census subarea","Huslia city, AK","99999","Huslia, AK","Yukon-Koyukuk School District",275,1 
"02","02290","42080","37430","99748","99999","00862","2500-9999","Less than 200","AK","Yukon-Koyukuk Census Area AK","Koyukuk-Middle Yukon census subarea","Kaltag city, AK","99999","Kaltag, AK","Yukon-Koyukuk School District",190,1 
"02","02290","42080","42050","99754","99999","00862","2500-9999","Less than 200","AK","Yukon-Koyukuk Census Area AK","Koyukuk-Middle Yukon census subarea","Koyukuk city, AK","99999","Koyukuk, AK","Yukon-Koyukuk School District",96,1 
"02","02290","42080","44580","99790","99999","00775","2500-9999","Less than 200","AK","Yukon-Koyukuk Census Area AK","Koyukuk-Middle Yukon census subarea","Livengood CDP, AK","99999","Livengood, AK","Yukon Flats School District",13,1 
"02","02290","42080","46780","99756","99999","00862","2500-9999","Less than 200","AK","Yukon-Koyukuk Census Area AK","Koyukuk-Middle Yukon census subarea","Manley Hot Springs CDP, AK","99999","Manley Hot Springs, AK","Yukon-Koyukuk School District",89,1 
"02","02290","42080","49530","99758","99999","00862","2500-9999","200-999","AK","Yukon-Koyukuk Census Area AK","Koyukuk-Middle Yukon census subarea","Minto CDP, AK","99999","Minto, AK","Yukon-Koyukuk School District",210,1 
"02","02290","42080","53050","99760","99999","00540","2500-9999","200-999","AK","Yukon-Koyukuk Census Area AK","Koyukuk-Middle Yukon census subarea","Nenana city, AK","99999","Nenana, AK","Nenana City School District",378,1 
"02","02290","42080","53162","99720","99999","00862","2500-9999","Less than 200","AK","Yukon-Koyukuk Census Area AK","Koyukuk-Middle Yukon census subarea","New Allakaket CDP, AK","99999","Allakaket, AK","Yukon-Koyukuk School District",66,1 
"02","02290","42080","56350","99765","99999","00862","2500-9999","200-999","AK","Yukon-Koyukuk Census Area AK","Koyukuk-Middle Yukon census subarea","Nulato city, AK","99999","Nulato, AK","Yukon-Koyukuk School District",264,1 
"02","02290","42080","64820","99767","99999","00775","2500-9999","Less than 200","AK","Yukon-Koyukuk Census Area AK","Koyukuk-Middle Yukon census subarea","Rampart CDP, AK","99999","Rampart, AK","Yukon Flats School District",24,1 
"02","02290","42080","65590","99768","99999","00862","2500-9999","Less than 200","AK","Yukon-Koyukuk Census Area AK","Koyukuk-Middle Yukon census subarea","Ruby city, AK","99999","Ruby, AK","Yukon-Koyukuk School District",166,1 
"02","02290","42080","73290","99774","99999","00775","2500-9999","Less than 200","AK","Yukon-Koyukuk Census Area AK","Koyukuk-Middle Yukon census subarea","Stevens Village CDP, AK","99999","Stevens Village, AK","Yukon Flats School District",78,1 
"02","02290","42080","75160","99777","99999","00715","2500-9999","200-999","AK","Yukon-Koyukuk Census Area AK","Koyukuk-Middle Yukon census subarea","Tanana city, AK","99999","Tanana, AK","Tanana School District",246,1 
"02","02290","42080","85610","99701","99999","00862","2500-9999","Less than 200","AK","Yukon-Koyukuk Census Area AK","Koyukuk-Middle Yukon census subarea","Wiseman CDP, AK","99999","Fairbanks, AK","Yukon-Koyukuk School District",14,1 
"02","02290","42080","99999","99701","99999","00775","2500-9999","Not in a place","AK","Yukon-Koyukuk Census Area AK","Koyukuk-Middle Yukon census subarea"," ","99999","Fairbanks, AK","Yukon Flats School District",6,1 
"02","02290","42080","99999","99701","99999","00862","2500-9999","Not in a place","AK","Yukon-Koyukuk Census Area AK","Koyukuk-Middle Yukon census subarea"," ","99999","Fairbanks, AK","Yukon-Koyukuk School District",17,1 
"02","02290","42080","99999","99726","99999","00862","2500-9999","Not in a place","AK","Yukon-Koyukuk Census Area AK","Koyukuk-Middle Yukon census subarea"," ","99999","Evansville, AK","Yukon-Koyukuk School District",3,1 
"02","02290","42080","99999","99730","99999","00775","2500-9999","Not in a place","AK","Yukon-Koyukuk Census Area AK","Koyukuk-Middle Yukon census subarea"," ","99999","Central, AK","Yukon Flats School District",1,1 
"02","02290","42080","99999","99745","99999","00862","2500-9999","Not in a place","AK","Yukon-Koyukuk Census Area AK","Koyukuk-Middle Yukon census subarea"," ","99999","Hughes, AK","Yukon-Koyukuk School District",1,1 
"02","02290","42080","99999","99746","99999","00862","2500-9999","Not in a place","AK","Yukon-Koyukuk Census Area AK","Koyukuk-Middle Yukon census subarea"," ","99999","Huslia, AK","Yukon-Koyukuk School District",2,1 
"02","02290","42080","99999","99756","99999","00862","2500-9999","Not in a place","AK","Yukon-Koyukuk Census Area AK","Koyukuk-Middle Yukon census subarea"," ","99999","Manley Hot Springs, AK","Yukon-Koyukuk School District",30,1 
"02","02290","42080","99999","99760","99999","00862","2500-9999","Not in a place","AK","Yukon-Koyukuk Census Area AK","Koyukuk-Middle Yukon census subarea"," ","99999","Nenana, AK","Yukon-Koyukuk School District",265,1 
"02","02290","42080","99999","99768","99999","00862","2500-9999","Not in a place","AK","Yukon-Koyukuk Census Area AK","Koyukuk-Middle Yukon census subarea"," ","99999","Ruby, AK","Yukon-Koyukuk School District",9,1 
"02","02290","42080","99999","99790","99999","00775","2500-9999","Not in a place","AK","Yukon-Koyukuk Census Area AK","Koyukuk-Middle Yukon census subarea"," ","99999","Livengood, AK","Yukon Flats School District",7,1 
"02","02290","46060","03880","99558","99999","00520","2500-9999","Less than 200","AK","Yukon-Koyukuk Census Area AK","McGrath-Holy Cross census subarea","Anvik city, AK","99999","Anvik, AK","Iditarod Area School District",85,1 
"02","02290","46060","30060","99590","99999","00520","2500-9999","Less than 200","AK","Yukon-Koyukuk Census Area AK","McGrath-Holy Cross census subarea","Grayling city, AK","99999","Grayling, AK","Iditarod Area School District",194,1 
"02","02290","46060","33030","99602","99999","00520","2500-9999","Less than 200","AK","Yukon-Koyukuk Census Area AK","McGrath-Holy Cross census subarea","Holy Cross city, AK","99999","Holy Cross, AK","Iditarod Area School District",178,1 
"02","02290","46060","42820","99757","99999","00520","2500-9999","Less than 200","AK","Yukon-Koyukuk Census Area AK","McGrath-Holy Cross census subarea","Lake Minchumina CDP, AK","99999","Lake Minchumina, AK (PO Boxes)","Iditarod Area School District",13,1 
"02","02290","46060","46010","99627","99999","00520","2500-9999","200-999","AK","Yukon-Koyukuk Census Area AK","McGrath-Holy Cross census subarea","McGrath city, AK","99999","McGrath, AK","Iditarod Area School District",346,1 
"02","02290","46060","54150","99691","99999","00520","2500-9999","Less than 200","AK","Yukon-Koyukuk Census Area AK","McGrath-Holy Cross census subarea","Nikolai city, AK","99999","Nikolai, AK","Iditarod Area School District",94,1 
"02","02290","46060","68670","99665","99999","00520","2500-9999","Less than 200","AK","Yukon-Koyukuk Census Area AK","McGrath-Holy Cross census subarea","Shageluk city, AK","99999","Shageluk, AK","Iditarod Area School District",83,1 
"02","02290","46060","74610","99627","99999","00520","2500-9999","Less than 200","AK","Yukon-Koyukuk Census Area AK","McGrath-Holy Cross census subarea","Takotna CDP, AK","99999","McGrath, AK","Iditarod Area School District",52,1 
"02","02290","46060","99999","99627","99999","00520","2500-9999","Not in a place","AK","Yukon-Koyukuk Census Area AK","McGrath-Holy Cross census subarea"," ","99999","McGrath, AK","Iditarod Area School District",8,1 
"02","02290","46060","99999","99691","99999","00520","2500-9999","Not in a place","AK","Yukon-Koyukuk Census Area AK","McGrath-Holy Cross census subarea"," ","99999","Nikolai, AK","Iditarod Area School District",1,1 
"02","02290","46060","99999","99757","99999","00520","2500-9999","Not in a place","AK","Yukon-Koyukuk Census Area AK","McGrath-Holy Cross census subarea"," ","99999","Lake Minchumina, AK (PO Boxes)","Iditarod Area School District",4,1 
"02","02290","86690","03990","99722","99999","00775","2500-9999","Less than 200","AK","Yukon-Koyukuk Census Area AK","Yukon Flats census subarea","Arctic Village CDP, AK","99999","Arctic Village, AK","Yukon Flats School District",152,1 
"02","02290","86690","05750","99724","99999","00775","2500-9999","Less than 200","AK","Yukon-Koyukuk Census Area AK","Yukon Flats census subarea","Beaver CDP, AK","99999","Beaver, AK","Yukon Flats School District",84,1 
"02","02290","86690","07620","99730","99999","00775","2500-9999","Less than 200","AK","Yukon-Koyukuk Census Area AK","Yukon Flats census subarea","Birch Creek CDP, AK","99999","Central, AK","Yukon Flats School District",33,1 
"02","02290","86690","11690","99730","99999","00775","2500-9999","Less than 200","AK","Yukon-Koyukuk Census Area AK","Yukon Flats census subarea","Central CDP, AK","99999","Central, AK","Yukon Flats School District",96,1 
"02","02290","86690","11800","99788","99999","00775","2500-9999","Less than 200","AK","Yukon-Koyukuk Census Area AK","Yukon Flats census subarea","Chalkyitsik CDP, AK","99999","Chalkyitsik, AK","Yukon Flats School District",69,1 
"02","02290","86690","14880","99733","99999","00775","2500-9999","Less than 200","AK","Yukon-Koyukuk Census Area AK","Yukon Flats census subarea","Circle CDP, AK","99999","Circle, AK","Yukon Flats School District",104,1 
"02","02290","86690","26760","99740","99999","00775","2500-9999","200-999","AK","Yukon-Koyukuk Census Area AK","Yukon Flats census subarea","Fort Yukon city, AK","99999","Fort Yukon, AK","Yukon Flats School District",583,1 
"02","02290","86690","82420","99781","99999","00775","2500-9999","Less than 200","AK","Yukon-Koyukuk Census Area AK","Yukon Flats census subarea","Venetie CDP, AK","99999","Venetie, AK","Yukon Flats School District",166,1 
"02","02290","86690","99999","99701","99999","00775","2500-9999","Not in a place","AK","Yukon-Koyukuk Census Area AK","Yukon Flats census subarea"," ","99999","Fairbanks, AK","Yukon Flats School District",7,1 
"02","02290","86690","99999","99730","99999","00775","2500-9999","Not in a place","AK","Yukon-Koyukuk Census Area AK","Yukon Flats census subarea"," ","99999","Central, AK","Yukon Flats School District",14,1 
"02","02290","86690","99999","99740","99999","00775","2500-9999","Not in a place","AK","Yukon-Koyukuk Census Area AK","Yukon Flats census subarea"," ","99999","Fort Yukon, AK","Yukon Flats School District",2,1 
"02","02290","86690","99999","99781","99999","00775","2500-9999","Not in a place","AK","Yukon-Koyukuk Census Area AK","Yukon Flats census subarea"," ","99999","Venetie, AK","Yukon Flats School District",1,1 
