"state","county","cousubfp","placefp","zcta5","metdiv10","sduni","cntysc","placesc","stab","cntyname","cousubnm","placenm","mdivname10","zipname","uschlnm10","pop10","afact"
"State code","County code","County subdivision code","Place code","ZIP census tabulation area","metdiv10","Unified school district (2010)","cntysc","placesc","State abbreviation","County name","County subdivision name","Place name","2010 Metro div name","ZCTA name","Unified school district name 2010","Total population (2010)","placesc to state allocation factor"
"09","09001","04720","04790","06801","99999","00270","250,000-999,999","2500-9999","CT","Fairfield CT","Bethel town","Bethel CDP, CT","99999","Bethel, CT","Bethel School District",9542,1 
"09","09001","04720","04790","06810","99999","00270","250,000-999,999","2500-9999","CT","Fairfield CT","Bethel town","Bethel CDP, CT","99999","Danbury, CT","Bethel School District",7,1 
"09","09001","04720","99999","06801","99999","00270","250,000-999,999","Not in a place","CT","Fairfield CT","Bethel town"," ","99999","Bethel, CT","Bethel School District",9017,1 
"09","09001","04720","99999","06810","99999","00270","250,000-999,999","Not in a place","CT","Fairfield CT","Bethel town"," ","99999","Danbury, CT","Bethel School District",18,1 
"09","09001","08070","08000","06604","99999","00450","250,000-999,999","100,000-249,999","CT","Fairfield CT","Bridgeport town","Bridgeport city, CT","99999","Bridgeport, CT","Bridgeport School District",30313,1 
"09","09001","08070","08000","06605","99999","00450","250,000-999,999","100,000-249,999","CT","Fairfield CT","Bridgeport town","Bridgeport city, CT","99999","Bridgeport, CT","Bridgeport School District",23397,1 
"09","09001","08070","08000","06606","99999","00450","250,000-999,999","100,000-249,999","CT","Fairfield CT","Bridgeport town","Bridgeport city, CT","99999","Bridgeport, CT","Bridgeport School District",46236,1 
"09","09001","08070","08000","06607","99999","00450","250,000-999,999","100,000-249,999","CT","Fairfield CT","Bridgeport town","Bridgeport city, CT","99999","Bridgeport, CT","Bridgeport School District",7843,1 
"09","09001","08070","08000","06608","99999","00450","250,000-999,999","100,000-249,999","CT","Fairfield CT","Bridgeport town","Bridgeport city, CT","99999","Bridgeport, CT","Bridgeport School District",13671,1 
"09","09001","08070","08000","06610","99999","00450","250,000-999,999","100,000-249,999","CT","Fairfield CT","Bridgeport town","Bridgeport city, CT","99999","Bridgeport, CT","Bridgeport School District",22735,1 
"09","09001","08070","08000","06611","99999","00450","250,000-999,999","100,000-249,999","CT","Fairfield CT","Bridgeport town","Bridgeport city, CT","99999","Trumbull, CT","Bridgeport School District",34,1 
"09","09001","08980","99999","06801","99999","00540","250,000-999,999","Not in a place","CT","Fairfield CT","Brookfield town"," ","99999","Bethel, CT","Brookfield School District",22,1 
"09","09001","08980","99999","06804","99999","00540","250,000-999,999","Not in a place","CT","Fairfield CT","Brookfield town"," ","99999","Brookfield, CT","Brookfield School District",16430,1 
"09","09001","18500","18430","06804","99999","01020","250,000-999,999","25,000-99,999","CT","Fairfield CT","Danbury town","Danbury city, CT","99999","Brookfield, CT","Danbury School District",36,1 
"09","09001","18500","18430","06810","99999","01020","250,000-999,999","25,000-99,999","CT","Fairfield CT","Danbury town","Danbury city, CT","99999","Danbury, CT","Danbury School District",49457,1 
"09","09001","18500","18430","06811","99999","01020","250,000-999,999","25,000-99,999","CT","Fairfield CT","Danbury town","Danbury city, CT","99999","Danbury, CT","Danbury School District",31400,1 
"09","09001","18850","18920","06820","99999","01050","250,000-999,999","10,000-24,999","CT","Fairfield CT","Darien town","Darien CDP, CT","99999","Darien, CT","Darien School District",20732,1 
"09","09001","23890","99999","06611","99999"," ","250,000-999,999","Not in a place","CT","Fairfield CT","Easton town"," ","99999","Trumbull, CT","09",37,1 
"09","09001","23890","99999","06612","99999"," ","250,000-999,999","Not in a place","CT","Fairfield CT","Easton town"," ","99999","Easton, CT","09",7453,1 
"09","09001","26620","71040","06890","99999","01530","250,000-999,999","1000-2499","CT","Fairfield CT","Fairfield town","Southport CDP, CT","99999","Southport, CT","Fairfield School District",1585,1 
"09","09001","26620","99999","06824","99999","01530","250,000-999,999","Not in a place","CT","Fairfield CT","Fairfield town"," ","99999","Fairfield, CT","Fairfield School District",33900,1 
"09","09001","26620","99999","06825","99999","01530","250,000-999,999","Not in a place","CT","Fairfield CT","Fairfield town"," ","99999","Fairfield, CT","Fairfield School District",21123,1 
"09","09001","26620","99999","06880","99999","01530","250,000-999,999","Not in a place","CT","Fairfield CT","Fairfield town"," ","99999","Westport, CT","Fairfield School District",75,1 
"09","09001","26620","99999","06890","99999","01530","250,000-999,999","Not in a place","CT","Fairfield CT","Fairfield town"," ","99999","Southport, CT","Fairfield School District",2721,1 
"09","09001","33620","10660","06830","99999","01710","250,000-999,999","2500-9999","CT","Fairfield CT","Greenwich town","Byram CDP, CT","99999","Greenwich, CT","Greenwich School District",4146,1 
"09","09001","33620","17520","06807","99999","01710","250,000-999,999","2500-9999","CT","Fairfield CT","Greenwich town","Cos Cob CDP, CT","99999","Cos Cob, CT","Greenwich School District",6160,1 
"09","09001","33620","17520","06830","99999","01710","250,000-999,999","2500-9999","CT","Fairfield CT","Greenwich town","Cos Cob CDP, CT","99999","Greenwich, CT","Greenwich School District",610,1 
"09","09001","33620","31520","06831","99999","01710","250,000-999,999","1000-2499","CT","Fairfield CT","Greenwich town","Glenville CDP, CT","99999","Greenwich, CT","Greenwich School District",2327,1 
"09","09001","33620","33690","06830","99999","01710","250,000-999,999","10,000-24,999","CT","Fairfield CT","Greenwich town","Greenwich CDP, CT","99999","Greenwich, CT","Greenwich School District",12261,1 
"09","09001","33620","33690","06831","99999","01710","250,000-999,999","10,000-24,999","CT","Fairfield CT","Greenwich town","Greenwich CDP, CT","99999","Greenwich, CT","Greenwich School District",681,1 
"09","09001","33620","56900","06870","99999","01710","250,000-999,999","2500-9999","CT","Fairfield CT","Greenwich town","Old Greenwich CDP, CT","99999","Old Greenwich, CT","Greenwich School District",6517,1 
"09","09001","33620","56900","06878","99999","01710","250,000-999,999","2500-9999","CT","Fairfield CT","Greenwich town","Old Greenwich CDP, CT","99999","Riverside, CT","Greenwich School District",60,1 
"09","09001","33620","56900","06902","99999","01710","250,000-999,999","2500-9999","CT","Fairfield CT","Greenwich town","Old Greenwich CDP, CT","99999","Stamford, CT","Greenwich School District",34,1 
"09","09001","33620","59210","06831","99999","01710","250,000-999,999","2500-9999","CT","Fairfield CT","Greenwich town","Pemberwick CDP, CT","99999","Greenwich, CT","Greenwich School District",3680,1 
"09","09001","33620","64530","06870","99999","01710","250,000-999,999","2500-9999","CT","Fairfield CT","Greenwich town","Riverside CDP, CT","99999","Old Greenwich, CT","Greenwich School District",433,1 
"09","09001","33620","64530","06878","99999","01710","250,000-999,999","2500-9999","CT","Fairfield CT","Greenwich town","Riverside CDP, CT","99999","Riverside, CT","Greenwich School District",7983,1 
"09","09001","33620","99999","06807","99999","01710","250,000-999,999","Not in a place","CT","Fairfield CT","Greenwich town"," ","99999","Cos Cob, CT","Greenwich School District",990,1 
"09","09001","33620","99999","06830","99999","01710","250,000-999,999","Not in a place","CT","Fairfield CT","Greenwich town"," ","99999","Greenwich, CT","Greenwich School District",7010,1 
"09","09001","33620","99999","06831","99999","01710","250,000-999,999","Not in a place","CT","Fairfield CT","Greenwich town"," ","99999","Greenwich, CT","Greenwich School District",7913,1 
"09","09001","33620","99999","06870","99999","01710","250,000-999,999","Not in a place","CT","Fairfield CT","Greenwich town"," ","99999","Old Greenwich, CT","Greenwich School District",366,1 
"09","09001","48620","99999","06468","99999","02550","250,000-999,999","Not in a place","CT","Fairfield CT","Monroe town"," ","99999","Monroe, CT","Monroe School District",19479,1 
"09","09001","50580","99999","06840","99999","02700","250,000-999,999","Not in a place","CT","Fairfield CT","New Canaan town"," ","99999","New Canaan, CT","New Canaan School District",19738,1 
"09","09001","50860","99999","06812","99999","02730","250,000-999,999","Not in a place","CT","Fairfield CT","New Fairfield town"," ","99999","New Fairfield, CT","New Fairfield School District",13881,1 
"09","09001","52980","52910","06470","99999","02910","250,000-999,999","1000-2499","CT","Fairfield CT","Newtown town","Newtown borough, CT","99999","Newtown, CT","Newtown School District",1941,1 
"09","09001","52980","99999","06470","99999","02910","250,000-999,999","Not in a place","CT","Fairfield CT","Newtown town"," ","99999","Newtown, CT","Newtown School District",14062,1 
"09","09001","52980","99999","06482","99999","02910","250,000-999,999","Not in a place","CT","Fairfield CT","Newtown town"," ","99999","Sandy Hook, CT","Newtown School District",11557,1 
"09","09001","56060","55990","06850","99999","03090","250,000-999,999","25,000-99,999","CT","Fairfield CT","Norwalk town","Norwalk city, CT","99999","Norwalk, CT","Norwalk School District",18078,1 
"09","09001","56060","55990","06851","99999","03090","250,000-999,999","25,000-99,999","CT","Fairfield CT","Norwalk town","Norwalk city, CT","99999","Norwalk, CT","Norwalk School District",26703,1 
"09","09001","56060","55990","06853","99999","03090","250,000-999,999","25,000-99,999","CT","Fairfield CT","Norwalk town","Norwalk city, CT","99999","Norwalk, CT","Norwalk School District",3646,1 
"09","09001","56060","55990","06854","99999","03090","250,000-999,999","25,000-99,999","CT","Fairfield CT","Norwalk town","Norwalk city, CT","99999","Norwalk, CT","Norwalk School District",29100,1 
"09","09001","56060","55990","06855","99999","03090","250,000-999,999","25,000-99,999","CT","Fairfield CT","Norwalk town","Norwalk city, CT","99999","Norwalk, CT","Norwalk School District",7892,1 
"09","09001","56060","55990","06856","99999","03090","250,000-999,999","25,000-99,999","CT","Fairfield CT","Norwalk town","Norwalk city, CT","99999","Norwalk, CT","Norwalk School District",3,1 
"09","09001","56060","55990","06880","99999","03090","250,000-999,999","25,000-99,999","CT","Fairfield CT","Norwalk town","Norwalk city, CT","99999","Westport, CT","Norwalk School District",181,1 
"09","09001","63480","30540","06896","99999"," ","250,000-999,999","1000-2499","CT","Fairfield CT","Redding town","Georgetown CDP, CT","99999","Redding, CT","09",384,1 
"09","09001","63480","30540","06897","99999"," ","250,000-999,999","1000-2499","CT","Fairfield CT","Redding town","Georgetown CDP, CT","99999","Wilton, CT","09",9,1 
"09","09001","63480","99999","06877","99999"," ","250,000-999,999","Not in a place","CT","Fairfield CT","Redding town"," ","99999","Ridgefield, CT","09",39,1 
"09","09001","63480","99999","06896","99999"," ","250,000-999,999","Not in a place","CT","Fairfield CT","Redding town"," ","99999","Redding, CT","09",8726,1 
"09","09001","63970","63900","06877","99999","03810","250,000-999,999","2500-9999","CT","Fairfield CT","Ridgefield town","Ridgefield CDP, CT","99999","Ridgefield, CT","Ridgefield School District",7645,1 
"09","09001","63970","99999","06877","99999","03810","250,000-999,999","Not in a place","CT","Fairfield CT","Ridgefield town"," ","99999","Ridgefield, CT","Ridgefield School District",16993,1 
"09","09001","68170","68100","06484","99999","04050","250,000-999,999","25,000-99,999","CT","Fairfield CT","Shelton town","Shelton city, CT","99999","Shelton, CT","Shelton School District",39559,1 
"09","09001","68310","99999","06776","99999"," ","250,000-999,999","Not in a place","CT","Fairfield CT","Sherman town"," ","99999","New Milford, CT","09",4,1 
"09","09001","68310","99999","06784","99999"," ","250,000-999,999","Not in a place","CT","Fairfield CT","Sherman town"," ","99999","Sherman, CT","09",3577,1 
"09","09001","73070","73000","06831","99999","04320","250,000-999,999","100,000-249,999","CT","Fairfield CT","Stamford town","Stamford city, CT","99999","Greenwich, CT","Stamford School District",191,1 
"09","09001","73070","73000","06901","99999","04320","250,000-999,999","100,000-249,999","CT","Fairfield CT","Stamford town","Stamford city, CT","99999","Stamford, CT","Stamford School District",6828,1 
"09","09001","73070","73000","06902","99999","04320","250,000-999,999","100,000-249,999","CT","Fairfield CT","Stamford town","Stamford city, CT","99999","Stamford, CT","Stamford School District",63372,1 
"09","09001","73070","73000","06903","99999","04320","250,000-999,999","100,000-249,999","CT","Fairfield CT","Stamford town","Stamford city, CT","99999","Stamford, CT","Stamford School District",14499,1 
"09","09001","73070","73000","06905","99999","04320","250,000-999,999","100,000-249,999","CT","Fairfield CT","Stamford town","Stamford city, CT","99999","Stamford, CT","Stamford School District",19649,1 
"09","09001","73070","73000","06906","99999","04320","250,000-999,999","100,000-249,999","CT","Fairfield CT","Stamford town","Stamford city, CT","99999","Stamford, CT","Stamford School District",9088,1 
"09","09001","73070","73000","06907","99999","04320","250,000-999,999","100,000-249,999","CT","Fairfield CT","Stamford town","Stamford city, CT","99999","Stamford, CT","Stamford School District",9016,1 
"09","09001","74190","74260","06611","99999","04440","250,000-999,999","25,000-99,999","CT","Fairfield CT","Stratford town","Stratford CDP, CT","99999","Trumbull, CT","Stratford School District",2,1 
"09","09001","74190","74260","06614","99999","04440","250,000-999,999","25,000-99,999","CT","Fairfield CT","Stratford town","Stratford CDP, CT","99999","Stratford, CT","Stratford School District",32929,1 
"09","09001","74190","74260","06615","99999","04440","250,000-999,999","25,000-99,999","CT","Fairfield CT","Stratford town","Stratford CDP, CT","99999","Stratford, CT","Stratford School District",18453,1 
"09","09001","77200","77270","06611","99999","04620","250,000-999,999","25,000-99,999","CT","Fairfield CT","Trumbull town","Trumbull CDP, CT","99999","Trumbull, CT","Trumbull School District",36018,1 
"09","09001","83430","30540","06883","99999","05010","250,000-999,999","1000-2499","CT","Fairfield CT","Weston town","Georgetown CDP, CT","99999","Weston, CT","Weston School District",151,1 
"09","09001","83430","99999","06883","99999","05010","250,000-999,999","Not in a place","CT","Fairfield CT","Weston town"," ","99999","Weston, CT","Weston School District",10028,1 
"09","09001","83500","83570","06880","99999","05040","250,000-999,999","25,000-99,999","CT","Fairfield CT","Westport town","Westport CDP, CT","99999","Westport, CT","Westport School District",26391,1 
"09","09001","86370","11990","06897","99999","05130","250,000-999,999","Less than 200","CT","Fairfield CT","Wilton town","Cannondale CDP, CT","99999","Wilton, CT","Wilton School District",141,1 
"09","09001","86370","30540","06897","99999","05130","250,000-999,999","1000-2499","CT","Fairfield CT","Wilton town","Georgetown CDP, CT","99999","Wilton, CT","Wilton School District",1261,1 
"09","09001","86370","86380","06897","99999","05130","250,000-999,999","200-999","CT","Fairfield CT","Wilton town","Wilton Center CDP, CT","99999","Wilton, CT","Wilton School District",732,1 
"09","09001","86370","99999","06897","99999","05130","250,000-999,999","Not in a place","CT","Fairfield CT","Wilton town"," ","99999","Wilton, CT","Wilton School District",15928,1 
"09","09003","02060","99999","06001","99999","00120","250,000-999,999","Not in a place","CT","Hartford CT","Avon town"," ","99999","Avon, CT","Avon School District",18081,1 
"09","09003","02060","99999","06085","99999","00120","250,000-999,999","Not in a place","CT","Hartford CT","Avon town"," ","99999","Unionville, CT","Avon School District",17,1 
"09","09003","04300","40150","06037","99999","00210","250,000-999,999","2500-9999","CT","Hartford CT","Berlin town","Kensington CDP, CT","99999","Berlin, CT","Berlin School District",8459,1 
"09","09003","04300","99999","06023","99999","00210","250,000-999,999","Not in a place","CT","Hartford CT","Berlin town"," ","99999","East Berlin, CT","Berlin School District",1296,1 
"09","09003","04300","99999","06037","99999","00210","250,000-999,999","Not in a place","CT","Hartford CT","Berlin town"," ","99999","Berlin, CT","Berlin School District",10106,1 
"09","09003","04300","99999","06052","99999","00210","250,000-999,999","Not in a place","CT","Hartford CT","Berlin town"," ","99999","New Britain, CT","Berlin School District",5,1 
"09","09003","05910","06050","06002","99999","00330","250,000-999,999","2500-9999","CT","Hartford CT","Bloomfield town","Blue Hills CDP, CT","99999","Bloomfield, CT","Bloomfield School District",2901,1 
"09","09003","05910","99999","06002","99999","00330","250,000-999,999","Not in a place","CT","Hartford CT","Bloomfield town"," ","99999","Bloomfield, CT","Bloomfield School District",17585,1 
"09","09003","08490","08420","06010","99999","00510","250,000-999,999","25,000-99,999","CT","Hartford CT","Bristol town","Bristol city, CT","99999","Bristol, CT","Bristol School District",60448,1 
"09","09003","08490","08420","06013","99999","00510","250,000-999,999","25,000-99,999","CT","Hartford CT","Bristol town","Bristol city, CT","99999","Burlington, CT","Bristol School District",25,1 
"09","09003","08490","08420","06062","99999","00510","250,000-999,999","25,000-99,999","CT","Hartford CT","Bristol town","Bristol city, CT","99999","Plainville, CT","Bristol School District",4,1 
"09","09003","10100","99999","06013","99999","03520","250,000-999,999","Not in a place","CT","Hartford CT","Burlington town"," ","99999","Burlington, CT","Regional School District 10",9301,1 
"09","09003","12270","12370","06019","99999","00690","250,000-999,999","1000-2499","CT","Hartford CT","Canton town","Canton Valley CDP, CT","99999","Canton, CT","Canton School District",1580,1 
"09","09003","12270","16120","06019","99999","00690","250,000-999,999","2500-9999","CT","Hartford CT","Canton town","Collinsville CDP, CT","99999","Canton, CT","Canton School District",3746,1 
"09","09003","12270","99999","06019","99999","00690","250,000-999,999","Not in a place","CT","Hartford CT","Canton town"," ","99999","Canton, CT","Canton School District",4803,1 
"09","09003","12270","99999","06022","99999","00690","250,000-999,999","Not in a place","CT","Hartford CT","Canton town"," ","99999","Collinsville, CT (PO Boxes)","Canton School District",163,1 
"09","09003","22070","99999","06026","99999","01170","250,000-999,999","Not in a place","CT","Hartford CT","East Granby town"," ","99999","East Granby, CT","East Granby School District",5117,1 
"09","09003","22070","99999","06035","99999","01170","250,000-999,999","Not in a place","CT","Hartford CT","East Granby town"," ","99999","Granby, CT","East Granby School District",31,1 
"09","09003","22630","22700","06042","99999","01260","250,000-999,999","25,000-99,999","CT","Hartford CT","East Hartford town","East Hartford CDP, CT","99999","Manchester, CT","East Hartford School District",3,1 
"09","09003","22630","22700","06108","99999","01260","250,000-999,999","25,000-99,999","CT","Hartford CT","East Hartford town","East Hartford CDP, CT","99999","East Hartford, CT","East Hartford School District",24307,1 
"09","09003","22630","22700","06118","99999","01260","250,000-999,999","25,000-99,999","CT","Hartford CT","East Hartford town","East Hartford CDP, CT","99999","East Hartford, CT","East Hartford School District",26942,1 
"09","09003","24800","08770","06016","99999","01350","250,000-999,999","2500-9999","CT","Hartford CT","East Windsor town","Broad Brook CDP, CT","99999","Broad Brook, CT","East Windsor School District",4069,1 
"09","09003","24800","99999","06016","99999","01350","250,000-999,999","Not in a place","CT","Hartford CT","East Windsor town"," ","99999","Broad Brook, CT","East Windsor School District",2157,1 
"09","09003","24800","99999","06088","99999","01350","250,000-999,999","Not in a place","CT","Hartford CT","East Windsor town"," ","99999","East Windsor, CT","East Windsor School District",4936,1 
"09","09003","25990","37770","06082","99999","01470","250,000-999,999","2500-9999","CT","Hartford CT","Enfield town","Hazardville CDP, CT","99999","Enfield, CT","Enfield School District",4599,1 
"09","09003","25990","68450","06082","99999","01470","250,000-999,999","2500-9999","CT","Hartford CT","Enfield town","Sherwood Manor CDP, CT","99999","Enfield, CT","Enfield School District",5410,1 
"09","09003","25990","71460","06082","99999","01470","250,000-999,999","2500-9999","CT","Hartford CT","Enfield town","Southwood Acres CDP, CT","99999","Enfield, CT","Enfield School District",7657,1 
"09","09003","25990","75940","06082","99999","01470","250,000-999,999","2500-9999","CT","Hartford CT","Enfield town","Thompsonville CDP, CT","99999","Enfield, CT","Enfield School District",8577,1 
"09","09003","25990","99999","06082","99999","01470","250,000-999,999","Not in a place","CT","Hartford CT","Enfield town"," ","99999","Enfield, CT","Enfield School District",18411,1 
"09","09003","27600","99999","06001","99999","01560","250,000-999,999","Not in a place","CT","Hartford CT","Farmington town"," ","99999","Avon, CT","Farmington School District",294,1 
"09","09003","27600","99999","06032","99999","01560","250,000-999,999","Not in a place","CT","Hartford CT","Farmington town"," ","99999","Farmington, CT","Farmington School District",17675,1 
"09","09003","27600","99999","06053","99999","01560","250,000-999,999","Not in a place","CT","Hartford CT","Farmington town"," ","99999","New Britain, CT","Farmington School District",24,1 
"09","09003","27600","99999","06085","99999","01560","250,000-999,999","Not in a place","CT","Hartford CT","Farmington town"," ","99999","Unionville, CT","Farmington School District",7259,1 
"09","09003","27600","99999","06107","99999","01560","250,000-999,999","Not in a place","CT","Hartford CT","Farmington town"," ","99999","West Hartford, CT","Farmington School District",88,1 
"09","09003","31240","31270","06033","99999","01620","250,000-999,999","2500-9999","CT","Hartford CT","Glastonbury town","Glastonbury Center CDP, CT","99999","Glastonbury, CT","Glastonbury School District",7387,1 
"09","09003","31240","99999","06033","99999","01620","250,000-999,999","Not in a place","CT","Hartford CT","Glastonbury town"," ","99999","Glastonbury, CT","Glastonbury School District",21375,1 
"09","09003","31240","99999","06073","99999","01620","250,000-999,999","Not in a place","CT","Hartford CT","Glastonbury town"," ","99999","South Glastonbury, CT","Glastonbury School District",5651,1 
"09","09003","31240","99999","06118","99999","01620","250,000-999,999","Not in a place","CT","Hartford CT","Glastonbury town"," ","99999","East Hartford, CT","Glastonbury School District",14,1 
"09","09003","32640","54660","06060","99999","01680","250,000-999,999","1000-2499","CT","Hartford CT","Granby town","North Granby CDP, CT","99999","North Granby, CT","Granby School District",1944,1 
"09","09003","32640","66455","06035","99999","01680","250,000-999,999","1000-2499","CT","Hartford CT","Granby town","Salmon Brook CDP, CT","99999","Granby, CT","Granby School District",2324,1 
"09","09003","32640","99999","06035","99999","01680","250,000-999,999","Not in a place","CT","Hartford CT","Granby town"," ","99999","Granby, CT","Granby School District",5158,1 
"09","09003","32640","99999","06060","99999","01680","250,000-999,999","Not in a place","CT","Hartford CT","Granby town"," ","99999","North Granby, CT","Granby School District",624,1 
"09","09003","32640","99999","06090","99999","01680","250,000-999,999","Not in a place","CT","Hartford CT","Granby town"," ","99999","West Granby, CT","Granby School District",1232,1 
"09","09003","37070","37000","06095","99999","01920","250,000-999,999","100,000-249,999","CT","Hartford CT","Hartford town","Hartford city, CT","99999","Windsor, CT","Hartford School District",35,1 
"09","09003","37070","37000","06103","99999","01920","250,000-999,999","100,000-249,999","CT","Hartford CT","Hartford town","Hartford city, CT","99999","Hartford, CT","Hartford School District",1410,1 
"09","09003","37070","37000","06105","99999","01920","250,000-999,999","100,000-249,999","CT","Hartford CT","Hartford town","Hartford city, CT","99999","Hartford, CT","Hartford School District",18801,1 
"09","09003","37070","37000","06106","99999","01920","250,000-999,999","100,000-249,999","CT","Hartford CT","Hartford town","Hartford city, CT","99999","Hartford, CT","Hartford School District",39902,1 
"09","09003","37070","37000","06110","99999","01920","250,000-999,999","100,000-249,999","CT","Hartford CT","Hartford town","Hartford city, CT","99999","West Hartford, CT","Hartford School District",74,1 
"09","09003","37070","37000","06112","99999","01920","250,000-999,999","100,000-249,999","CT","Hartford CT","Hartford town","Hartford city, CT","99999","Hartford, CT","Hartford School District",22879,1 
"09","09003","37070","37000","06114","99999","01920","250,000-999,999","100,000-249,999","CT","Hartford CT","Hartford town","Hartford city, CT","99999","Hartford, CT","Hartford School District",27449,1 
"09","09003","37070","37000","06117","99999","01920","250,000-999,999","100,000-249,999","CT","Hartford CT","Hartford town","Hartford city, CT","99999","West Hartford, CT","Hartford School District",1338,1 
"09","09003","37070","37000","06120","99999","01920","250,000-999,999","100,000-249,999","CT","Hartford CT","Hartford town","Hartford city, CT","99999","Hartford, CT","Hartford School District",12887,1 
"09","09003","37140","99999","06027","99999"," ","250,000-999,999","Not in a place","CT","Hartford CT","Hartland town"," ","99999","East Hartland, CT","09",1492,1 
"09","09003","37140","99999","06060","99999"," ","250,000-999,999","Not in a place","CT","Hartford CT","Hartland town"," ","99999","North Granby, CT","09",13,1 
"09","09003","37140","99999","06065","99999"," ","250,000-999,999","Not in a place","CT","Hartford CT","Hartland town"," ","99999","Riverton, CT","09",469,1 
"09","09003","37140","99999","06091","99999"," ","250,000-999,999","Not in a place","CT","Hartford CT","Hartland town"," ","99999","West Hartland, CT","09",140,1 
"09","09003","44700","44690","06040","99999","02310","250,000-999,999","25,000-99,999","CT","Hartford CT","Manchester town","Manchester CDP, CT","99999","Manchester, CT","Manchester School District",21775,1 
"09","09003","44700","44690","06042","99999","02310","250,000-999,999","25,000-99,999","CT","Hartford CT","Manchester town","Manchester CDP, CT","99999","Manchester, CT","Manchester School District",8802,1 
"09","09003","44700","99999","06040","99999","02310","250,000-999,999","Not in a place","CT","Hartford CT","Manchester town"," ","99999","Manchester, CT","Manchester School District",13531,1 
"09","09003","44700","99999","06042","99999","02310","250,000-999,999","Not in a place","CT","Hartford CT","Manchester town"," ","99999","Manchester, CT","Manchester School District",14133,1 
"09","09003","45820","75200","06447","99999"," ","250,000-999,999","1000-2499","CT","Hartford CT","Marlborough town","Terramuggus CDP, CT","99999","Marlborough, CT","09",1025,1 
"09","09003","45820","99999","06447","99999"," ","250,000-999,999","Not in a place","CT","Hartford CT","Marlborough town"," ","99999","Marlborough, CT","09",5379,1 
"09","09003","50440","50370","06051","99999","02670","250,000-999,999","25,000-99,999","CT","Hartford CT","New Britain town","New Britain city, CT","99999","New Britain, CT","New Britain School District",30519,1 
"09","09003","50440","50370","06052","99999","02670","250,000-999,999","25,000-99,999","CT","Hartford CT","New Britain town","New Britain city, CT","99999","New Britain, CT","New Britain School District",7853,1 
"09","09003","50440","50370","06053","99999","02670","250,000-999,999","25,000-99,999","CT","Hartford CT","New Britain town","New Britain city, CT","99999","New Britain, CT","New Britain School District",34834,1 
"09","09003","52140","52210","06111","99999","02880","250,000-999,999","25,000-99,999","CT","Hartford CT","Newington town","Newington CDP, CT","99999","Newington, CT","Newington School District",30562,1 
"09","09003","60120","99999","06053","99999","03300","250,000-999,999","Not in a place","CT","Hartford CT","Plainville town"," ","99999","New Britain, CT","Plainville School District",5,1 
"09","09003","60120","99999","06062","99999","03300","250,000-999,999","Not in a place","CT","Hartford CT","Plainville town"," ","99999","Plainville, CT","Plainville School District",17711,1 
"09","09003","65370","99999","06067","99999","03840","250,000-999,999","Not in a place","CT","Hartford CT","Rocky Hill town"," ","99999","Rocky Hill, CT","Rocky Hill School District",19709,1 
"09","09003","68940","69010","06070","99999","04110","250,000-999,999","2500-9999","CT","Hartford CT","Simsbury town","Simsbury Center CDP, CT","99999","Simsbury, CT","Simsbury School District",5827,1 
"09","09003","68940","69010","06089","99999","04110","250,000-999,999","2500-9999","CT","Hartford CT","Simsbury town","Simsbury Center CDP, CT","99999","Weatogue, CT","Simsbury School District",9,1 
"09","09003","68940","75100","06081","99999","04110","250,000-999,999","1000-2499","CT","Hartford CT","Simsbury town","Tariffville CDP, CT","99999","Tariffville, CT","Simsbury School District",1324,1 
"09","09003","68940","80770","06070","99999","04110","250,000-999,999","2500-9999","CT","Hartford CT","Simsbury town","Weatogue CDP, CT","99999","Simsbury, CT","Simsbury School District",807,1 
"09","09003","68940","80770","06089","99999","04110","250,000-999,999","2500-9999","CT","Hartford CT","Simsbury town","Weatogue CDP, CT","99999","Weatogue, CT","Simsbury School District",1969,1 
"09","09003","68940","83990","06070","99999","04110","250,000-999,999","1000-2499","CT","Hartford CT","Simsbury town","West Simsbury CDP, CT","99999","Simsbury, CT","Simsbury School District",712,1 
"09","09003","68940","83990","06092","99999","04110","250,000-999,999","1000-2499","CT","Hartford CT","Simsbury town","West Simsbury CDP, CT","99999","West Simsbury, CT","Simsbury School District",1735,1 
"09","09003","68940","99999","06001","99999","04110","250,000-999,999","Not in a place","CT","Hartford CT","Simsbury town"," ","99999","Avon, CT","Simsbury School District",10,1 
"09","09003","68940","99999","06070","99999","04110","250,000-999,999","Not in a place","CT","Hartford CT","Simsbury town"," ","99999","Simsbury, CT","Simsbury School District",7758,1 
"09","09003","68940","99999","06081","99999","04110","250,000-999,999","Not in a place","CT","Hartford CT","Simsbury town"," ","99999","Tariffville, CT","Simsbury School District",57,1 
"09","09003","68940","99999","06089","99999","04110","250,000-999,999","Not in a place","CT","Hartford CT","Simsbury town"," ","99999","Weatogue, CT","Simsbury School District",835,1 
"09","09003","68940","99999","06092","99999","04110","250,000-999,999","Not in a place","CT","Hartford CT","Simsbury town"," ","99999","West Simsbury, CT","Simsbury School District",2468,1 
"09","09003","70550","99999","06444","99999","04230","250,000-999,999","Not in a place","CT","Hartford CT","Southington town"," ","99999","Marion, CT (PO Boxes)","Southington School District",370,1 
"09","09003","70550","99999","06451","99999","04230","250,000-999,999","Not in a place","CT","Hartford CT","Southington town"," ","99999","Meriden, CT","Southington School District",44,1 
"09","09003","70550","99999","06467","99999","04230","250,000-999,999","Not in a place","CT","Hartford CT","Southington town"," ","99999","Milldale, CT (PO Boxes)","Southington School District",157,1 
"09","09003","70550","99999","06479","99999","04230","250,000-999,999","Not in a place","CT","Hartford CT","Southington town"," ","99999","Plantsville, CT","Southington School District",10431,1 
"09","09003","70550","99999","06489","99999","04230","250,000-999,999","Not in a place","CT","Hartford CT","Southington town"," ","99999","Southington, CT","Southington School District",32067,1 
"09","09003","71390","99999","06042","99999","04170","250,000-999,999","Not in a place","CT","Hartford CT","South Windsor town"," ","99999","Manchester, CT","South Windsor School District",4,1 
"09","09003","71390","99999","06074","99999","04170","250,000-999,999","Not in a place","CT","Hartford CT","South Windsor town"," ","99999","South Windsor, CT","South Windsor School District",25705,1 
"09","09003","74540","74655","06078","99999","04470","250,000-999,999","1000-2499","CT","Hartford CT","Suffield town","Suffield Depot CDP, CT","99999","Suffield, CT","Suffield School District",1325,1 
"09","09003","74540","99999","06078","99999","04470","250,000-999,999","Not in a place","CT","Hartford CT","Suffield town"," ","99999","Suffield, CT","Suffield School District",11088,1 
"09","09003","74540","99999","06093","99999","04470","250,000-999,999","Not in a place","CT","Hartford CT","Suffield town"," ","99999","West Suffield, CT","Suffield School District",3322,1 
"09","09003","82590","82660","06105","99999","04920","250,000-999,999","25,000-99,999","CT","Hartford CT","West Hartford town","West Hartford CDP, CT","99999","Hartford, CT","West Hartford School District",591,1 
"09","09003","82590","82660","06107","99999","04920","250,000-999,999","25,000-99,999","CT","Hartford CT","West Hartford town","West Hartford CDP, CT","99999","West Hartford, CT","West Hartford School District",18698,1 
"09","09003","82590","82660","06110","99999","04920","250,000-999,999","25,000-99,999","CT","Hartford CT","West Hartford town","West Hartford CDP, CT","99999","West Hartford, CT","West Hartford School District",12576,1 
"09","09003","82590","82660","06117","99999","04920","250,000-999,999","25,000-99,999","CT","Hartford CT","West Hartford town","West Hartford CDP, CT","99999","West Hartford, CT","West Hartford School District",15929,1 
"09","09003","82590","82660","06119","99999","04920","250,000-999,999","25,000-99,999","CT","Hartford CT","West Hartford town","West Hartford CDP, CT","99999","West Hartford, CT","West Hartford School District",15474,1 
"09","09003","84900","84970","06109","99999","05070","250,000-999,999","25,000-99,999","CT","Hartford CT","Wethersfield town","Wethersfield CDP, CT","99999","Wethersfield, CT","Wethersfield School District",26668,1 
"09","09003","87000","99999","06095","99999","05220","250,000-999,999","Not in a place","CT","Hartford CT","Windsor town"," ","99999","Windsor, CT","Windsor School District",29044,1 
"09","09003","87070","87140","06096","99999","05250","250,000-999,999","10,000-24,999","CT","Hartford CT","Windsor Locks town","Windsor Locks CDP, CT","99999","Windsor Locks, CT","Windsor Locks School District",12498,1 
"09","09005","02760","99999","06063","99999"," ","100,000-249,999","Not in a place","CT","Litchfield CT","Barkhamsted town"," ","99999","Barkhamsted, CT","09",3285,1 
"09","09005","02760","99999","06065","99999"," ","100,000-249,999","Not in a place","CT","Litchfield CT","Barkhamsted town"," ","99999","Riverton, CT","09",413,1 
"09","09005","02760","99999","06098","99999"," ","100,000-249,999","Not in a place","CT","Litchfield CT","Barkhamsted town"," ","99999","Winsted, CT","09",101,1 
"09","09005","04930","04945","06751","99999","03536","100,000-249,999","1000-2499","CT","Litchfield CT","Bethlehem town","Bethlehem Village CDP, CT","99999","Bethlehem Village, CT","Regional School District 14",2021,1 
"09","09005","04930","99999","06751","99999","03536","100,000-249,999","Not in a place","CT","Litchfield CT","Bethlehem town"," ","99999","Bethlehem Village, CT","Regional School District 14",1556,1 
"09","09005","04930","99999","06795","99999","03536","100,000-249,999","Not in a place","CT","Litchfield CT","Bethlehem town"," ","99999","Watertown, CT","Regional School District 14",30,1 
"09","09005","08210","99999","06752","99999","03530","100,000-249,999","Not in a place","CT","Litchfield CT","Bridgewater town"," ","99999","Bridgewater, CT","Regional School District 12",1727,1 
"09","09005","10940","27390","06018","99999"," ","100,000-249,999","200-999","CT","Litchfield CT","Canaan town","Falls Village CDP, CT","99999","Canaan, CT","09",207,1 
"09","09005","10940","27390","06031","99999"," ","100,000-249,999","200-999","CT","Litchfield CT","Canaan town","Falls Village CDP, CT","99999","Falls Village, CT","09",331,1 
"09","09005","10940","99999","06031","99999"," ","100,000-249,999","Not in a place","CT","Litchfield CT","Canaan town"," ","99999","Falls Village, CT","09",696,1 
"09","09005","16050","99999","06021","99999"," ","100,000-249,999","Not in a place","CT","Litchfield CT","Colebrook town"," ","99999","Colebrook, CT","09",314,1 
"09","09005","16050","99999","06058","99999"," ","100,000-249,999","Not in a place","CT","Litchfield CT","Colebrook town"," ","99999","Norfolk, CT","09",11,1 
"09","09005","16050","99999","06098","99999"," ","100,000-249,999","Not in a place","CT","Litchfield CT","Colebrook town"," ","99999","Winsted, CT","09",1160,1 
"09","09005","17240","99999","06031","99999"," ","100,000-249,999","Not in a place","CT","Litchfield CT","Cornwall town"," ","99999","Falls Village, CT","09",64,1 
"09","09005","17240","99999","06754","99999"," ","100,000-249,999","Not in a place","CT","Litchfield CT","Cornwall town"," ","99999","Cornwall Bridge, CT","09",500,1 
"09","09005","17240","99999","06759","99999"," ","100,000-249,999","Not in a place","CT","Litchfield CT","Cornwall town"," ","99999","Litchfield, CT","09",60,1 
"09","09005","17240","99999","06796","99999"," ","100,000-249,999","Not in a place","CT","Litchfield CT","Cornwall town"," ","99999","West Cornwall, CT","09",796,1 
"09","09005","32290","99999","06031","99999","03515","100,000-249,999","Not in a place","CT","Litchfield CT","Goshen town"," ","99999","Falls Village, CT","Regional School District 06",7,1 
"09","09005","32290","99999","06058","99999","03515","100,000-249,999","Not in a place","CT","Litchfield CT","Goshen town"," ","99999","Norfolk, CT","Regional School District 06",67,1 
"09","09005","32290","99999","06756","99999","03515","100,000-249,999","Not in a place","CT","Litchfield CT","Goshen town"," ","99999","Goshen, CT","Regional School District 06",2853,1 
"09","09005","32290","99999","06759","99999","03515","100,000-249,999","Not in a place","CT","Litchfield CT","Goshen town"," ","99999","Litchfield, CT","Regional School District 06",49,1 
"09","09005","37280","55725","06791","99999","03520","100,000-249,999","2500-9999","CT","Litchfield CT","Harwinton town","Northwest Harwinton CDP, CT","99999","Northwest Harwinton, CT","Regional School District 10",3252,1 
"09","09005","37280","99999","06791","99999","03520","100,000-249,999","Not in a place","CT","Litchfield CT","Harwinton town"," ","99999","Northwest Harwinton, CT","Regional School District 10",2390,1 
"09","09005","40290","99999","06754","99999"," ","100,000-249,999","Not in a place","CT","Litchfield CT","Kent town"," ","99999","Cornwall Bridge, CT","09",35,1 
"09","09005","40290","99999","06757","99999"," ","100,000-249,999","Not in a place","CT","Litchfield CT","Kent town"," ","99999","Kent, CT","09",2258,1 
"09","09005","40290","99999","06785","99999"," ","100,000-249,999","Not in a place","CT","Litchfield CT","Kent town"," ","99999","South Kent, CT","09",686,1 
"09","09005","43370","02690","06750","99999","02220","100,000-249,999","200-999","CT","Litchfield CT","Litchfield town","Bantam borough, CT","99999","Bantam, CT","Litchfield School District",759,1 
"09","09005","43370","43300","06759","99999","02220","100,000-249,999","1000-2499","CT","Litchfield CT","Litchfield town","Litchfield borough, CT","99999","Litchfield, CT","Litchfield School District",1258,1 
"09","09005","43370","99999","06750","99999","02220","100,000-249,999","Not in a place","CT","Litchfield CT","Litchfield town"," ","99999","Bantam, CT","Litchfield School District",686,1 
"09","09005","43370","99999","06759","99999","02220","100,000-249,999","Not in a place","CT","Litchfield CT","Litchfield town"," ","99999","Litchfield, CT","Litchfield School District",4273,1 
"09","09005","43370","99999","06778","99999","02220","100,000-249,999","Not in a place","CT","Litchfield CT","Litchfield town"," ","99999","Northfield, CT","Litchfield School District",1378,1 
"09","09005","43370","99999","06787","99999","02220","100,000-249,999","Not in a place","CT","Litchfield CT","Litchfield town"," ","99999","Thomaston, CT","Litchfield School District",88,1 
"09","09005","43370","99999","06791","99999","02220","100,000-249,999","Not in a place","CT","Litchfield CT","Litchfield town"," ","99999","Northwest Harwinton, CT","Litchfield School District",24,1 
"09","09005","49460","99999","06750","99999","03515","100,000-249,999","Not in a place","CT","Litchfield CT","Morris town"," ","99999","Bantam, CT","Regional School District 06",1,1 
"09","09005","49460","99999","06758","99999","03515","100,000-249,999","Not in a place","CT","Litchfield CT","Morris town"," ","99999","Lakeside, CT","Regional School District 06",354,1 
"09","09005","49460","99999","06763","99999","03515","100,000-249,999","Not in a place","CT","Litchfield CT","Morris town"," ","99999","Morris, CT","Regional School District 06",2033,1 
"09","09005","51350","51420","06057","99999"," ","100,000-249,999","1000-2499","CT","Litchfield CT","New Hartford town","New Hartford Center CDP, CT","99999","New Hartford, CT","09",1122,1 
"09","09005","51350","51420","06061","99999"," ","100,000-249,999","1000-2499","CT","Litchfield CT","New Hartford town","New Hartford Center CDP, CT","99999","New Hartford Center, CT","09",169,1 
"09","09005","51350","51420","06098","99999"," ","100,000-249,999","1000-2499","CT","Litchfield CT","New Hartford town","New Hartford Center CDP, CT","99999","Winsted, CT","09",94,1 
"09","09005","51350","99999","06057","99999"," ","100,000-249,999","Not in a place","CT","Litchfield CT","New Hartford town"," ","99999","New Hartford, CT","09",5585,1 
"09","09005","52630","52560","06776","99999","02850","100,000-249,999","2500-9999","CT","Litchfield CT","New Milford town","New Milford CDP, CT","99999","New Milford, CT","New Milford School District",6523,1 
"09","09005","52630","99999","06755","99999","02850","100,000-249,999","Not in a place","CT","Litchfield CT","New Milford town"," ","99999","Gaylordsville, CT","New Milford School District",1133,1 
"09","09005","52630","99999","06776","99999","02850","100,000-249,999","Not in a place","CT","Litchfield CT","New Milford town"," ","99999","New Milford, CT","New Milford School District",20352,1 
"09","09005","52630","99999","06784","99999","02850","100,000-249,999","Not in a place","CT","Litchfield CT","New Milford town"," ","99999","Sherman, CT","New Milford School District",112,1 
"09","09005","52630","99999","06794","99999","02850","100,000-249,999","Not in a place","CT","Litchfield CT","New Milford town"," ","99999","Washington Depot, CT","New Milford School District",22,1 
"09","09005","53470","53400","06058","99999"," ","100,000-249,999","200-999","CT","Litchfield CT","Norfolk town","Norfolk CDP, CT","99999","Norfolk, CT","09",553,1 
"09","09005","53470","99999","06058","99999"," ","100,000-249,999","Not in a place","CT","Litchfield CT","Norfolk town"," ","99999","Norfolk, CT","09",1156,1 
"09","09005","54030","10870","06018","99999"," ","100,000-249,999","1000-2499","CT","Litchfield CT","North Canaan town","Canaan CDP, CT","99999","Canaan, CT","09",1212,1 
"09","09005","54030","99999","06018","99999"," ","100,000-249,999","Not in a place","CT","Litchfield CT","North Canaan town"," ","99999","Canaan, CT","09",1446,1 
"09","09005","54030","99999","06024","99999"," ","100,000-249,999","Not in a place","CT","Litchfield CT","North Canaan town"," ","99999","East Canaan, CT (PO Boxes)","09",647,1 
"09","09005","54030","99999","06068","99999"," ","100,000-249,999","Not in a place","CT","Litchfield CT","North Canaan town"," ","99999","Salisbury, CT","09",10,1 
"09","09005","60750","75240","06786","99999","03330","100,000-249,999","2500-9999","CT","Litchfield CT","Plymouth town","Terryville CDP, CT","99999","Terryville, CT","Plymouth School District",5387,1 
"09","09005","60750","99999","06782","99999","03330","100,000-249,999","Not in a place","CT","Litchfield CT","Plymouth town"," ","99999","Plymouth, CT","Plymouth School District",2376,1 
"09","09005","60750","99999","06786","99999","03330","100,000-249,999","Not in a place","CT","Litchfield CT","Plymouth town"," ","99999","Terryville, CT","Plymouth School District",4480,1 
"09","09005","65930","99999","06752","99999","03530","100,000-249,999","Not in a place","CT","Litchfield CT","Roxbury town"," ","99999","Bridgewater, CT","Regional School District 12",8,1 
"09","09005","65930","99999","06783","99999","03530","100,000-249,999","Not in a place","CT","Litchfield CT","Roxbury town"," ","99999","Roxbury, CT","Regional School District 12",2228,1 
"09","09005","65930","99999","06793","99999","03530","100,000-249,999","Not in a place","CT","Litchfield CT","Roxbury town"," ","99999","Washington, CT","Regional School District 12",17,1 
"09","09005","65930","99999","06798","99999","03530","100,000-249,999","Not in a place","CT","Litchfield CT","Roxbury town"," ","99999","Woodbury, CT","Regional School District 12",9,1 
"09","09005","66420","41830","06039","99999"," ","100,000-249,999","200-999","CT","Litchfield CT","Salisbury town","Lakeville CDP, CT","99999","Lakeville, CT","09",810,1 
"09","09005","66420","41830","06068","99999"," ","100,000-249,999","200-999","CT","Litchfield CT","Salisbury town","Lakeville CDP, CT","99999","Salisbury, CT","09",118,1 
"09","09005","66420","99999","06031","99999"," ","100,000-249,999","Not in a place","CT","Litchfield CT","Salisbury town"," ","99999","Falls Village, CT","09",189,1 
"09","09005","66420","99999","06039","99999"," ","100,000-249,999","Not in a place","CT","Litchfield CT","Salisbury town"," ","99999","Lakeville, CT","09",1132,1 
"09","09005","66420","99999","06068","99999"," ","100,000-249,999","Not in a place","CT","Litchfield CT","Salisbury town"," ","99999","Salisbury, CT","09",1484,1 
"09","09005","66420","99999","06796","99999"," ","100,000-249,999","Not in a place","CT","Litchfield CT","Salisbury town"," ","99999","West Cornwall, CT","09",8,1 
"09","09005","67960","67890","06069","99999"," ","100,000-249,999","200-999","CT","Litchfield CT","Sharon town","Sharon CDP, CT","99999","Sharon, CT","09",729,1 
"09","09005","67960","99999","06069","99999"," ","100,000-249,999","Not in a place","CT","Litchfield CT","Sharon town"," ","99999","Sharon, CT","09",1806,1 
"09","09005","67960","99999","06754","99999"," ","100,000-249,999","Not in a place","CT","Litchfield CT","Sharon town"," ","99999","Cornwall Bridge, CT","09",42,1 
"09","09005","67960","99999","06796","99999"," ","100,000-249,999","Not in a place","CT","Litchfield CT","Sharon town"," ","99999","West Cornwall, CT","09",205,1 
"09","09005","75730","75660","06787","99999","04500","100,000-249,999","1000-2499","CT","Litchfield CT","Thomaston town","Thomaston CDP, CT","99999","Thomaston, CT","Thomaston School District",1910,1 
"09","09005","75730","99999","06787","99999","04500","100,000-249,999","Not in a place","CT","Litchfield CT","Thomaston town"," ","99999","Thomaston, CT","Thomaston School District",5977,1 
"09","09005","76570","76500","06759","99999","04590","100,000-249,999","25,000-99,999","CT","Litchfield CT","Torrington town","Torrington city, CT","99999","Litchfield, CT","Torrington School District",72,1 
"09","09005","76570","76500","06790","99999","04590","100,000-249,999","25,000-99,999","CT","Litchfield CT","Torrington town","Torrington city, CT","99999","Torrington, CT","Torrington School District",36311,1 
"09","09005","79510","99999","06754","99999","03515","100,000-249,999","Not in a place","CT","Litchfield CT","Warren town"," ","99999","Cornwall Bridge, CT","Regional School District 06",1122,1 
"09","09005","79510","99999","06759","99999","03515","100,000-249,999","Not in a place","CT","Litchfield CT","Warren town"," ","99999","Litchfield, CT","Regional School District 06",8,1 
"09","09005","79510","99999","06777","99999","03515","100,000-249,999","Not in a place","CT","Litchfield CT","Warren town"," ","99999","New Preston, CT","Regional School District 06",331,1 
"09","09005","79720","52770","06777","99999","03530","100,000-249,999","1000-2499","CT","Litchfield CT","Washington town","New Preston CDP, CT","99999","New Preston, CT","Regional School District 12",1142,1 
"09","09005","79720","52770","06794","99999","03530","100,000-249,999","1000-2499","CT","Litchfield CT","Washington town","New Preston CDP, CT","99999","Washington Depot, CT","Regional School District 12",40,1 
"09","09005","79720","99999","06776","99999","03530","100,000-249,999","Not in a place","CT","Litchfield CT","Washington town"," ","99999","New Milford, CT","Regional School District 12",10,1 
"09","09005","79720","99999","06777","99999","03530","100,000-249,999","Not in a place","CT","Litchfield CT","Washington town"," ","99999","New Preston, CT","Regional School District 12",260,1 
"09","09005","79720","99999","06793","99999","03530","100,000-249,999","Not in a place","CT","Litchfield CT","Washington town"," ","99999","Washington, CT","Regional School District 12",1123,1 
"09","09005","79720","99999","06794","99999","03530","100,000-249,999","Not in a place","CT","Litchfield CT","Washington town"," ","99999","Washington Depot, CT","Regional School District 12",1003,1 
"09","09005","80490","56690","06708","99999","04890","100,000-249,999","2500-9999","CT","Litchfield CT","Watertown town","Oakville CDP, CT","99999","Waterbury, CT","Watertown School District",76,1 
"09","09005","80490","56690","06779","99999","04890","100,000-249,999","2500-9999","CT","Litchfield CT","Watertown town","Oakville CDP, CT","99999","Oakville, CT","Watertown School District",8298,1 
"09","09005","80490","56690","06795","99999","04890","100,000-249,999","2500-9999","CT","Litchfield CT","Watertown town","Oakville CDP, CT","99999","Watertown, CT","Watertown School District",673,1 
"09","09005","80490","80420","06795","99999","04890","100,000-249,999","2500-9999","CT","Litchfield CT","Watertown town","Watertown CDP, CT","99999","Watertown, CT","Watertown School District",3574,1 
"09","09005","80490","99999","06779","99999","04890","100,000-249,999","Not in a place","CT","Litchfield CT","Watertown town"," ","99999","Oakville, CT","Watertown School District",26,1 
"09","09005","80490","99999","06795","99999","04890","100,000-249,999","Not in a place","CT","Litchfield CT","Watertown town"," ","99999","Watertown, CT","Watertown School District",9867,1 
"09","09005","86440","87350","06098","99999","05160","100,000-249,999","2500-9999","CT","Litchfield CT","Winchester town","Winsted CDP, CT","99999","Winsted, CT","Winchester School District",7712,1 
"09","09005","86440","99999","06098","99999","05160","100,000-249,999","Not in a place","CT","Litchfield CT","Winchester town"," ","99999","Winsted, CT","Winchester School District",3359,1 
"09","09005","86440","99999","06790","99999","05160","100,000-249,999","Not in a place","CT","Litchfield CT","Winchester town"," ","99999","Torrington, CT","Winchester School District",171,1 
"09","09005","87910","87980","06798","99999","03536","100,000-249,999","1000-2499","CT","Litchfield CT","Woodbury town","Woodbury Center CDP, CT","99999","Woodbury, CT","Regional School District 14",1294,1 
"09","09005","87910","99999","06798","99999","03536","100,000-249,999","Not in a place","CT","Litchfield CT","Woodbury town"," ","99999","Woodbury, CT","Regional School District 14",8681,1 
"09","09007","14300","14370","06412","99999"," ","100,000-249,999","1000-2499","CT","Middlesex CT","Chester town","Chester Center CDP, CT","99999","Chester, CT","09",1558,1 
"09","09007","14300","99999","06412","99999"," ","100,000-249,999","Not in a place","CT","Middlesex CT","Chester town"," ","99999","Chester, CT","09",2436,1 
"09","09007","15350","15420","06413","99999","00810","100,000-249,999","2500-9999","CT","Middlesex CT","Clinton town","Clinton CDP, CT","99999","Clinton, CT","Clinton School District",3368,1 
"09","09007","15350","99999","06413","99999","00810","100,000-249,999","Not in a place","CT","Middlesex CT","Clinton town"," ","99999","Clinton, CT","Clinton School District",9867,1 
"09","09007","15350","99999","06498","99999","00810","100,000-249,999","Not in a place","CT","Middlesex CT","Clinton town"," ","99999","Westbrook, CT","Clinton School District",25,1 
"09","09007","18080","99999","06416","99999","00990","100,000-249,999","Not in a place","CT","Middlesex CT","Cromwell town"," ","99999","Cromwell, CT","Cromwell School District",14005,1 
"09","09007","19130","19200","06417","99999"," ","100,000-249,999","1000-2499","CT","Middlesex CT","Deep River town","Deep River Center CDP, CT","99999","Deep River Center, CT","09",2484,1 
"09","09007","19130","99999","06417","99999"," ","100,000-249,999","Not in a place","CT","Middlesex CT","Deep River town"," ","99999","Deep River Center, CT","09",2145,1 
"09","09007","20810","20740","06422","99999","03535","100,000-249,999","2500-9999","CT","Middlesex CT","Durham town","Durham CDP, CT","99999","Durham, CT","Regional School District 13",2933,1 
"09","09007","20810","99999","06422","99999","03535","100,000-249,999","Not in a place","CT","Middlesex CT","Durham town"," ","99999","Durham, CT","Regional School District 13",4455,1 
"09","09007","22280","49110","06469","99999","01200","100,000-249,999","1000-2499","CT","Middlesex CT","East Haddam town","Moodus CDP, CT","99999","Moodus, CT","East Haddam School District",1413,1 
"09","09007","22280","99999","06415","99999","01200","100,000-249,999","Not in a place","CT","Middlesex CT","East Haddam town"," ","99999","Colchester, CT","East Haddam School District",776,1 
"09","09007","22280","99999","06420","99999","01200","100,000-249,999","Not in a place","CT","Middlesex CT","East Haddam town"," ","99999","Salem, CT","East Haddam School District",44,1 
"09","09007","22280","99999","06423","99999","01200","100,000-249,999","Not in a place","CT","Middlesex CT","East Haddam town"," ","99999","East Haddam, CT","East Haddam School District",5097,1 
"09","09007","22280","99999","06469","99999","01200","100,000-249,999","Not in a place","CT","Middlesex CT","East Haddam town"," ","99999","Moodus, CT","East Haddam School District",1796,1 
"09","09007","22490","22420","06424","99999","01230","100,000-249,999","2500-9999","CT","Middlesex CT","East Hampton town","East Hampton CDP, CT","99999","East Hampton, CT","East Hampton School District",2691,1 
"09","09007","22490","41410","06424","99999","01230","100,000-249,999","2500-9999","CT","Middlesex CT","East Hampton town","Lake Pocotopaug CDP, CT","99999","East Hampton, CT","East Hampton School District",3436,1 
"09","09007","22490","99999","06414","99999","01230","100,000-249,999","Not in a place","CT","Middlesex CT","East Hampton town"," ","99999","Cobalt, CT (PO Boxes)","East Hampton School District",214,1 
"09","09007","22490","99999","06424","99999","01230","100,000-249,999","Not in a place","CT","Middlesex CT","East Hampton town"," ","99999","East Hampton, CT","East Hampton School District",6323,1 
"09","09007","22490","99999","06456","99999","01230","100,000-249,999","Not in a place","CT","Middlesex CT","East Hampton town"," ","99999","Middle Haddam, CT (PO Boxes)","East Hampton School District",295,1 
"09","09007","26270","26370","06409","99999"," ","100,000-249,999","1000-2499","CT","Middlesex CT","Essex town","Essex Village CDP, CT","99999","Centerbrook, CT (PO Boxes)","09",9,1 
"09","09007","26270","26370","06426","99999"," ","100,000-249,999","1000-2499","CT","Middlesex CT","Essex town","Essex Village CDP, CT","99999","Essex Village, CT","09",2486,1 
"09","09007","26270","99999","06409","99999"," ","100,000-249,999","Not in a place","CT","Middlesex CT","Essex town"," ","99999","Centerbrook, CT (PO Boxes)","09",684,1 
"09","09007","26270","99999","06426","99999"," ","100,000-249,999","Not in a place","CT","Middlesex CT","Essex town"," ","99999","Essex Village, CT","09",759,1 
"09","09007","26270","99999","06442","99999"," ","100,000-249,999","Not in a place","CT","Middlesex CT","Essex town"," ","99999","Ivoryton, CT","09",2745,1 
"09","09007","35230","38050","06438","99999","03539","100,000-249,999","1000-2499","CT","Middlesex CT","Haddam town","Higganum CDP, CT","99999","Haddam, CT","Regional School District 17",222,1 
"09","09007","35230","38050","06441","99999","03539","100,000-249,999","1000-2499","CT","Middlesex CT","Haddam town","Higganum CDP, CT","99999","Higganum, CT","Regional School District 17",1476,1 
"09","09007","35230","99999","06424","99999","03539","100,000-249,999","Not in a place","CT","Middlesex CT","Haddam town"," ","99999","East Hampton, CT","Regional School District 17",358,1 
"09","09007","35230","99999","06438","99999","03539","100,000-249,999","Not in a place","CT","Middlesex CT","Haddam town"," ","99999","Haddam, CT","Regional School District 17",2328,1 
"09","09007","35230","99999","06441","99999","03539","100,000-249,999","Not in a place","CT","Middlesex CT","Haddam town"," ","99999","Higganum, CT","Regional School District 17",3962,1 
"09","09007","40710","99999","06419","99999","03539","100,000-249,999","Not in a place","CT","Middlesex CT","Killingworth town"," ","99999","Killingworth, CT","Regional School District 17",6525,1 
"09","09007","47080","99999","06455","99999","03535","100,000-249,999","Not in a place","CT","Middlesex CT","Middlefield town"," ","99999","Middlefield, CT","Regional School District 13",3148,1 
"09","09007","47080","99999","06481","99999","03535","100,000-249,999","Not in a place","CT","Middlesex CT","Middlefield town"," ","99999","Rockfall, CT","Regional School District 13",1277,1 
"09","09007","47360","47290","06457","99999","02490","100,000-249,999","25,000-99,999","CT","Middlesex CT","Middletown town","Middletown city, CT","99999","Middletown, CT","Middletown School District",47648,1 
"09","09007","57320","27810","06475","99999","03180","100,000-249,999","Less than 200","CT","Middlesex CT","Old Saybrook town","Fenwick borough, CT","99999","Old Saybrook, CT","Old Saybrook School District",43,1 
"09","09007","57320","57390","06475","99999","03180","100,000-249,999","1000-2499","CT","Middlesex CT","Old Saybrook town","Old Saybrook Center CDP, CT","99999","Old Saybrook, CT","Old Saybrook School District",2039,1 
"09","09007","57320","67050","06475","99999","03180","100,000-249,999","1000-2499","CT","Middlesex CT","Old Saybrook town","Saybrook Manor CDP, CT","99999","Old Saybrook, CT","Old Saybrook School District",1052,1 
"09","09007","57320","99999","06475","99999","03180","100,000-249,999","Not in a place","CT","Middlesex CT","Old Saybrook town"," ","99999","Old Saybrook, CT","Old Saybrook School District",7108,1 
"09","09007","61800","61870","06480","99999","03390","100,000-249,999","2500-9999","CT","Middlesex CT","Portland town","Portland CDP, CT","99999","Portland, CT","Portland School District",5862,1 
"09","09007","61800","99999","06480","99999","03390","100,000-249,999","Not in a place","CT","Middlesex CT","Portland town"," ","99999","Portland, CT","Portland School District",3646,1 
"09","09007","81680","81750","06498","99999","04980","100,000-249,999","1000-2499","CT","Middlesex CT","Westbrook town","Westbrook Center CDP, CT","99999","Westbrook, CT","Westbrook School District",2413,1 
"09","09007","81680","99999","06498","99999","04980","100,000-249,999","Not in a place","CT","Middlesex CT","Westbrook town"," ","99999","Westbrook, CT","Westbrook School District",4525,1 
"09","09009","01220","01150","06401","99999","00060","250,000-999,999","10,000-24,999","CT","New Haven CT","Ansonia town","Ansonia city, CT","99999","Ansonia, CT","Ansonia School District",19237,1 
"09","09009","01220","01150","06418","99999","00060","250,000-999,999","10,000-24,999","CT","New Haven CT","Ansonia town","Ansonia city, CT","99999","Derby, CT","Ansonia School District",12,1 
"09","09009","03250","99999","06403","99999","03538","250,000-999,999","Not in a place","CT","New Haven CT","Beacon Falls town"," ","99999","Beacon Falls, CT","Regional School District 16",6033,1 
"09","09009","03250","99999","06770","99999","03538","250,000-999,999","Not in a place","CT","New Haven CT","Beacon Falls town"," ","99999","Naugatuck, CT","Regional School District 16",16,1 
"09","09009","04580","99999","06524","99999"," ","250,000-999,999","Not in a place","CT","New Haven CT","Bethany town"," ","99999","Bethany, CT","09",5563,1 
"09","09009","07310","07345","06405","99999","00420","250,000-999,999","2500-9999","CT","New Haven CT","Branford town","Branford Center CDP, CT","99999","Branford, CT","Branford School District",5819,1 
"09","09009","07310","99999","06405","99999","00420","250,000-999,999","Not in a place","CT","New Haven CT","Branford town"," ","99999","Branford, CT","Branford School District",22041,1 
"09","09009","07310","99999","06471","99999","00420","250,000-999,999","Not in a place","CT","New Haven CT","Branford town"," ","99999","North Branford, CT","Branford School District",166,1 
"09","09009","14160","14200","06410","99999","00750","250,000-999,999","2500-9999","CT","New Haven CT","Cheshire town","Cheshire Village CDP, CT","99999","Cheshire, CT","Cheshire School District",5786,1 
"09","09009","14160","99999","06410","99999","00750","250,000-999,999","Not in a place","CT","New Haven CT","Cheshire town"," ","99999","Cheshire, CT","Cheshire School District",23359,1 
"09","09009","14160","99999","06492","99999","00750","250,000-999,999","Not in a place","CT","New Haven CT","Cheshire town"," ","99999","Wallingford, CT","Cheshire School District",116,1 
"09","09009","19550","19480","06418","99999","01110","250,000-999,999","10,000-24,999","CT","New Haven CT","Derby town","Derby city, CT","99999","Derby, CT","Derby School District",12902,1 
"09","09009","22910","22980","06473","99999","01290","250,000-999,999","25,000-99,999","CT","New Haven CT","East Haven town","East Haven CDP, CT","99999","North Haven, CT","East Haven School District",285,1 
"09","09009","22910","22980","06512","99999","01290","250,000-999,999","25,000-99,999","CT","New Haven CT","East Haven town","East Haven CDP, CT","99999","East Haven, CT","East Haven School District",21986,1 
"09","09009","22910","22980","06513","99999","01290","250,000-999,999","25,000-99,999","CT","New Haven CT","East Haven town","East Haven CDP, CT","99999","New Haven, CT","East Haven School District",6986,1 
"09","09009","34950","35020","06437","99999","01800","250,000-999,999","2500-9999","CT","New Haven CT","Guilford town","Guilford Center CDP, CT","99999","Guilford, CT","Guilford School District",2597,1 
"09","09009","34950","99999","06437","99999","01800","250,000-999,999","Not in a place","CT","New Haven CT","Guilford town"," ","99999","Guilford, CT","Guilford School District",19778,1 
"09","09009","35650","99999","06511","99999","01860","250,000-999,999","Not in a place","CT","New Haven CT","Hamden town"," ","99999","New Haven, CT","Hamden School District",43,1 
"09","09009","35650","99999","06514","99999","01860","250,000-999,999","Not in a place","CT","New Haven CT","Hamden town"," ","99999","Hamden, CT","Hamden School District",26265,1 
"09","09009","35650","99999","06517","99999","01860","250,000-999,999","Not in a place","CT","New Haven CT","Hamden town"," ","99999","Hamden, CT","Hamden School District",14804,1 
"09","09009","35650","99999","06518","99999","01860","250,000-999,999","Not in a place","CT","New Haven CT","Hamden town"," ","99999","Hamden, CT","Hamden School District",19848,1 
"09","09009","44560","44630","06443","99999","02280","250,000-999,999","1000-2499","CT","New Haven CT","Madison town","Madison Center CDP, CT","99999","Madison, CT","Madison School District",2290,1 
"09","09009","44560","99999","06443","99999","02280","250,000-999,999","Not in a place","CT","New Haven CT","Madison town"," ","99999","Madison, CT","Madison School District",15979,1 
"09","09009","46520","46450","06450","99999","02400","250,000-999,999","25,000-99,999","CT","New Haven CT","Meriden town","Meriden city, CT","99999","Meriden, CT","Meriden School District",36493,1 
"09","09009","46520","46450","06451","99999","02400","250,000-999,999","25,000-99,999","CT","New Haven CT","Meriden town","Meriden city, CT","99999","Meriden, CT","Meriden School District",24375,1 
"09","09009","46940","99999","06762","99999","03537","250,000-999,999","Not in a place","CT","New Haven CT","Middlebury town"," ","99999","Middlebury, CT","Regional School District 15",7561,1 
"09","09009","46940","99999","06770","99999","03537","250,000-999,999","Not in a place","CT","New Haven CT","Middlebury town"," ","99999","Naugatuck, CT","Regional School District 15",14,1 
"09","09009","47535","47515","06460","99999","02520","250,000-999,999","25,000-99,999","CT","New Haven CT","Milford town","Milford city (balance), CT","99999","Milford city, CT","Milford School District",36719,1 
"09","09009","47535","47515","06461","99999","02520","250,000-999,999","25,000-99,999","CT","New Haven CT","Milford town","Milford city (balance), CT","99999","Milford city, CT","Milford School District",14552,1 
"09","09009","47535","88050","06460","99999","02520","250,000-999,999","1000-2499","CT","New Haven CT","Milford town","Woodmont borough, CT","99999","Milford city, CT","Milford School District",1488,1 
"09","09009","49950","49880","06770","99999","02640","250,000-999,999","25,000-99,999","CT","New Haven CT","Naugatuck town","Naugatuck borough, CT","99999","Naugatuck, CT","Naugatuck School District",31862,1 
"09","09009","52070","52000","06510","99999","02790","250,000-999,999","100,000-249,999","CT","New Haven CT","New Haven town","New Haven city, CT","99999","New Haven, CT","New Haven School District",2737,1 
"09","09009","52070","52000","06511","99999","02790","250,000-999,999","100,000-249,999","CT","New Haven CT","New Haven town","New Haven city, CT","99999","New Haven, CT","New Haven School District",53557,1 
"09","09009","52070","52000","06512","99999","02790","250,000-999,999","100,000-249,999","CT","New Haven CT","New Haven town","New Haven city, CT","99999","East Haven, CT","New Haven School District",7875,1 
"09","09009","52070","52000","06513","99999","02790","250,000-999,999","100,000-249,999","CT","New Haven CT","New Haven town","New Haven city, CT","99999","New Haven, CT","New Haven School District",31992,1 
"09","09009","52070","52000","06515","99999","02790","250,000-999,999","100,000-249,999","CT","New Haven CT","New Haven town","New Haven city, CT","99999","New Haven, CT","New Haven School District",17141,1 
"09","09009","52070","52000","06517","99999","02790","250,000-999,999","100,000-249,999","CT","New Haven CT","New Haven town","New Haven city, CT","99999","Hamden, CT","New Haven School District",49,1 
"09","09009","52070","52000","06519","99999","02790","250,000-999,999","100,000-249,999","CT","New Haven CT","New Haven town","New Haven city, CT","99999","New Haven, CT","New Haven School District",16428,1 
"09","09009","53890","99999","06471","99999","02970","250,000-999,999","Not in a place","CT","New Haven CT","North Branford town"," ","99999","North Branford, CT","North Branford School District",7554,1 
"09","09009","53890","99999","06472","99999","02970","250,000-999,999","Not in a place","CT","New Haven CT","North Branford town"," ","99999","Northford, CT","North Branford School District",6853,1 
"09","09009","54870","54940","06473","99999","03030","250,000-999,999","10,000-24,999","CT","New Haven CT","North Haven town","North Haven CDP, CT","99999","North Haven, CT","North Haven School District",24093,1 
"09","09009","57600","57670","06477","99999"," ","250,000-999,999","10,000-24,999","CT","New Haven CT","Orange town","Orange CDP, CT","99999","Orange, CT","09",13956,1 
"09","09009","58300","99999","06478","99999","03240","250,000-999,999","Not in a place","CT","New Haven CT","Oxford town"," ","99999","Oxford, CT","Oxford School District",12683,1 
"09","09009","62290","99999","06410","99999","03538","250,000-999,999","Not in a place","CT","New Haven CT","Prospect town"," ","99999","Cheshire, CT","Regional School District 16",16,1 
"09","09009","62290","99999","06712","99999","03538","250,000-999,999","Not in a place","CT","New Haven CT","Prospect town"," ","99999","Prospect, CT","Regional School District 16",9376,1 
"09","09009","62290","99999","06770","99999","03538","250,000-999,999","Not in a place","CT","New Haven CT","Prospect town"," ","99999","Naugatuck, CT","Regional School District 16",13,1 
"09","09009","67610","99999","06483","99999","03990","250,000-999,999","Not in a place","CT","New Haven CT","Seymour town"," ","99999","Seymour, CT","Seymour School District",16540,1 
"09","09009","69640","37930","06488","99999","03537","250,000-999,999","2500-9999","CT","New Haven CT","Southbury town","Heritage Village CDP, CT","99999","Southbury, CT","Regional School District 15",3736,1 
"09","09009","69640","99999","06488","99999","03537","250,000-999,999","Not in a place","CT","New Haven CT","Southbury town"," ","99999","Southbury, CT","Regional School District 15",16168,1 
"09","09009","78740","78880","06492","99999","04740","250,000-999,999","10,000-24,999","CT","New Haven CT","Wallingford town","Wallingford Center CDP, CT","99999","Wallingford, CT","Wallingford School District",18209,1 
"09","09009","78740","99999","06473","99999","04740","250,000-999,999","Not in a place","CT","New Haven CT","Wallingford town"," ","99999","North Haven, CT","Wallingford School District",10,1 
"09","09009","78740","99999","06492","99999","04740","250,000-999,999","Not in a place","CT","New Haven CT","Wallingford town"," ","99999","Wallingford, CT","Wallingford School District",26916,1 
"09","09009","80070","80000","06702","99999","04830","250,000-999,999","100,000-249,999","CT","New Haven CT","Waterbury town","Waterbury city, CT","99999","Waterbury, CT","Waterbury School District",3654,1 
"09","09009","80070","80000","06704","99999","04830","250,000-999,999","100,000-249,999","CT","New Haven CT","Waterbury town","Waterbury city, CT","99999","Waterbury, CT","Waterbury School District",25139,1 
"09","09009","80070","80000","06705","99999","04830","250,000-999,999","100,000-249,999","CT","New Haven CT","Waterbury town","Waterbury city, CT","99999","Waterbury, CT","Waterbury School District",27122,1 
"09","09009","80070","80000","06706","99999","04830","250,000-999,999","100,000-249,999","CT","New Haven CT","Waterbury town","Waterbury city, CT","99999","Waterbury, CT","Waterbury School District",14324,1 
"09","09009","80070","80000","06708","99999","04830","250,000-999,999","100,000-249,999","CT","New Haven CT","Waterbury town","Waterbury city, CT","99999","Waterbury, CT","Waterbury School District",29342,1 
"09","09009","80070","80000","06710","99999","04830","250,000-999,999","100,000-249,999","CT","New Haven CT","Waterbury town","Waterbury city, CT","99999","Waterbury, CT","Waterbury School District",10715,1 
"09","09009","80070","80000","06770","99999","04830","250,000-999,999","100,000-249,999","CT","New Haven CT","Waterbury town","Waterbury city, CT","99999","Naugatuck, CT","Waterbury School District",70,1 
"09","09009","82870","82800","06516","99999","04950","250,000-999,999","25,000-99,999","CT","New Haven CT","West Haven town","West Haven city, CT","99999","West Haven, CT","West Haven School District",55564,1 
"09","09009","87560","99999","06716","99999","05280","250,000-999,999","Not in a place","CT","New Haven CT","Wolcott town"," ","99999","Wolcott, CT","Wolcott School District",16680,1 
"09","09009","87700","99999","06525","99999"," ","250,000-999,999","Not in a place","CT","New Haven CT","Woodbridge town"," ","99999","Woodbridge, CT","09",8990,1 
"09","09011","06820","99999","06334","99999"," ","250,000-999,999","Not in a place","CT","New London CT","Bozrah town"," ","99999","Bozrah, CT","09",2543,1 
"09","09011","06820","99999","06336","99999"," ","250,000-999,999","Not in a place","CT","New London CT","Bozrah town"," ","99999","Gilman, CT","09",84,1 
"09","09011","15910","15840","06415","99999","00840","250,000-999,999","2500-9999","CT","New London CT","Colchester town","Colchester CDP, CT","99999","Colchester, CT","Colchester School District",4781,1 
"09","09011","15910","99999","06415","99999","00840","250,000-999,999","Not in a place","CT","New London CT","Colchester town"," ","99999","Colchester, CT","Colchester School District",11287,1 
"09","09011","23400","53120","06357","99999","01320","250,000-999,999","2500-9999","CT","New London CT","East Lyme town","Niantic CDP, CT","99999","Niantic, CT","East Lyme School District",3114,1 
"09","09011","23400","99999","06333","99999","01320","250,000-999,999","Not in a place","CT","New London CT","East Lyme town"," ","99999","East Lyme, CT","East Lyme School District",6607,1 
"09","09011","23400","99999","06357","99999","01320","250,000-999,999","Not in a place","CT","New London CT","East Lyme town"," ","99999","Niantic, CT","East Lyme School District",9438,1 
"09","09011","29910","99999","06254","99999"," ","250,000-999,999","Not in a place","CT","New London CT","Franklin town"," ","99999","North Franklin, CT","09",1922,1 
"09","09011","33900","39940","06351","99999","01740","250,000-999,999","2500-9999","CT","New London CT","Griswold town","Jewett City borough, CT","99999","Jewett City, CT","Griswold School District",3487,1 
"09","09011","33900","99999","06351","99999","01740","250,000-999,999","Not in a place","CT","New London CT","Griswold town"," ","99999","Jewett City, CT","Griswold School District",8464,1 
"09","09011","34250","16960","06340","99999","01770","250,000-999,999","2500-9999","CT","New London CT","Groton town","Conning Towers Nautilus Park CDP, CT","99999","Groton, CT","Groton School District",8834,1 
"09","09011","34250","34180","06340","99999","01770","250,000-999,999","10,000-24,999","CT","New London CT","Groton town","Groton city, CT","99999","Groton, CT","Groton School District",10389,1 
"09","09011","34250","34460","06340","99999","01770","250,000-999,999","200-999","CT","New London CT","Groton town","Groton Long Point borough, CT","99999","Groton, CT","Groton School District",518,1 
"09","09011","34250","43790","06340","99999","01770","250,000-999,999","2500-9999","CT","New London CT","Groton town","Long Hill CDP, CT","99999","Groton, CT","Groton School District",4205,1 
"09","09011","34250","49810","06355","99999","01770","250,000-999,999","2500-9999","CT","New London CT","Groton town","Mystic CDP, CT","99999","Mystic, CT","Groton School District",1238,1 
"09","09011","34250","53260","06340","99999","01770","250,000-999,999","1000-2499","CT","New London CT","Groton town","Noank CDP, CT","99999","Groton, CT","Groton School District",1718,1 
"09","09011","34250","53260","06355","99999","01770","250,000-999,999","1000-2499","CT","New London CT","Groton town","Noank CDP, CT","99999","Mystic, CT","Groton School District",78,1 
"09","09011","34250","57180","06355","99999","01770","250,000-999,999","2500-9999","CT","New London CT","Groton town","Old Mystic CDP, CT","99999","Mystic, CT","Groton School District",3554,1 
"09","09011","34250","61730","06340","99999","01770","250,000-999,999","1000-2499","CT","New London CT","Groton town","Poquonock Bridge CDP, CT","99999","Groton, CT","Groton School District",1727,1 
"09","09011","34250","99999","06340","99999","01770","250,000-999,999","Not in a place","CT","New London CT","Groton town"," ","99999","Groton, CT","Groton School District",3847,1 
"09","09011","34250","99999","06355","99999","01770","250,000-999,999","Not in a place","CT","New London CT","Groton town"," ","99999","Mystic, CT","Groton School District",4007,1 
"09","09011","42390","99999","06249","99999","02130","250,000-999,999","Not in a place","CT","New London CT","Lebanon town"," ","99999","Lebanon, CT","Lebanon School District",7308,1 
"09","09011","42600","30190","06335","99999","02160","250,000-999,999","1000-2499","CT","New London CT","Ledyard town","Gales Ferry CDP, CT","99999","Gales Ferry, CT","Ledyard School District",1162,1 
"09","09011","42600","45595","06339","99999","02160","250,000-999,999","200-999","CT","New London CT","Ledyard town","Mashantucket CDP, CT","99999","Ledyard, CT","Ledyard School District",299,1 
"09","09011","42600","99999","06335","99999","02160","250,000-999,999","Not in a place","CT","New London CT","Ledyard town"," ","99999","Gales Ferry, CT","Ledyard School District",5567,1 
"09","09011","42600","99999","06339","99999","02160","250,000-999,999","Not in a place","CT","New London CT","Ledyard town"," ","99999","Ledyard, CT","Ledyard School District",8003,1 
"09","09011","42600","99999","06340","99999","02160","250,000-999,999","Not in a place","CT","New London CT","Ledyard town"," ","99999","Groton, CT","Ledyard School District",4,1 
"09","09011","42600","99999","06359","99999","02160","250,000-999,999","Not in a place","CT","New London CT","Ledyard town"," ","99999","North Stonington, CT","Ledyard School District",16,1 
"09","09011","43230","99999","06351","99999"," ","250,000-999,999","Not in a place","CT","New London CT","Lisbon town"," ","99999","Jewett City, CT","09",4338,1 
"09","09011","44210","99999","06371","99999","03540","250,000-999,999","Not in a place","CT","New London CT","Lyme town"," ","99999","Old Lyme, CT","Regional School District 18",2406,1 
"09","09011","48900","58520","06353","99999","02580","250,000-999,999","2500-9999","CT","New London CT","Montville town","Oxoboxo River CDP, CT","99999","Oxoboxo River, CT","Montville School District",130,1 
"09","09011","48900","58520","06382","99999","02580","250,000-999,999","2500-9999","CT","New London CT","Montville town","Oxoboxo River CDP, CT","99999","Uncasville, CT","Montville School District",3035,1 
"09","09011","48900","99999","06353","99999","02580","250,000-999,999","Not in a place","CT","New London CT","Montville town"," ","99999","Oxoboxo River, CT","Montville School District",32,1 
"09","09011","48900","99999","06370","99999","02580","250,000-999,999","Not in a place","CT","New London CT","Montville town"," ","99999","Oakdale, CT","Montville School District",7429,1 
"09","09011","48900","99999","06375","99999","02580","250,000-999,999","Not in a place","CT","New London CT","Montville town"," ","99999","Quaker Hill, CT","Montville School District",38,1 
"09","09011","48900","99999","06382","99999","02580","250,000-999,999","Not in a place","CT","New London CT","Montville town"," ","99999","Uncasville, CT","Montville School District",8907,1 
"09","09011","52350","52280","06320","99999","02820","250,000-999,999","25,000-99,999","CT","New London CT","New London town","New London city, CT","99999","New London, CT","New London School District",27603,1 
"09","09011","52350","52280","06375","99999","02820","250,000-999,999","25,000-99,999","CT","New London CT","New London town","New London city, CT","99999","Quaker Hill, CT","New London School District",17,1 
"09","09011","55500","99999","06359","99999","03060","250,000-999,999","Not in a place","CT","New London CT","North Stonington town"," ","99999","North Stonington, CT","North Stonington School District",5297,1 
"09","09011","56270","56200","06334","99999","03120","250,000-999,999","25,000-99,999","CT","New London CT","Norwich town","Norwich city, CT","99999","Bozrah, CT","Norwich School District",49,1 
"09","09011","56270","56200","06360","99999","03120","250,000-999,999","25,000-99,999","CT","New London CT","Norwich town","Norwich city, CT","99999","Norwich, CT","Norwich School District",37541,1 
"09","09011","56270","56200","06380","99999","03120","250,000-999,999","25,000-99,999","CT","New London CT","Norwich town","Norwich city, CT","99999","Norwich, CT","Norwich School District",2862,1 
"09","09011","56270","56200","06389","99999","03120","250,000-999,999","25,000-99,999","CT","New London CT","Norwich town","Norwich city, CT","99999","Norwich, CT","Norwich School District",41,1 
"09","09011","57040","99999","06371","99999","03540","250,000-999,999","Not in a place","CT","New London CT","Old Lyme town"," ","99999","Old Lyme, CT","Regional School District 18",7546,1 
"09","09011","57040","99999","06376","99999","03540","250,000-999,999","Not in a place","CT","New London CT","Old Lyme town"," ","99999","South Lyme, CT (PO Boxes)","Regional School District 18",57,1 
"09","09011","62150","99999","06351","99999"," ","250,000-999,999","Not in a place","CT","New London CT","Preston town"," ","99999","Jewett City, CT","09",6,1 
"09","09011","62150","99999","06365","99999"," ","250,000-999,999","Not in a place","CT","New London CT","Preston town"," ","99999","Preston, CT","09",4720,1 
"09","09011","66210","99999","06415","99999"," ","250,000-999,999","Not in a place","CT","New London CT","Salem town"," ","99999","Colchester, CT","09",13,1 
"09","09011","66210","99999","06420","99999"," ","250,000-999,999","Not in a place","CT","New London CT","Salem town"," ","99999","Salem, CT","09",4138,1 
"09","09011","71670","02550","06330","99999"," ","250,000-999,999","1000-2499","CT","New London CT","Sprague town","Baltic CDP, CT","99999","Baltic, CT","09",1250,1 
"09","09011","71670","99999","06330","99999"," ","250,000-999,999","Not in a place","CT","New London CT","Sprague town"," ","99999","Baltic, CT","09",1667,1 
"09","09011","71670","99999","06350","99999"," ","250,000-999,999","Not in a place","CT","New London CT","Sprague town"," ","99999","Hanover, CT (PO Boxes)","09",67,1 
"09","09011","73770","49810","06355","99999","04380","250,000-999,999","2500-9999","CT","New London CT","Stonington town","Mystic CDP, CT","99999","Mystic, CT","Stonington School District",2892,1 
"09","09011","73770","49810","06378","99999","04380","250,000-999,999","2500-9999","CT","New London CT","Stonington town","Mystic CDP, CT","99999","Stonington, CT","Stonington School District",75,1 
"09","09011","73770","59140","06379","99999","04380","250,000-999,999","2500-9999","CT","New London CT","Stonington town","Pawcatuck CDP, CT","99999","Pawcatuck, CT","Stonington School District",5624,1 
"09","09011","73770","73700","06378","99999","04380","250,000-999,999","200-999","CT","New London CT","Stonington town","Stonington borough, CT","99999","Stonington, CT","Stonington School District",929,1 
"09","09011","73770","99999","06355","99999","04380","250,000-999,999","Not in a place","CT","New London CT","Stonington town"," ","99999","Mystic, CT","Stonington School District",1216,1 
"09","09011","73770","99999","06378","99999","04380","250,000-999,999","Not in a place","CT","New London CT","Stonington town"," ","99999","Stonington, CT","Stonington School District",4395,1 
"09","09011","73770","99999","06379","99999","04380","250,000-999,999","Not in a place","CT","New London CT","Stonington town"," ","99999","Pawcatuck, CT","Stonington School District",3414,1 
"09","09011","78600","99999","06351","99999"," ","250,000-999,999","Not in a place","CT","New London CT","Voluntown town"," ","99999","Jewett City, CT","09",6,1 
"09","09011","78600","99999","06384","99999"," ","250,000-999,999","Not in a place","CT","New London CT","Voluntown town"," ","99999","Voluntown, CT","09",2597,1 
"09","09011","80280","80210","06385","99999","04860","250,000-999,999","2500-9999","CT","New London CT","Waterford town","Waterford CDP, CT","99999","Waterford, CT","Waterford School District",2887,1 
"09","09011","80280","99999","06320","99999","04860","250,000-999,999","Not in a place","CT","New London CT","Waterford town"," ","99999","New London, CT","Waterford School District",14,1 
"09","09011","80280","99999","06375","99999","04860","250,000-999,999","Not in a place","CT","New London CT","Waterford town"," ","99999","Quaker Hill, CT","Waterford School District",3605,1 
"09","09011","80280","99999","06382","99999","04860","250,000-999,999","Not in a place","CT","New London CT","Waterford town"," ","99999","Uncasville, CT","Waterford School District",5,1 
"09","09011","80280","99999","06385","99999","04860","250,000-999,999","Not in a place","CT","New London CT","Waterford town"," ","99999","Waterford, CT","Waterford School District",13006,1 
"09","09013","01080","99999","06043","99999"," ","100,000-249,999","Not in a place","CT","Tolland CT","Andover town"," ","99999","Bolton, CT","09",6,1 
"09","09013","01080","99999","06232","99999"," ","100,000-249,999","Not in a place","CT","Tolland CT","Andover town"," ","99999","Andover, CT","09",3297,1 
"09","09013","06260","99999","06043","99999","00360","100,000-249,999","Not in a place","CT","Tolland CT","Bolton town"," ","99999","Bolton, CT","Bolton School District",4980,1 
"09","09013","16400","99999","06237","99999"," ","100,000-249,999","Not in a place","CT","Tolland CT","Columbia town"," ","99999","Columbia, CT","09",5485,1 
"09","09013","17800","17835","06238","99999","00960","100,000-249,999","2500-9999","CT","Tolland CT","Coventry town","Coventry Lake CDP, CT","99999","Coventry, CT","Coventry School District",2990,1 
"09","09013","17800","69990","06238","99999","00960","100,000-249,999","1000-2499","CT","Tolland CT","Coventry town","South Coventry CDP, CT","99999","Coventry, CT","Coventry School District",1483,1 
"09","09013","17800","99999","06237","99999","00960","100,000-249,999","Not in a place","CT","Tolland CT","Coventry town"," ","99999","Columbia, CT","Coventry School District",7,1 
"09","09013","17800","99999","06238","99999","00960","100,000-249,999","Not in a place","CT","Tolland CT","Coventry town"," ","99999","Coventry, CT","Coventry School District",7955,1 
"09","09013","25360","18220","06029","99999","01440","100,000-249,999","1000-2499","CT","Tolland CT","Ellington town","Crystal Lake CDP, CT","99999","Ellington, CT","Ellington School District",1930,1 
"09","09013","25360","18220","06084","99999","01440","100,000-249,999","1000-2499","CT","Tolland CT","Ellington town","Crystal Lake CDP, CT","99999","Tolland, CT","Ellington School District",15,1 
"09","09013","25360","99999","06029","99999","01440","100,000-249,999","Not in a place","CT","Tolland CT","Ellington town"," ","99999","Ellington, CT","Ellington School District",13617,1 
"09","09013","25360","99999","06066","99999","01440","100,000-249,999","Not in a place","CT","Tolland CT","Ellington town"," ","99999","Vernon Rockville, CT","Ellington School District",40,1 
"09","09013","37910","99999","06231","99999"," ","100,000-249,999","Not in a place","CT","Tolland CT","Hebron town"," ","99999","Amston, CT","09",4083,1 
"09","09013","37910","99999","06248","99999"," ","100,000-249,999","Not in a place","CT","Tolland CT","Hebron town"," ","99999","Hebron, CT","09",5603,1 
"09","09013","44910","45120","06250","99999"," ","100,000-249,999","200-999","CT","Tolland CT","Mansfield town","Mansfield Center CDP, CT","99999","Mansfield Center, CT","09",848,1 
"09","09013","44910","45120","06268","99999"," ","100,000-249,999","200-999","CT","Tolland CT","Mansfield town","Mansfield Center CDP, CT","99999","Storrs Mansfield, CT","09",99,1 
"09","09013","44910","73980","06268","99999"," ","100,000-249,999","10,000-24,999","CT","Tolland CT","Mansfield town","Storrs CDP, CT","99999","Storrs Mansfield, CT","09",5515,1 
"09","09013","44910","73980","06269","99999"," ","100,000-249,999","10,000-24,999","CT","Tolland CT","Mansfield town","Storrs CDP, CT","99999","Storrs, CT","09",9829,1 
"09","09013","44910","99999","06226","99999"," ","100,000-249,999","Not in a place","CT","Tolland CT","Mansfield town"," ","99999","Willimantic, CT","09",445,1 
"09","09013","44910","99999","06250","99999"," ","100,000-249,999","Not in a place","CT","Tolland CT","Mansfield town"," ","99999","Mansfield Center, CT","09",3925,1 
"09","09013","44910","99999","06268","99999"," ","100,000-249,999","Not in a place","CT","Tolland CT","Mansfield town"," ","99999","Storrs Mansfield, CT","09",5867,1 
"09","09013","44910","99999","06269","99999"," ","100,000-249,999","Not in a place","CT","Tolland CT","Mansfield town"," ","99999","Storrs, CT","09",15,1 
"09","09013","69220","69150","06071","99999","04140","100,000-249,999","1000-2499","CT","Tolland CT","Somers town","Somers CDP, CT","99999","Somers, CT","Somers School District",1789,1 
"09","09013","69220","99999","06071","99999","04140","100,000-249,999","Not in a place","CT","Tolland CT","Somers town"," ","99999","Somers, CT","Somers School District",9655,1 
"09","09013","72090","72300","06076","99999","04290","100,000-249,999","2500-9999","CT","Tolland CT","Stafford town","Stafford Springs CDP, CT","99999","Stafford Springs, CT","Stafford School District",4988,1 
"09","09013","72090","99999","06071","99999","04290","100,000-249,999","Not in a place","CT","Tolland CT","Stafford town"," ","99999","Somers, CT","Stafford School District",201,1 
"09","09013","72090","99999","06076","99999","04290","100,000-249,999","Not in a place","CT","Tolland CT","Stafford town"," ","99999","Stafford Springs, CT","Stafford School District",6898,1 
"09","09013","76290","99999","06084","99999","04560","100,000-249,999","Not in a place","CT","Tolland CT","Tolland town"," ","99999","Tolland, CT","Tolland School District",15052,1 
"09","09013","77830","99999","06076","99999"," ","100,000-249,999","Not in a place","CT","Tolland CT","Union town"," ","99999","Stafford Springs, CT","09",773,1 
"09","09013","77830","99999","06242","99999"," ","100,000-249,999","Not in a place","CT","Tolland CT","Union town"," ","99999","Eastford, CT (PO Boxes)","09",81,1 
"09","09013","78250","65230","06066","99999","04680","100,000-249,999","2500-9999","CT","Tolland CT","Vernon town","Rockville CDP, CT","99999","Vernon Rockville, CT","Vernon School District",7474,1 
"09","09013","78250","99999","06066","99999","04680","100,000-249,999","Not in a place","CT","Tolland CT","Vernon town"," ","99999","Vernon Rockville, CT","Vernon School District",21705,1 
"09","09013","85950","99999","06279","99999"," ","100,000-249,999","Not in a place","CT","Tolland CT","Willington town"," ","99999","Willington, CT","09",6041,1 
"09","09015","01430","99999","06278","99999"," ","100,000-249,999","Not in a place","CT","Windham CT","Ashford town"," ","99999","Ashford, CT","09",4317,1 
"09","09015","09190","09120","06234","99999"," ","100,000-249,999","200-999","CT","Windham CT","Brooklyn town","Brooklyn CDP, CT","99999","Brooklyn, CT","09",981,1 
"09","09015","09190","21160","06234","99999"," ","100,000-249,999","1000-2499","CT","Windham CT","Brooklyn town","East Brooklyn CDP, CT","99999","Brooklyn, CT","09",1638,1 
"09","09015","09190","99999","06234","99999"," ","100,000-249,999","Not in a place","CT","Windham CT","Brooklyn town"," ","99999","Brooklyn, CT","09",5591,1 
"09","09015","12130","99999","06331","99999"," ","100,000-249,999","Not in a place","CT","Windham CT","Canterbury town"," ","99999","Canterbury, CT","09",5132,1 
"09","09015","13810","99999","06235","99999"," ","100,000-249,999","Not in a place","CT","Windham CT","Chaplin town"," ","99999","Chaplin, CT","09",2257,1 
"09","09015","13810","99999","06250","99999"," ","100,000-249,999","Not in a place","CT","Windham CT","Chaplin town"," ","99999","Mansfield Center, CT","09",48,1 
"09","09015","21860","99999","06242","99999"," ","100,000-249,999","Not in a place","CT","Windham CT","Eastford town"," ","99999","Eastford, CT (PO Boxes)","09",1327,1 
"09","09015","21860","99999","06259","99999"," ","100,000-249,999","Not in a place","CT","Windham CT","Eastford town"," ","99999","Pomfret Center, CT","09",285,1 
"09","09015","21860","99999","06278","99999"," ","100,000-249,999","Not in a place","CT","Windham CT","Eastford town"," ","99999","Ashford, CT","09",137,1 
"09","09015","36000","99999","06247","99999"," ","100,000-249,999","Not in a place","CT","Windham CT","Hampton town"," ","99999","Hampton, CT","09",1863,1 
"09","09015","40500","18780","06239","99999","02070","100,000-249,999","2500-9999","CT","Windham CT","Killingly town","Danielson borough, CT","99999","Danielson, CT","Killingly School District",4051,1 
"09","09015","40500","99999","06239","99999","02070","100,000-249,999","Not in a place","CT","Windham CT","Killingly town"," ","99999","Danielson, CT","Killingly School District",6264,1 
"09","09015","40500","99999","06241","99999","02070","100,000-249,999","Not in a place","CT","Windham CT","Killingly town"," ","99999","Dayville, CT","Killingly School District",6650,1 
"09","09015","40500","99999","06243","99999","02070","100,000-249,999","Not in a place","CT","Windham CT","Killingly town"," ","99999","East Killingly, CT","Killingly School District",60,1 
"09","09015","40500","99999","06263","99999","02070","100,000-249,999","Not in a place","CT","Windham CT","Killingly town"," ","99999","Rogers, CT (PO Boxes)","Killingly School District",345,1 
"09","09015","59980","49180","06354","99999","03270","100,000-249,999","2500-9999","CT","Windham CT","Plainfield town","Moosup CDP, CT","99999","Moosup, CT","Plainfield School District",3231,1 
"09","09015","59980","60090","06374","99999","03270","100,000-249,999","2500-9999","CT","Windham CT","Plainfield town","Plainfield Village CDP, CT","99999","Plainfield, CT","Plainfield School District",2557,1 
"09","09015","59980","80630","06239","99999","03270","100,000-249,999","1000-2499","CT","Windham CT","Plainfield town","Wauregan CDP, CT","99999","Danielson, CT","Plainfield School District",586,1 
"09","09015","59980","80630","06354","99999","03270","100,000-249,999","1000-2499","CT","Windham CT","Plainfield town","Wauregan CDP, CT","99999","Moosup, CT","Plainfield School District",156,1 
"09","09015","59980","80630","06374","99999","03270","100,000-249,999","1000-2499","CT","Windham CT","Plainfield town","Wauregan CDP, CT","99999","Plainfield, CT","Plainfield School District",250,1 
"09","09015","59980","80630","06387","99999","03270","100,000-249,999","1000-2499","CT","Windham CT","Plainfield town","Wauregan CDP, CT","99999","Wauregan, CT","Plainfield School District",213,1 
"09","09015","59980","99999","06239","99999","03270","100,000-249,999","Not in a place","CT","Windham CT","Plainfield town"," ","99999","Danielson, CT","Plainfield School District",282,1 
"09","09015","59980","99999","06332","99999","03270","100,000-249,999","Not in a place","CT","Windham CT","Plainfield town"," ","99999","Central Village, CT (PO Boxes)","Plainfield School District",258,1 
"09","09015","59980","99999","06354","99999","03270","100,000-249,999","Not in a place","CT","Windham CT","Plainfield town"," ","99999","Moosup, CT","Plainfield School District",2306,1 
"09","09015","59980","99999","06374","99999","03270","100,000-249,999","Not in a place","CT","Windham CT","Plainfield town"," ","99999","Plainfield, CT","Plainfield School District",5566,1 
"09","09015","61030","99999","06234","99999"," ","100,000-249,999","Not in a place","CT","Windham CT","Pomfret town"," ","99999","Brooklyn, CT","09",34,1 
"09","09015","61030","99999","06259","99999"," ","100,000-249,999","Not in a place","CT","Windham CT","Pomfret town"," ","99999","Pomfret Center, CT","09",4213,1 
"09","09015","62710","62640","06260","99999","03480","100,000-249,999","2500-9999","CT","Windham CT","Putnam town","Putnam CDP, CT","99999","Putnam, CT","Putnam School District",7167,1 
"09","09015","62710","62640","06277","99999","03480","100,000-249,999","2500-9999","CT","Windham CT","Putnam town","Putnam CDP, CT","99999","Thompson, CT","Putnam School District",47,1 
"09","09015","62710","99999","06260","99999","03480","100,000-249,999","Not in a place","CT","Windham CT","Putnam town"," ","99999","Putnam, CT","Putnam School District",2343,1 
"09","09015","62710","99999","06277","99999","03480","100,000-249,999","Not in a place","CT","Windham CT","Putnam town"," ","99999","Thompson, CT","Putnam School District",27,1 
"09","09015","67400","99999","06247","99999"," ","100,000-249,999","Not in a place","CT","Windham CT","Scotland town"," ","99999","Hampton, CT","09",978,1 
"09","09015","67400","99999","06264","99999"," ","100,000-249,999","Not in a place","CT","Windham CT","Scotland town"," ","99999","Scotland, CT","09",166,1 
"09","09015","67400","99999","06280","99999"," ","100,000-249,999","Not in a place","CT","Windham CT","Scotland town"," ","99999","Windham, CT","09",212,1 
"09","09015","67400","99999","06330","99999"," ","100,000-249,999","Not in a place","CT","Windham CT","Scotland town"," ","99999","Baltic, CT","09",365,1 
"09","09015","67400","99999","06331","99999"," ","100,000-249,999","Not in a place","CT","Windham CT","Scotland town"," ","99999","Canterbury, CT","09",5,1 
"09","09015","73420","99999","06354","99999"," ","100,000-249,999","Not in a place","CT","Windham CT","Sterling town"," ","99999","Moosup, CT","09",448,1 
"09","09015","73420","99999","06373","99999"," ","100,000-249,999","Not in a place","CT","Windham CT","Sterling town"," ","99999","Oneco, CT (PO Boxes)","09",345,1 
"09","09015","73420","99999","06377","99999"," ","100,000-249,999","Not in a place","CT","Windham CT","Sterling town"," ","99999","Sterling, CT","09",2962,1 
"09","09015","73420","99999","06384","99999"," ","100,000-249,999","Not in a place","CT","Windham CT","Sterling town"," ","99999","Voluntown, CT","09",75,1 
"09","09015","75870","54730","06255","99999","04530","100,000-249,999","1000-2499","CT","Windham CT","Thompson town","North Grosvenor Dale CDP, CT","99999","North Grosvenordale, CT","Thompson School District",1530,1 
"09","09015","75870","63270","06255","99999","04530","100,000-249,999","1000-2499","CT","Windham CT","Thompson town","Quinebaug CDP, CT","99999","North Grosvenordale, CT","Thompson School District",547,1 
"09","09015","75870","63270","06262","99999","04530","100,000-249,999","1000-2499","CT","Windham CT","Thompson town","Quinebaug CDP, CT","99999","Quinebaug, CT","Thompson School District",586,1 
"09","09015","75870","99999","06255","99999","04530","100,000-249,999","Not in a place","CT","Windham CT","Thompson town"," ","99999","North Grosvenordale, CT","Thompson School District",2667,1 
"09","09015","75870","99999","06277","99999","04530","100,000-249,999","Not in a place","CT","Windham CT","Thompson town"," ","99999","Thompson, CT","Thompson School District",4066,1 
"09","09015","75870","99999","06281","99999","04530","100,000-249,999","Not in a place","CT","Windham CT","Thompson town"," ","99999","Woodstock, CT","Thompson School District",62,1 
"09","09015","86790","71250","06226","99999","05190","100,000-249,999","1000-2499","CT","Windham CT","Windham town","South Windham CDP, CT","99999","Willimantic, CT","Windham School District",926,1 
"09","09015","86790","71250","06266","99999","05190","100,000-249,999","1000-2499","CT","Windham CT","Windham town","South Windham CDP, CT","99999","South Windham, CT","Windham School District",495,1 
"09","09015","86790","85810","06226","99999","05190","100,000-249,999","10,000-24,999","CT","Windham CT","Windham town","Willimantic CDP, CT","99999","Willimantic, CT","Windham School District",17737,1 
"09","09015","86790","99999","06226","99999","05190","100,000-249,999","Not in a place","CT","Windham CT","Windham town"," ","99999","Willimantic, CT","Windham School District",1006,1 
"09","09015","86790","99999","06256","99999","05190","100,000-249,999","Not in a place","CT","Windham CT","Windham town"," ","99999","North Windham, CT","Windham School District",2154,1 
"09","09015","86790","99999","06280","99999","05190","100,000-249,999","Not in a place","CT","Windham CT","Windham town"," ","99999","Windham, CT","Windham School District",2950,1 
"09","09015","88190","71530","06281","99999"," ","100,000-249,999","1000-2499","CT","Windham CT","Woodstock town","South Woodstock CDP, CT","99999","Woodstock, CT","09",1291,1 
"09","09015","88190","99999","06281","99999"," ","100,000-249,999","Not in a place","CT","Windham CT","Woodstock town"," ","99999","Woodstock, CT","09",5577,1 
"09","09015","88190","99999","06282","99999"," ","100,000-249,999","Not in a place","CT","Windham CT","Woodstock town"," ","99999","Woodstock Valley, CT","09",1096,1 
